id,nom,nom_zh,adresse,adresse_zh,ville,ville_zh,cp,mail,website,latitude,longitude,descr_fr,descr_en,descr_zh,descr_ja,descr_de,enum( tel (lang,type )),enum( spe (lang))
,,,,,,,,,,,,,,,,,,,
,,,,,,,,,,,,,,,,,,,
44,ParkwayHealth Hong Qiao Medical Center,百汇医疗上海瑞祥门诊部,"No.2258 ,Hong Qiao Road",上海虹桥路2258号,Shanghai,上海,200336,stephanie.wang@parkwayhealth.cn,http://www.parkwayhealth.cn,31.198686,121.384983,,"With a need for people in worldwide to access top quality international healthcare, Singapore Parkway Holdings Limited, the largest private medical group in Asia opened its first medical and surgical center in Shanghai in 2005. ParkwayHeath China currently operates the largest network of 8 medical centers in Shanghai, and 1 state of the art international clinic in Chengdu.
\

\
With a combination of more than 80 expatriate and local physicians, we are capable to provide over 30 specialties, including birthing and inpatient services in more than 20 languages. This leaves you free to enjoy your life, safe in the knowledge that should you need medical assistance, ParkwayHealth is here to provide with you services that you can depend on.
\

\
ParkwayHealth Hong Qiao Medical Center was the first to provide quality medical care to the expat community in Shanghai and continues to be the clinic of choice for you and your family.","百汇是百汇控股（新加坡）公司旗下成员，是亚洲最大的高档医疗服务上市公司。 在新加坡，百汇拥有伊丽莎白医院, 鹰阁医院和东海岸医院 并计划于2011年建设完成Novena医院。目前集团在亚洲地区共拥有15 家医院，3277 张床位，1500 多名著名医疗专家，开设各种专科。
\

\
旗舰机构包括设在马来西亚、印度尼西亚（开发商）、文莱、印度的医院和医疗中心等。.公司以 Parkway Shenton 为品牌，开设 30 多家高档护理和卫生保健机构，在肿瘤（癌症）、肝脏手术、心血管疾病等诸多领域颇有建树，并开设眼科中心、微创手术中心等专门外科。 此外，百汇旗下20 多家子公司还可通过鹰阁 CRC 提供各种完善的健康保健服务，包括实验室检查、医学成像、临床研究 (CRO) 等。百汇控股已在新加坡股票交易所上市。 
\

\
此外，百汇还在全球经营着 45 家患者援救中心，为全球患者提供优质全面的卫生保健服务。百汇曾多次囊括包括 SuperBrands 和 亚洲医院管理奖在内的国际卫生管理与服务品质大奖。 
\

\
作为亚洲最大的国际健康保健服务商，百汇拥有庞大的网点和 1500 多名医师。在上海，共有 70 多名经验丰富的医师，设有6 处交通方便的服务网点。可为门诊和住院患者提供各种医疗保健服务。网点遍及上海市中心、 浦东、虹桥和新天地。 
\

\
上海瑞祥门诊部是上海第一家为外国人社区提供优质医疗服务，并继续成为您及您的家庭选择的医疗机构。
\

\
上海瑞祥门诊部拥有富有经验的医疗团队之一。 许文奇医师，柯宝博医师和琳妲医师在上海累计行医20多年。他们都受过广泛的培训，富有评估和治疗各个年龄段儿童的经验。三位医师的孩子都在上海生活，成为了挑战这座“国际化城市”保持儿童健康的老手。",,,"021 6445 5999 (en,RDV),021 6445 5999 (zh,URG)","INT (zh),GEN (zh),CHIN (zh),PSYCHO (de),PED (zh),DER (zh),OPH (zh),ORL (nl),POD (de),DER (en),ORL (en),END (zh),DER (hi),DIE (fr),ECHO (zh),POD (zh),CHIN (ja),CHIN (en),PED (ja),PED (en),GEN (hk),GEN (en),END (en),INT (en),GYN (fr),GYN (en),GYN (es),PSYCHO (en),PSYCHO (pt),POD (fr),POD (en),KINE (fr),KINE (en),KINE (pt),KINE (es),OPH (en),CHIROP (en),CHIROP (es),DIE (en),DIE (ar),ECHO (en)",
85,Shanghai Punan Hospital International Medical Center,上海浦东新区浦南医院国际医疗部,"No.519, NanMaTou Road (No.219 Linyi Road), Pudong New Area",上海市浦东新区南码头路519号（临沂路219号）,Shanghai,上海,200120,info@punanhospital.com,http://www.punanhospital.com,31.199023,121.517465,,"The Punan Hospital International Medical Department consists of the entire 17th floor of the Shanghai Punan Hospital.
\

\
Located in Shanghai’s presitigious Pudong District, between the Lujiazui Financial Zone and the Shanghai 2010 World Expo Site, the Shanghai Punan Hospital was constructed in 1983. Almost 1000 staff members in 28 clinical departments and 8 medical departments treat nearly 1 million patients each year, while nearly 10,000 surgeries are performed. The Shanghai Punan Hospital has been named a Model Unit by the Shanghai Health Department.
\

\
Since the opening of the International Medical Department, patients living in China from the United States, Germany, Australia, Canada, Japan, and 179 other countries and regions have received care in our hospital. We are also designated as an official “compatriot” hospital of Taiwan.
\

\
During 2011, 350 inpatients were hospitalized at the International Medical Department of our hospital. During that time, we help 8,660 people who came to spend time with their loved ones. We also helped make arrangements to escort 26 people home. We are highly experienced with health insurance companies worldwide, and we are listed as a formal hospital for more than 40 companies.
\

\
The Shanghai Punan Hospital boasts some of China’s most advanced medical equipment, including : two sets of neurosurgery navigation equipment, multiple surgical microscopes, various neuroendoscopy and stereotactic treatment instruments, digital X-ray imaging, CT, high-end ultrasound, DSA, digital mammography systems, to name just a few.
\

\
In addition, we have been leaders in the creation and implementation of an ultra-modern and comprehensive computer management system which accesses and cross-refernces data stored in the Hospital Information System (HIS), the Administrative Office System (OA), the Medical Image Storage and Transmission System (PACS), the Laboratory Information System (LIS), and allows doctors to access the information via Mobile Workstations. This information is then also made available to the Regional Health Information System, which then makes your data available to medical professionals in other facilities, keeping you safe wherever you go.","上海市浦东新区浦南医院是一所集医疗、教学、科研为一体、科室齐全、设备先进、具有相当技术力 量并已形成多个特色专科的国家公立性二级综合性医院。
\

\
能开展各种妇科、颅脑肿瘤、脑动脉瘤动静畸形及重症颅脑损伤的急救处理。此外医院的肝外科；骨科也各有特色并在浦东地区享有良好的声誉；肝外科为浦东新区重点特色专科，上海市中山，华山等多家三级医院在我院开设了多科专家门诊，医院工作量始终保持在上海市二级综合性医院的前列。",,,"137 6123 8181 (en,RDV),021 5094 5088 (en,RDV)","NEUC (zh),NEUR (zh),URO (zh),ORTHOPEDIE (zh),CHI (zh),GYN (zh),PED (zh),STO (zh),ORL (zh),DER (zh),DER (en),ORL (en),GYN (en),NEUR (en),NEUC (en),ORTHOPEDIE (en),PED (en),STO (en),CHI (en),URO (en)",
86,Amicare Test Hospital,AMICARE 测试医院,"No.3215, HongMei Road",虹梅路3215,Shanghai,上海,201103,info@aeglechina.cn,http://www.aeglechina.cn,31.180587,121.393119,"********** DEMO **********
\
Hôpital de démo.
\
Toutes les informations contenues sont fictives.
\
********** DEMO **********","********** DEMO **********
\
This hospital has been created for demo purpose.
\
All information are fictional.
\
********** DEMO **********","********** 测试 **********
\
这是一个虚构医院做演示之用。仅适用于测试。
\
所有的资料均为虚构。
\
********** 测试 **********",,,"021 6414 8979 (en,STAND),021 6414 8979 (zh,STAND)","CAR (zh),GEN (zh),NEUR (zh),PED (zh),GYN (zh),URO (en),URO (zh),ALL (zh),DER (zh),CHIN (zh),GAS (zh),ALL (fr),ALL (de),CAR (en),DER (en),GEN (en),GEN (fr),GEN (de),GEN (ja),GEN (pt),GEN (es),GAS (en),GYN (nl),GYN (en),GYN (fr),GYN (ja),NEUR (en),OPH (en),OPH (de),URO (ja),PED (en),PSY (ja),CHIN (en),PSY (en),ACC (zh),OST (zh),VAC (zh),ACC (en),ACC (fr),OST (ja),VAC (en),POD (zh),INT (zh)",
87,GHC PuDong Medical & Dental Implant/Aesthetic Center,浦东全康医疗中心,"World Financial Center Shop 212, 100 Century Avenue, Pudong New Area",上海浦东新区世纪大道100号环球金融中心商场212室,Shanghai,上海,200120,info@ghcchina.com,http://www.ghcchina.com/,31.240795,121.514352,,"Global HealthCare (GHC) is a medical &amp; dental center operated by international doctors and dentists from the US, Canada, France, Germany, Hong Kong, and Japan. Specialists are available in Cardiology, Urology, Pediatrics, Pulmonology, Internal Medicine, General Medicine, Psychiatry, Family Dentistry, Clinical Psychology, Nutrition, etc…
\

\
We are dedicated to the health and well-being of the global and local communities and passionately committed to providing the highest quality patient care and services in the prevention, diagnosis and treatment of human illness.
\

\

\
Operating Hours:
\
Mon.-Fri.: 8am-7pm
\
Sat.-Sun.: 9am-5pm","全康医疗由世界知名的医生和仁济医院合作设立，致力于为上海地区的国内外人士提供全面和高质量的国际标准医疗保健和诊断治疗服务。
\

\
我们了解您对健康的需求，在全康，我们有先进的医疗设备，舒适的就医环境和来自世界各国和地区的医疗专家，将会为您提供人性化和安全有效的医疗服务。
\

\
我们相信您会满意我们对细节的注重，我们将会为您创造一个温馨，舒适，安全和私密的就医环境。
\

\
1.我们尊重个人的尊严和个人隐私，我们尊重不同国度和民族的文化和需求。
\

\
2.以开放，诚恳的态度对待我们的客户，依据个人病情提供个性化专业服务。
\

\
3.积极普及医疗知识，增强以预防为主的自我保健意识。
\

\
4.全康医疗致力于环境保护事业。
\

\
5.全康医疗注重国际合作，以专业敬业的精神为人类健康做出贡献。
\
",,,"136 8188 8833 (en,URG),021 6877 5093 (en,RDV)",DENT (zh),
93,Shanghai Tokushinkai Dental Clinic (Hongqiao Branch),上海德真会口腔诊所 虹桥诊所,"3F, Maxdo Center, No.8, Xinyi Road, Hongqiao",长宁区兴义路8号万都中心大厦3楼301室(近仙霞路和遵义路),Shanghai,,201100,reception_hq@tokushinkai.com.cn,http://www.tokushinkai.com.cn/,31.210609,121.411714,,"Shanghai Tokushinkai Dental Clinic was opened in the Rainbow Bridge Development District, Shanghai in Nov. 2002. We provide high-quality health care, treatment and services based on the Tokushinkai's &quot;Six-Benefits for patients&quot;, as indicated in the following.
\

\
1.Safe and Secure Treatments
\
2.Satisfaction of Patients' Dignity
\
3.Comfort
\
4.Convenience
\
5.Fairness and Transparency
\
6.Fair Pricing
\

\
We have a comfortable lobby with a warm hue catering for the various needs of patients. You can enjoy many attractive things there, for example free drinks, the Internet, and various kinds of magazines. The cafe-like atmosphere relives your stress before treatments.
\

\
All the examination rooms are completely private; each of them has a unique theme, Mediterranean or Modern China and so on. They help patients relax and are comfortable.
\

\
In addition to general dentistry, child dentistry, orthodontic dentistry, and implant dentistry, we also provide aesthetic dentistry like whitening, as per your request.
\
Not only Japanese staff, but local staffs who can speak Japanese are working in our clinic. So, if you have any questions please don't hesitate to ask us.","中国德真会(德清会)( Tokushinkai Dental China)1998开始在厦门、上海、苏州等地建立了连锁口腔诊所及技工所，其高品质的医疗技术和服务受到了社会各界和患者的肯定和欢迎。
\

\
虹桥诊所2002-2005连续三年获得长宁区优秀诊所称号。2003-2004获上海市&quot;文明行医、优质服务&quot;先进集体称号；2004年，上海德真会总经理陈裕德先生担任长宁区卫生协会常务理事2006年，陈裕德先生获得了&quot;长宁区优秀中国特色社会主义建设者的&quot;光荣称号。",,,"021 5208 0208 (en,STAND),021 5208 0218 (zh,STAND)","EST (zh),PEDO (zh),PAR (zh),HDON (zh),PRO (zh),DENT (zh)",
95,DDS Dental Pudong Clinic,上海缔浦口腔门诊部,"Room 101-103, The Double Dove Great Tower, No.438, PuDian Road, Pudong New District",浦电路438号 双鸽大厦101-103,Shanghai,,200120,pudong@dds-dental.com,http://dds-dental.com,31.22897,121.539933,,"DDS Dental Care is the leading provider of top quality dental care for Shanghai's international community since 1994.
\

\
We have a complete team of professional dentists, specialist, hygienists, dental technicians and dental assistants, most of us are eduacated and trained in Canada, USA, Australia, UK, France, Israel and Germany, our expatriate dentists and support staff speak several languages which includes English, French, Hebrew, German and Chinese, our goal is to provide the best environment for your dental care in Shanghai.
\

\
We offer 4 state-of-art clinics and own dental lab in convenient locations throughout Shanghai, all of them are fully equipped with the latest facillities.
\

\
We follow the strict guideline for sterilization and operation protocols according to Amercian Dental Association (ADA) and Chinese Stomatological Association (CSA) standards.","上海缔矢—DDS齿科是一为驻沪外籍人士提供北美标准齿科服务的临床医疗机构，该企业集团目前拥有六口腔门诊部，分别座落于淮海中路、浦东新区陆家嘴经济开发区、虹桥经济开发区及虹桥枢纽、青浦区徐泾。主要医务工作人员均留学受训于欧美，加拿大，澳大利亚等地，并具备大学口腔医学院教学资职，同时部分外籍医师及管理人员的加盟，更使得该企业集团的团队管理富有欧美文化之特色。
\

\
诊所以全科齿科治疗为主，同时开展口腔正畸，美容齿科，种植术等专科治疗。数年的不懈努力已赢得了广大驻沪及周边地区外籍人士的信任和支持，目前缔矢DDS齿科已成为驻沪外籍人士首选青睐诊所。",,,"131 6200 1688 (en,URG),021 6876 0409 (zh,RDV)","DENT (zh),DENT (en),DENT (fr),DENT (de)",
119,Alpha Dental Clinic,上海康怡口腔门诊部,"No.1919, Hong Qiao Road, Xijiao Garden Villa (East Wing) Block M, Chang Ning District",长宁区虹桥路1919号西郊花园别墅（东苑）M幢,Shanghai,上海,200336,info@alphadental.cn,http://www.alphadental.cn,31.204144,121.394001,,"Alpha Dental Clinic is the first Singaporean-managed private dental practice and has been dental needs of the foreign community in Shanghai since 2004. We are a subsidiary of Singapore Q&amp;M Dental Group listed in the SGX. Q &amp; M Dental Group has more than 50 clinics strategically located island-wide in Singapore. 
\
Our Specialties are Orthodontics (Teeth straightening), Dental Implants, Oral Surgery, Cosmetic Dentistry. We employ advanced dental technologies such as Digital X-ray machine, CEREC® 3D CAD/CAM and Laser Dentistry. 
\
","康怡口腔是首家新加坡管理的牙科门诊部，自二零零四年为上海的外籍人士提供优质个性化的口腔治疗方案。康怡口腔是新加坡上市公司全民牙科的子公司。全民牙科在新加坡拥有50多家口腔门诊部。
\
我们的特色项目有正畸治疗、种植牙、口腔手术、牙齿美容。 我们采用先进的牙科技术如数码X光机、CEREC CAD/CAM系统还有无痛激光治疗
\
",,,"1391 811 1319 (zh,URG),021 6270 2875 (en,RDV)","DENT (zh),DENT (en)",
121,Pearl International Dental Clinic,圣贝国际牙科医院,"2F, No.1386, Wen Guang Building, Hongqiao Road, Changning",长宁区虹桥路1386号文广大厦2楼(近伊犁南路),Shanghai,上海,200051,kqjksh@163.com,http://www.shsbyk.com,31.203512,121.413344,,"Internationally high-class dental institution---Pearl international dental clinic, is dedicated to serving high class people and social elites. It takes international standard as a benchmark in areas of professional talent, treatment equipment, cutting-edge technology, clinical pathway, service pattern and sterile process.
\

\
Pearl dental clinic imported implant systems, targeted intangible orthodontic systems, 3D precise porcelain cosmetic restoration systems, whitening systems, beam CT and ZEISS digital microscope systems, which have passed international JCI accreditation. Pearl has tens of foreign experts with international clinical experience, as well as dental expert from Shanghai No.9 Hospital.
\

\
At present, Pearl dental clinic has opened large-scale and high-class dental chains in Beijing, Shanghai, Guangzhou, Chengdu, Xi’an and Jinan. Pearl’s landing to Shanghai is an important step to make Pearl international dental chain medical institutions spreading across Chinese mainland and to realize the ‘two hundred’ strategy---100 overseas branches and one hundred domestic branches. 
\

\
The international and professional Pearl with high quality, powerful information and great reputation will bring you noble and comfortable dental treatment experience.
\
","上海圣贝牙科医院是国际牙科品牌圣贝牙科旗下的连锁牙科医院，是一所集牙齿正畸、牙齿美容、牙齿修复、牙齿种植、儿童牙科、口腔基础治疗为一体的现代化专业口腔医院，其占地面积3300 平米，拥有23间诊疗室，治疗牙椅24把。为在牙科诊治中做到&quot;专业、专注、专攻&quot;，全院设立有牙齿正畸、牙齿种植、牙齿美容、牙齿修复、儿童牙科五大诊疗中心外，并另设立设放射室、注射室、无菌室、消毒供应室、品供应室及技工室等辅助科室。
\

\
上海圣贝牙科医院作为圣贝国际牙科旗下连锁医院， 获得了圣贝牙科先进的医疗技术、人才设备的支持，并在采用圣贝国际牙科的医疗质量管理体系管理的同时，也实现了牙科医疗服务的&quot;本土化&quot;。为实现不同患者的需求，医院实现全年午休制度与特需医疗服务。在专家上，医院除了圣贝飞行牙医团队外，还聘请了来自九院的王申医生、来自华西的张培志医生、葡萄牙的桑德罗医生等等多名常驻门诊专家。
\

\
圣贝牙科品牌起源于1921年德国，并于2007年入驻中国，与国内多家医院开展口腔治疗合作，又于2011年在中国启动自主品牌圣贝牙科，并先后在北京、成都、济南、西安、广州等地开设了专业口腔医院，上海圣贝牙科医院，是圣贝牙科在中国开设的第八家牙科医院。",,,"021 5021 3999 (en,RDV),021 5021 3999 (zh,STAND)","DENT (zh),DENT (en),EST (zh),HDON (zh),PRO (zh),PEDO (zh),PAR (zh)",
126,CAD Dental Centre,嘉贝尔口腔中心,"Block G, Zhonglian Villa, No.1720, Central Huai Hai Road",徐汇区淮海中路1720号众联别墅G座,Shanghai,上海,200031,caddentalcentre@hotmail.com,http://www.caddental.cn,31.212802,121.447291,,"CAD is the abbreviation for Computer-Aided Design, but at our clinic, it also means COMPASSION, ARTISTRY &amp; DEDICATION, which represents the future trend of dentistry. CAD Dental Centre combines the absolute best in ultramodern dental equipment and technology with the most personal care available. CAD Dental Centre (Shanghai) was the first clinic in China established by Sincere Healthcare of Singapore. Located in the heart of downtown Shanghai, CAD Dental Centre brings experience, technology and proven teamwork from its Singapore practice to China, and offers the same award-winning service locally. 
\

\
With the most advanced technology from Germany, CAD professionals not only achieve for their patients painless treatments, but also relieve their anxieties and shorten visit times. In addition, our partnership with Sirona Dental (Dental Branch of Siemens, Germany) makes CAD Dental Centre the regional training centre for advanced dental technology.
\

\
At CAD, we realize that for our patients, anytime-access to the finest quality healthcare is a big part of their peace of mind. We settle for nothing but the highest international standards in everything we do, and our doctors and staff bring the best possible training and a strong passion to their work. We are confident that your experience at CAD will exceed all your expectations. Who knows? You may even look forward to visiting the dentist!","嘉贝尔口腔位于上海淮海中路上的一幢花园别墅内，拥有完善的私人停车设施；独立的私密诊疗空间以其专业、贴心的装潢设计让顾客享受安心、舒适的治疗过程；拥有国际领先的计算机天然牙修复系统和牙齿美白spa，先进的医疗设备和贴心的微笑服务形成了完美的组合。
\

\
嘉贝尔的外籍齿科专家均来自于国外一流大学并拥有丰富的临床经验，熟悉国外最先进的牙科治疗过程，团队专业的技术能力使得嘉贝尔口腔成为西门子公司强有力的合作伙伴并共同成立培训中心，为亚太地区的口腔医生提供先进的口腔技术培训。
\

\
我们秉承“嘉贝尔口腔，口腔加倍爱”的高标准服务理念，倡导“私人牙医”服务模式，以“以人为本”的医疗准则为每一位来到嘉贝尔的顾客量身定制长期有效的治疗方案， 提供专业的超声波洁牙、牙齿美白、种植牙、牙齿修复、牙齿正畸等口腔全科医疗服务，致力于以更健康的牙齿提升顾客的生活品质，让生活更精彩。",,,"021 6437 5911 (zh,URG),021 6437 7100 (en,STAND),021 6437 7100 (zh,STAND)","STO (zh),STO (en),STO (es)",
129,KOWA DENTAL Jinmao Clinic (Pudong),科瓦金茂店---浦东,"3N1-3N3, J-life Center,No.88, Century Boulevard, Jinmao Tower",浦东新区世纪大道88号金茂大厦(裙房)3N1-3N5,Shanghai,上海,200021,service@kowa.cn,http://www.kowa-dental.com,31.240811,121.512384,,,"科瓦齿科隶属于上海科瓦口腔门诊有限公司，把握世界前沿口腔诊疗技术脉动，专注于为客户提供专业、安全、卫生、美观、舒适的口腔诊疗服务。
\

\
科瓦齿科享用德国百年齿科经验，汇聚中国、美国、法国、日本、中国台湾、韩国、德国等多国国际知名口腔专业医师，特聘多位口腔医学博士后、博士常年坐诊，满足不同国籍会员的诊疗需求。
\
科瓦齿科拥有全球先进口腔诊疗设备，引进德国多款高端的齿科诊疗设备，包括：数字内窥镜、龋齿激光探测、全景扫描机、牙根尖扫描、德国卡瓦牙椅、三维CT等，为您提供精准的口腔诊疗支持。
\
科瓦齿科严格执行德国米拉格消毒灭菌管理，超越您对卫生条件的高要求。
\

\
科瓦齿科拥有心理学级别的就医环境，采用一医一诊室的诊疗方式，国际标准的口腔四手操作，使您在舒适、平静、安全的感觉中完成整个诊疗护理过程，避免自发的恐惧和疼痛的心理暗示。科瓦提供超值的服务价格，会员可享受到相当于国家公立医院特需门诊的价格及每年会员专属免费项目。
\
科瓦齿科严格执行美国ADA专业管理，超越您对口腔诊疗服务的高要求。
\
科瓦齿科提供20余家国际保险直接结算服务。科瓦齿科拥有众多名人、企业CEO、外企高管会员，与世界精英同侪，会员身份自然尊贵。
\
科瓦成为30余家世界500强企业、中国100强企业员工口腔医疗定点机构。 
\
科瓦齿科国际种植中心通过欧盟CE认证，拥有美国、德国、瑞士、瑞典、韩国等全球知名种植系统，并成为口腔种植专业的演示中心及培训基地；国际口腔种植中心落户科瓦，科瓦并成为教学医院。
\
科瓦齿科特邀国际齿科权威专家喻剑明（美国哈佛正畸学博士后）、张永刚、冯雨欣、毕东君、Jean Haziza(法国)等30余位专家坐诊；与美国、日本、德国、中国台湾等国际知名口腔产品生产企业合作；运用先进材料，保护你的口腔健康。
\

\
科瓦齿科以&quot;客户满意，我们永远的追求&quot;为宗旨，始终用超越现在的眼光审度，以未来为导向，以优质个性化的服务理念，为您的口腔健康竭尽全力。",,,"021 5108 2222 (en,STAND),400 6060 222 (zh,STAND)","PED (zh),DENT (zh)",
130,Body & Soul Medical Clinics - Minhang,身闵佳门诊部,"No.211, Cheng Jia Qiao Zhi Road",程家桥支路211号,Shanghai,上海,201107,minhang@bodyandsoul.com.cn,http://www.tcm-shanghai.com,31.190289,121.389805,,"&quot;Helping people to make a smooth transition into harmonious, balanced and healthy living&quot;
\

\
Body &amp; Soul – Medical Clinics is a clinic for Integrative Medicine. The clinic was founded in July 2004 as a private medical facility under Chinese law. Doris Rathgeber and her team have made great efforts to introduce and apply Integrative Medicine in the Shanghai area.
\

\
Doctors and therapists in our clinics offer a wide range of experience and an extensive knowledge of holistic medicine. With comprehensive experience, continuing education and modern diagnostics, we are able to assure our patients a comprehensive and integrative approach to individual healthcare and clinical diagnosis.
\

\
Our Western and Traditional Chinese Medicine Doctors work as a team and treat individually depending upon the patients needs. As the name of our clinic implies, our primary focus is TCM but we are also licensed to provide comprehensive Western medical treatment and diagnosis. 
\

\
Our team consists of Western doctors and therapists as well as of Chinese doctors, who assist to compile a complex TCM diagnosis. All our doctors and therapists are experienced and licensed. Integrative Medicine includes both body and soul, which comprise a whole. 
\

\
Our doctors work closely together with their patients to provide ongoing education and support with regards to necessary changes in lifestyle including diet and exercise programs. 
\

\
Welcome to our clinic in Minhang where we offer internal medicine, gynecology, acupuncture, tuina-massage, physiotherapy, psychological and nutrition consultations. 
\

\
Our Minhang clinic also offers laboratory, ultrasound and X-ray diagnostics. Our in-house pharmacy dispenses all prescribed medications. The Minhang clinic is located in southwest Shanghai. It is close to the crossing of Hongmei Lu and Chengjiaqiao Zhi Road near the City Shop.
\

\
We are looking forward to seeing you in our clinics and appreciate your feedback.",,,,"021 6461 6550 (ja,STAND),021 6461 6550 (en,STAND),021 6461 6550 (zh,STAND)","CHIN (zh),CHIN (en),GYN (zh),INT (zh),DER (de),DER (zh),DIE (zh),GYN (de),ACC (en),GYN (en),DER (ja),CHIROP (en),POD (en),ACC (de),GYN (ja),CHIROP (hk),ACC (zh),DER (en),OST (zh),INT (en),INT (de),INT (ja),DIE (en),OST (en),KINE (en),KINE (de),PSYCHO (en),PSYCHO (es),CHIN (de),CHIN (ja),CHIN (es)",
135,Body & Soul Medical Clinics - Downtown Clinic (Xintiandi),身心佳中医门诊部,"An Ji Plaza, 14th Floor, No.760 South Xizang Road, Huangpu District",黄浦区西藏南路760号，安基大厦14楼,Shanghai,上海,200011,huangpu@bodyandsoul.com.cn,www.tcm-shanghai.com,31.220421,121.491323,,"Body &amp; Soul – Medical Clinics offer an integrative approach to health by combining Traditional Chinese Medicine (TCM) with Western medicine. Our international team of doctors and therapists provides high quality medical care for patients seeking to be treated as naturally as possible and as scientifically as necessary. 
\

\
Body &amp; Soul aims at treating the person as a whole and thus offers complementary therapies such as herbal medicine, acupuncture, cupping, physiotherapy, osteopathy, chiropractics and medical massages, dermatology, gynecology, psychological and nutrition counseling. 
\

\
Body &amp; Soul also offers custom made orthotics from Hong Kong. 
\

\
In our 350 square meter-clinic, the Body &amp; Soul Team offers a variety of services.
\

\
The Downtown Clinic – Xintiandi is located in the Huangpu district, approximately 10 minutes from Xintiandi. The closest subway stations are Laoximen – lines 8 and 10 – and Lujiabang Road – lines 8 and 9.",,,,"021 5101 9262 (ja,STAND),021 5101 9262 (en,STAND),021 5101 9262 (zh,STAND)","INT (zh),GYN (zh),ACC (en),CHIN (zh),OST (zh),INT (en),INT (de),INT (es),CHIN (en),CHIN (de),CHIN (ja),CHIN (es),DIE (zh),DIE (en),CHIROP (hk),KINE (zh),INT (ja),GYN (en),GYN (de),GYN (ja),GYN (es),ACC (zh),ACC (de),ACC (ja),POD (en),CHIROP (en),OST (en),KINE (en),KINE (de),PSYCHO (en),PSYCHO (es)",
136,ParkwayHealth Vantone Medical and Rehabilitation Center,北京德倍施百汇医疗诊所,"1F - 2F, Vantone Center No. Jia 6, Chaowai Street, Chao Yang District",朝阳区朝外大街甲6 万通中心1-2楼,Beijing,北京,100027,info@aeglechina.cn,www.parkwayhealth.cn,39.9197479,116.4563636,,"Vantone Medical and Rehabilitation Center
\

\
Conveniently located at the first floor of the Vantone Center, in the heart of Beijing CBD zone at Chao Yang District, ParkwayHealth Vantone Medical and Rehabilitation Center provides a wide range of medical services: Family Medicine, Pediatrics, Gynecology, Physiotherapy, TCM, Dermatology, Mental Health, Rehabilitation and Pain Care Management Services, General Surgery and Lab.
\

\
The bilingual Family Physician has more than 10 years clinical experience in Family Medicine and is qualified to diagnose and treat a wide variety of ailments in patients of all ages. The dedicated team of Physiotherapists uses DBC program which is the latest technology to providing patients with individually customized therapy programs to help with the recovery and the treatment of a variety of injuries and complaints. DBC program can treat the following conditions: Chronic Musculoskeletal related injuries treatment, Sports injuries treatment, Post-operative rehabilitation and treatment.","德倍施百汇医疗诊所座落于交通便利的北京朝阳区CBD的万通中心一楼。德倍施百汇医疗诊所为您提供多方位的医疗服务：全科，儿科，妇科，中医科，皮科，外科，康复及疼痛管理科，心理科，实验室。
\

\
我们的双语全科医生拥有超过10年的全科临床经验，擅长诊断治疗各年龄段的各种疾病。康复项目包括：慢性骨骼肌肉疼痛治疗，运动损伤治疗，术后康复治疗，儿童运动损伤，儿童脊柱侧弯。专业理疗师团队采用了最先进的技术，为病人提供量身定制的治疗方案，尽可能帮助治愈损伤及解除忧患。",\N,\N,"4000 662 882 (zh,STAND)","GEN (zh),PED (zh),SPO (zh),ORTHOPEDIE (zh),PSYCHO (zh),CHIN (zh),GYN (zh),DER (zh)",
137,ParkwayHealth SIP Medical and Dental Center,苏州园汇诊所,"Room 203-204, Building 10, Li Gong Di Phase III, SIP",苏州工业园区李公堤三期10栋203-204室,Suzhou,苏州,215000,info@aeglechina.cn,http://www.parkwayhealth.cn,31.29861145,120.6950548,,"Conveniently located in SIP district, ParkwayHealth first clinic in Suzhou offers a comprehensive range of Family Medicine, Traditional Chinese Medicine and Dental services provided by bilingual and highly qualified Physicians. 
\

\
The clinic is also equipped with on-site Pharmacy, Laboratory and Imaging Services.",百汇医疗在苏州的第一个诊所位于交通便利的苏州工业园区内，资深的双语医生将为您提供全方位的医疗服务：全科医疗、心理学科与口腔科。诊所内设有药房，实验室与影像服务。,,,"0512 6790 3490 (zh,STAND)","KINE (zh),GEN (zh),DENT (zh),PSYCHO (zh)",
138,Body & Soul Medical Clinics - Century Park Pudong,身浦佳中医门诊部,"Jin Ying Bld (B), Room 1303, 1518 Minsheng Road,No. 80 Hanxiao Road",浦东新区民生路1518号(含笑路80号）金鹰大厦B幢1303室,Shanghai,上海,200135,pudong@bodyandsoul.com.cn,http://www.tcm-shanghai.com/,31.226476,121.556451,,"&quot;Helping people to make a smooth transition into harmonious, ballanced and healthy living&quot;
\

\
Body &amp; Soul – Medical Clinics is a clinic for Integrative Medicine. The clinic was founded in July 2004 as a private medical facility under Chinese law. Doris Rathgeber and her team have made great efforts to introduce and apply Integrative Medicine in the Shanghai area.
\

\
Doctors and therapists in our clinics offer a wide range of experience and an extensive knowledge of holistic medicine. With comprehensive experience, continuing education and modern diagnostics, we are able to assure our patients a comprehensive and integrative approach to individual healthcare and clinical diagnosis.
\

\
Our Western and Traditional Chinese Medicine Doctors work as a team and treat individually depending upon the patients needs. As the name of our clinic implies, our primary focus is TCM but we are also licensed to provide comprehensive Western medical treatment and diagnosis. 
\

\
Our team consists of Western doctors and therapists as well as of Chinese doctors, who assist to compile a complex TCM diagnosis. All our doctors and therapists are experienced and licensed. Integrative Medicine includes both body and soul, which comprise a whole. 
\

\
Our doctors work closely together with their patients to provide ongoing education and support with regards to necessary changes in lifestyle including nutrition, diet and exercise programs. 
\

\
Welcome to our clinic in Pudong where we offer internal medicine, gynecology, acupuncture, tuina-massage, physiotherapy, psychological and nutrition consultations. 
\

\
Our Century Park Clinic also offers laboratory diagnostics. Our in-house pharmacy dispenses all prescribed medications. The Century Park Clinic is located in Pudong, 5 minutes away from Century Park and next to the Entry-Exit Visa Office on Minsheng Road. The closest subway stop is Science and Technology Museum – line 2.
\

\
We are looking forward to seeing you in our clinics and appreciate your feedback.",,,,"021 6162 0361 (ja,STAND),021 6162 0361 (en,STAND),021 6162 0361 (zh,STAND)","GYN (zh),INT (zh),CHIN (zh),PHA (zh),KINE (zh),CHIN (en),DIE (zh),PHA (en),CHIROP (zh),OST (zh),ACC (zh),GYN (en),GYN (de),GYN (ja),GYN (es),DIE (en),PHA (ja),KINE (en),KINE (de),KINE (ja),PSYCHO (en),PSYCHO (de),CHIN (de),CHIN (ja),CHIN (es),INT (en),INT (de),INT (ja),INT (es)",
139,Body & Soul Medical Clinics - Four Seasons Clinic,徐向东中医诊所,"Four Seasons Hotel, Level 6, No.500, Weihai Road",威海路500号，上海四季酒店6楼,Shanghai,上海,201103,jiangan@bodyandsoul.com.cn,www.tcm-shanghai.com,31.233265,121.468898,,"&quot;Helping people to make a smooth transition into harmonious, ballanced and healthy living&quot;
\

\
Body &amp; Soul – Medical Clinics is a clinic for Integrative Medicine. The clinic was founded in July 2004 as a private medical facility under Chinese law. Doris Rathgeber and her team have made great efforts to introduce and apply Integrative Medicine in the Shanghai area.
\

\
Doctors and therapists in our clinics offer a wide range of experience and an extensive knowledge of holistic medicine. With comprehensive experience, continuing education and modern diagnostics, we are able to assure our patients a comprehensive and integrative approach to individual healthcare and clinical diagnosis.
\

\
Our Western and Traditional Chinese Medicine Doctors work as a team and treat individually depending upon the patients needs. As the name of our clinic implies, our primary focus is TCM but we are also licensed to provide comprehensive Western medical treatment and diagnosis. 
\

\
Our team consists of Western doctors and therapists as well as of Chinese doctors, who assist to compile a complex TCM diagnosis. All our doctors and therapists are experienced and licensed. Integrative Medicine includes both body and soul, which comprise a whole. 
\

\
Our doctors work closely together with their patients to provide ongoing education and support with regards to necessary changes in lifestyle including nutrition, diet and exercise programs. 
\

\
Welcome to our clinic in Jing'an where we offer the following services in the elegant treatment rooms of the Qin Spa - Four Seasons Hotel: acupuncture and physiotherapy.
\

\
The Four Seasons Clinic is conveniently located in Jing’an district, in the heart of the city. The closest subway stop is Nanjing West Road – line 2.
\

\
We are looking forward to seeing you in our clinics and appreciate your feedback.",,,,"021 5101 9262 (en,STAND),021 5101 9262 (zh,STAND)","ACC (zh),CHIN (zh),CHIN (en),ORTHOPEDIE (en),ORTHOPEDIE (fr),ORTHOPEDIE (es),KINE (en),KINE (de)",
147,United Family Minhang SRC Clinic,和美家闵行诊所,"Ground Floor, Shanghai Racquet Club, Lane 555, Jinfeng Road, Huacao Town, Minhang District",上海市闵行区华漕镇金丰路555号上海网球俱乐部内,Shanghai,,201107,srcclinic@ufh.com.cn,http://shanghai.ufh.com.cn,31.206655,121.29366,,"The United Family Minhang Clinic is located on the ground floor of the Shanghai Racquet Club in Shanghai’s Minhang District. The clinic opened on November 23, 2004 and offers Family Medicine, Mental Health, Pediatrics, and Obstetrics &amp; Gynecological services to the community.
\

\
As with all facilities in the UFH network, the United Family Minhang Clinic is staffed by highly qualified medical practitioners from China and around the world. The clinic offers direct billing to numerous global insurance providers and strictly adheres to the Joint Commission International (JCI) accreditation standards.
\

\
United Family Minhang Clinic is your trusted partner in health, offering international quality care to all communities in Shanghai.
\
","上海闵行和美家诊所位于闵行区上海网球俱乐部会所1楼，该诊所于2004年11月23日开业，可为居住在俱乐部以及周边社区的国内外居民提供全科、心理科、儿科与妇产科服务。
\

\
与和睦家医疗旗下所有分支机构一样，和美家诊所拥有来自国内及世界各地的高素质医务人员，并与多家国际保险公司合作，可提供全面的保险直接赔付服务。在严格遵守JCI国际标准的前提下，为患者提供全面的高质量医疗服务。
\

\
上海闵行和美家诊所旨在为上海社区提供国际化的高质量医疗服务，是值得您信任的健康伙伴！
\
",,,"021 2216 3999 (zh,URG),021 2201 0995 (zh,STAND)","GEN (zh),GEN (ja),GEN (fr),GEN (en),GEN (nl),GEN (pt),GEN (es)",
150,Shanghai Tokushinkai Dental Clinic-Jingan,:上海德诚会口腔门诊部-静安,"Pacheer Commercial Centre 2F, No.555, Nanjing Road,Jingan District, Shanghai china",上海静安区南京西路555号555商厦2楼,Shanghai,上海,200041,reception_ja@tokushinkai.com.cn,http://www.tokushinkai.com.cn/,31.236743,121.473083,,"Shanghai Tokushinkai Dental Clinic was opened in the Jingan District, city center area of Shanghai, in Nov. 2004. This clinic is on the corner of jointed Chengdu North Rd. and YanAn expressway, near Top of City where high-quality office buildings and several huge hotels are located.
\

\
We have a spacious-comfortable lobby catering for the various needs of patients, for example free drinks, the Internet, and various kinds of magazines. The warm-hearted interior designs relax patients well.
\
All the examination rooms are completely private; each design is based on the seven flowers' images which are famous in China. 
\

\
Any patient can be provided with care, treatment and services by experienced dentists who have advanced specific education oversea. Japanese staffs also deliver their support to patients and provide high-quality health care together with state-of-the-art medical equipment in the finest environment. We are available on Saturdays, Sundays, and holidays as in Japan.
\

\
We provide general dentistry, child dentistry, orthodontic dentistry, implant dentistry, and aesthetic dentistry like whitening as well as Japan.
\

\
We are looking forward to serving the people in Shanghai.
\
",,,,"021-63400290 (zh,RDV),021-63400270 (zh,RDV)","EST (zh),HDON (zh),PRO (zh),DON (zh),PRO (ja),PEDO (zh),PRO (en)",
151,Shanghai East International Medical Center　,上海东方国际医院,"No.150, JiMo Road Shanghai",上海市即墨路150号,Shanghai,上海,200120,marketing@seimc.com.cn.,http://www.seimc.com.cn/,31.243424,121.519096,,"Introduction
\
Shanghai East International Medical Center (SEIMC) is a highly respected joint venture hospital in Shanghai’s booming Lujiazui Financial District. SEIMC opened in 2003 and has been providing quality 24-hour care to the international community in Shanghai and its neighboring provinces. Our dedicated international team of multilingual medical professionals provide a wide range of world-class services that make us the healthcare provider of choice for multinational corporations, international schools, foreign consulates, five-star hotels, and families from all over the world.
\

\
For 10 years, our medical center has been a leader in expatriate healthcare. Some of our notable accomplishments in Shanghai’s medical field include:
\

\
• First to receive a comprehensive hospital operating license in Shanghai 
\
• First to establish 24-hour out-patient and in-patient service 
\
• First to establish in-house operating theaters 
\
• First to offer GE digital x-ray and digital mammography
\
• Primary provider for English-speaking emergency care in Pudong
\

\

\
History 
\
In 2001, the leadership team of a newly-built hospital in Lujiazui was introduced to several doctors and hospital administrators from the United States who were interested in making a difference in China. Out of this conversation came the idea of creating comprehensive hospital with a highly qualified, international team of doctors that would the first of its kind in Shanghai.
\

\
Shanghai East International Medical Center opened its doors in 2003 as a U.S.-China joint venture hospital founded by Shanghai East Hospital and U.S. Healthcare Management Enterprises, Inc., a California-based healthcare organization.
\

\
The hospital continues to care for people of all nationalities and has saved numerous lives since its opening. With an expansion in progress and a growing expatriate community, Shanghai East International Medical Center sees a bright future for healthcare in Shanghai and is committed to delivering exceptional medical care to Shanghai’s citizens for decades to come.
\

\

\
Mission Statement 
\
We shall strive to provide prompt and efficient provision of safe, contemporaneous, evidence-based, patient-oriented and accessible services to Shanghai East International Medical Center's patients. 
\

\

\
Vision &amp; Core
\
Values Shanghai East International Medical Center strive to be the best healthcare provider by offering safe, evidence-based and patient-oriented practices through its global team of professionals.
\
",上海东方联合医院（上海东方国际医院有限公司）是上海最具规模的中外合作的综合性医院。我院能够为您提供综合性的医疗保健服务，包括家庭全科、儿科、妇产科、脊椎神经治疗科、专家会诊、住院服务以及外科手术等。我们拥有众多经验丰富、全日制的国际医疗专家，有24小时的热线电话，并可直接与众多国际保险公司结单。我们正在为越来越多的制造加工业、国际学校、外国领事馆、五星级酒店、以及来自世界各地的家庭提供便捷的高水准的医疗服务。,,,"021 5879-9999 (zh,RDV)","CAR (zh),URG (zh),CHI (zh),GYN (zh),PED (zh),REHAB (zh),CHIN (zh),RHU (zh),INT (zh),END (zh),URO (zh),ORTHOPEDIE (zh),SPO (zh),ONC (zh),OPH (zh),DER (zh),ORL (zh),GEN (zh)",
154,SinoUnited Health-Portman Clinic,盛和康复医疗中心,"Suite 601, Shanghai Centre, No.1376 Nanjing Road (W)Shanghai",上海市静安区南京西路1376号上海商城西峰601室,Shanghai,上海,200040,contact@sinounitedhealth.com,www.sinounitedhealth.com.cn,31.232881,121.457885,,"SinoUnited Health is the first western medical center in Shanghai that specializes in all aspects of pain management and rehabilitation. Since 2004, experts from around the world in the fields of Orthopedics, Physiotherapy, Sports Medicine, Neurology, Osteopathy and Pain Management work together to accurately diagnose and treat our patients’ medical problems. 
\

\
At SinoUnited Health, our goal is more than just the immediate alleviation of pain. We are dedicated to curing people or improving their quality of life after an injury, accident, disease or surgery. We treat the source of pain so that our patients will be able to live without limitations. 
\

\
SinoUnited Health’s three Shanghai medical centers are committed to offering you the highest standard of international healthcare. We welcome you to visit our facilities and explore our extensive direct billing network.
\

\

\
As an International clinic we offer our services in a variety of languages to our patients including: English, Japanese, Chinese, German, Italian, French, Swedish, Danish, Norwegian, and Turkish.
\
","盛和康复医学中心是上海首家以康复治疗、骨科诊疗、疼痛医学和运动医学见长的专业外资高端医疗机构。
\

\

\
2004年成立以来，我们一直致力于提供优质的个性化康复医疗服务。我们拥有世界一流的康复医疗团队。
\

\

\
在盛和康复医学中心，您享受到的是世界一流的医疗服务，并且对于您的治疗不只限于诊所，我们的医务人员会帮助您进行全天候的积极康复！我们的医疗团队将从根源治疗您的伤痛，并且教会您如何在日常生活中预防病痛。
\

\
让您随心所“动”！
\
",,,"021 6279 8920 (zh,STAND)","KINE (zh),ORTHOPEDIE (zh),REHAB (zh),SPO (zh),OST (zh),NEUR (zh)",
155,Klinoerth Therapy Clinic,明珍健康信息咨询,"Room 1819, 500 Xiang Yang Nan Road, Xu Hui district, Shanghai","上海徐汇区，襄阳南路500号, 1819室",Shanghai,上海,,info@klinoerth.com,http://www.klinoerth.com/,31.211837,121.464358,"La philosophie de Klinœrth : La voie vers votre guérison 
\

\
Notre philosophie favorise un style de vie plus sain et fournit des services en réadaptation chez les enfants et les adultes à travers des professionnels qualifiés qui ont comme objectif d'établir la norme en Chine pour des soins en réadaptation. Cela exige un travail d'équipe rigoureux, ainsi qu'un grand dévouement. Nous mettons notre écoute et notre volonté d'apprentissage au service de nos patients.
\

\

\
L'atteinte de cet objectif se traduit par une prise en charge individualisée de chaque patient, et l'application de normes éthiques et professionnelles supérieures dans le domaine de la santé.
\

\

\
Notre philosophie est le fondement de notre réussite.
\

\
- Psychologie
\
- Orthophonie 
\
- Physiothérapie ou Kinésithérapie
\
- Chiropractie
\
- Médicine Alternative: balancement énergétique
\
- Ergothérapie
\
- Semelle Orthopédique
\
","Our philosophy is to promote a healthier lifestyle and provide rehabilitation services for children and adults through the treatment of caring and qualified professionals who are committed to setting the standard of rehabilitative care in China.
\

\
This requires relentless team work and great devotion. We put our listening and our insatiable willingness to learn at our patient's disposition.
\

\
The fulfillment of this objective translates into an individualized treatment plan for each patient and the application of higher ethical and professional standards within the healthcare field.
\

\
Our philosophy is the foundation of our success.
\

\
We can provide you with a wide range of treatments dedicated to improve your quality of life, including:
\

\
-Acupuncture
\
- Psychology
\
- Educational psychology
\
- Physiotherapy
\
- Chiropractics
\
- Speech Therapy
\
- Occupational Therapy
\
- Energy Balancing
\
- Foot Orthotics
\
","Klinoerth的宗旨是提倡一种更加健康的生活方式，并且我们通过在中国具有标准康复治疗的专业人员为孩子和成人进行治疗服务。这不仅要求我们具有不懈的团队精神，更需要有对工作的巨大热忱。我们将非常乐意站在病人的角度上去倾听并学习。
\

\
Klinoerth的宗旨将会完全的融入到每一个病人的个性化治疗中，并且把更高的道德和专业化标准的应用贯穿于医疗保健领域之中。
\

\
这一切便是我们成功的基础。
\

\
我们提供一系列的治疗方式以提高您的健康质量。
\

\
针灸
\
心理治疗
\
教育（改造）心理学
\
物理治疗
\
脊柱神经按摩治疗
\
语言治疗
\
职业治疗
\
替代治疗
\
足部矫正
\
",,,"021 5466 2621 (zh,RDV)","ACC (zh),CHIROP (zh),ORTHOPEDIE (zh),OST (zh),PSYCHO (zh),KINE (zh),ORTHOPHO (zh),REHAB (zh)",
156,Shanghai Aier Eye Hospital-International Patients Service Center,爱尔眼科-国际部,"No.1286, Hongqiao Road (near Songyuan Road), Changning District, Shanghai",长宁区虹桥路1286号（近宋园路）,Shanghai,上海,,ipsc@aier021.com,http://www.aier021.com/en/,31.201933,121.419199,,"Shanghai Aier Eye Hospital, founded by the AIER Ophthalmology Hospital Group, which is the largest chain ophthalmology center in China, is a large-scale comprehensive ophthalmic medical center &amp; hospital. Shanghai Aier Eye Hospital is committed to providing world-class professional ophthalmic services.
\

\

\
International Patients Service Center(IPSC) of Shanghai AIER Eye Hospital is committed to provide high quality and comprehensive eye care service at international standards for the expatriates living in shanghai and beyond. We help you treat and take care of your sight. Whether you need highly specialized surgery or simply your first pair of glasses, you can get the very best ophthalmic care at IPSC.
\

\

\
IPSC has a professional team consisted of doctors and nurses who are multi-lingual (English, Japanese) and have international education background and working experience. Our medical doctors are qualified ophthalmologists and are licensed both in China and abroad. They specialize in all aspects of eye care, including diagnosis, management and surgery for eye diseases. 
\

\

\
IPSC also offers a complete range of support services, such as telephone/online consultation, routin eye screen and 24-hour inpatient service, etc.
\
",,,,"(021)32519930 (en,RDV)","OPH (zh),ORTHOPTIE (zh)",
158,Brånemark Osseointegration Center Shanghai,上海百年茂口腔门诊部,"368, Shanghai Centre, No.1376, Nanjing West Road, Shanghai",上海静安区南京西路1376号上海商城3楼368室,Shanghai,上海,200003,info@abocs.cn,http://www.abocs.cn/,31.232802,121.458485,,"Brånemark Osseointegration Center
\
It is a privilege for our Shanghai operation to use the name “Brånemark Osseointegration Center” under direct authorization by Professor P-I Brånemark, “The Father of Dental Implants”.
\

\
It was the early sixties in Sweden when Professor P-I Brånemark discovered the phenomenon of “Osseointegration”. In 1965 Professor Brånemark treated the first patient with titanium dental implants. Since then, over millions of patients worldwide have received dental implants and enjoy better quality of life.
\

\
Our Company
\
Brånemark Osseointegration Center Shanghai, ABOCS, is a joint venture between the Dental Implants and Maxillofacial Centre (Hong Kong) and the Tokushinkai Dental Group (Shanghai).
\

\
Our professional team consists of experts from China, specialists from Hong Kong and Singapore.
\

\
Brånemark Osseointegration Center Shanghai has the state-of-the-art clinical facilities and cutting edge dental equipment for imaging, diagnosis and treatment. For examples, we have Sirona® C8+ and C4+ dental units, NewTom® VGi Cone Beam Scanner, KLS Martin marLED® operating light, Milestone Scientific CCLAD STA™, Nobel Biocare® Dental Implants, SimPlant® Crystal simulation software etc.","上海百年茂口腔Brånemark Osseointegration Center (BOC) –百年茂骨整合中心标志着一个非凡的背景。
\

\
当今种植牙技术源于瑞典白年茂教授（ Professor PI Brånemark） 在六十年代所作有关《骨整合技术》 Osseointegration 的科研成果。自1965年第一位种植牙患者起，到今天种植牙已经造福了数以百万计的患者。
\

\
和香港DIMFC一样，上海百年茂口腔是全球少数获得瑞典《骨整合技术》之父白年茂教授 （Professor PI Brånemark ）直接授权可使用其冠名权的种植牙中心。
\
",,,"137 0171 8101 (zh,URG),021 6289 8101 (zh,RDV)","CHIRM (zh),PAR (zh),PRO (zh),STO (zh),PRO (en),PRO (fr),PRO (de),CHIRM (en),PAR (en),STO (en)",
159,Cidi Dental,西典齿科,"Room 706-708, No. 495, Jiangning Road",江宁路495号博鸿大厦,Shanghai,上海,200040,dentist@cididental.com,http://www.cididental.com/cn/,31.241443,121.458058,,"Cidi Dental is a successfully launched joint-venture clinic. 
\

\
Cidi Dental will be providing high standard dental technique and dental care to the expat communities. 
\

\
Our goal is to be your partners for good oral health and help you to achieve a healthy smile for a lifetime. 
\

\
CIDI DENTAL will make you feel at home.","西典齿科是以新的齿科理念为驻沪的外籍家庭提供最为细致的牙科医疗保健机构，从最基本的消毒隔离到最先进的牙科美容治疗技术都以ADA（AMERICAN DENTAL ASSOCIATION）的要求为标准，体现以人为本的最终医疗准则，同时将国外最新的齿科保健知识带给您和家人。
\

\
1.　西典齿科拥有全部国外进口的设备和材料，保证了治疗过程的安全性及准确性。所有治疗程序都会在第一时间让您知晓。
\

\
2.　西典齿科的牙科医师及助手都经过专业培训并曾赴国外受训，他们将给您最专业最安全的牙科服务。
\

\
3.　西典齿科的齿科医师及助手将与您一起制定医疗计划，所有治疗程序都会在第一时间让您知晓,以细致入微的人性化，专业化精神缓解您的顾虑。
\

\
4.　西典齿科很荣幸地邀请到了DR. LING(毕业于哈佛牙医学院,现任UCLA牙周病学讲师)作为诊所的种植牙手术指导及牙齿美容保健顾问专家。
\
","海にある歯科医院CIDI DENTALの日本語HP兼ブログです。
\
浦東・浦西にそれぞれオフィスがあり、日本人Drがいます。
\
ここでは主に浦東の最新情報を更新していきますのでよろしくお願いします！
\
",,"021-51154575 (en,RDV),13621798486 (zh,URG),021-51154550 (ja,RDV)","DENT (zh),PAR (zh),HDON (zh)",
161,TOWA Medical Center(PuDong),上海东和邦道门诊部（浦东）,"No.5, JingKang Road, Pudong District,Shanghai",上海市浦东新区锦康路5号,Shanghai,上海,,info@towa-clinic.com,http://www.towa-clinic.com/index/index_en.html,31.222666,121.544761,,"From the perspective of the patient, TOWA BUND MEDICAL CENTER provides the most advanced and high-end private medical services.Our college cooperates with their own medical team and external hospital clinical departments, to provide comprehensive perfect medical services for patients. According to the results of the patient's symptoms consultation, providing the most appropriate examination, treatment and external linkage treatment services. 
\

\
Medical department
\
We have fruitful clinic experience in respiratory medicine, digesting internal medicine, endocrine division and hematology. We can make the swift reflection on various incurable diseases. In the terms of pediatric medicine, we have made great achievements on the treatment of Pneumonia, nephritis, diarrhea which seriously endanger the health of children. Large numbers of patients come here due to the achievements above. 
\
－Paediatrics department－
\
Welcome to advisory information on infant health care. 
\
Diagnoses range：A variety of common diseases in pediatrics, such as asthma, skin diseases, slow development, diabetes, etc. 
\
－Surgical department－
\
We have set up the general surgery and gastrointestinal surgery professional team. Through the efforts made by all the staffs, we have formed the comprehensive department with relatively higher level, more specific division and stronger technical power. 
\
－Rehabilitation department－
\
Diagnoses range：All kinds of sequelae rehabilitation treatment which is caused by traumatic. 
\
－Department of gynecology－
\
We have strong technical force in gynecology which is the comprehensive department combined the Chinese medicine, Western medicine and Chinese and Western Medicine. For many gynecological diseases especially the Irregular menstruation, cervicitis and pelvic inflammatory disease we adopt the treatment of Integrative Medicine which has great effect, high cure rate, and few side effects and low relapse rate. Our department is devoted to decrease the suffering of female friends and bring them with heath. 
\
－Traditional Chinese medicine department－
\
Diagnoses range：Provide various personalized supplements of TCM prescription, prescription and Chinese massage. 
\
－Dermatology department－
\
Treat various dermatologys with high efficiency by combining the Western medicine treatment means with advantages of Chinese medicine in our hospital which has achieved satisfied effect. 
\
－Ophthalmology department－
\
We can correct myopia, treat cataract, glaucoma, vitreous body, retinal disease, strabismus, Pediatric Ophthalmology, keratopathy, ocular surface disease and orbital disease. We do not have the whole project of professional medical optometry ophthalmology clinic. 
\
－ENT department－
\
ENT common test. Diagnosis and treatment of frequently-occurring disease. We have maintained the advanced technical domestically especially in the treatment of otitis media. We have also connected much experience in the diagnosis and treatment of rhinitis. 
\
－Urology department－
\
Treat various inflammation and stones by adopting traditional Chinese medical methods which has fair effect and accepted widely by the people. 
\
－Dental department－
\
Diagnoses range：Children's Dentistry / General Dentistry / Orthodontics whitening / oral surgery and so on.","东和邦道门诊部从患者及病人的个人角度出发，提供最先进高端及私密的医疗服务。本院协同自身的医疗团队及外部综合医院的诊疗部门，为患者提供全面健全的各项医疗服务。根据患者症状的会诊综合结果，提供最合适的检查、治疗及外部联动诊疗服务。 
\

\

\
－内科－
\
对呼吸内科、消化内科、内分泌科、血液内科具有丰富的临床经验，能对各种疑难杂症做出快速的反应，在小儿内科方面，对严重危害小儿健康的肺炎、肾炎、腹泻病的诊治取得了不菲的成绩，大批患者慕名而来。 
\
－小儿科－
\
欢迎随时咨询有关婴幼儿的健康保健情报。 
\
诊疗范围：儿科的各种常见病，如哮喘、皮肤病、发育缓慢、糖尿病等 
\
－外科－
\
设有普通外科、肠胃外科等专业组。经过全院上下的一致努力，已经形成整体水平较高、专业分工较细、技术力量强的综合性科室。 
\
－整形外科－
\
诊疗范围：各种腰间盘相关的骨及神经痛、以及骨折、脱臼等外伤。 
\
－康复科－
\
诊疗范围：各种外伤引起的后遗症的康复治疗等。 
\
－妇科－
\
妇科技术力量雄厚，是一个中医、西医、中西医结合综合性科室。对于多种妇科疾病，尤其是月经不调、宫颈炎、盆腔炎等，采用中西医结合的治疗方法，疗效显著，治愈率高，副作用小，复发率低。本科室致力于为女性朋友减小痛苦、带来健康的福音。 
\
－中医科－
\
诊疗范围：提供各种个性化进补的中医处方、食补处方以及中医推拿等。 
\
－皮肤科－
\
采用西医诊疗手段结合本院优势中医中药，高效治疗各种皮肤病，取得令患者满意的疗效。 
\
－眼科－
\
矫正近视，治疗白内障、青光眼、玻璃体、视网膜疾病、眼底疾病、斜视、小儿眼科、角膜病、眼表疾病、眼眶病，还设有专业医学验光配镜等全眼科诊疗项目。 
\
－耳鼻喉科－
\
五官科常规检查、多发病的诊治；在耳鼻喉科，尤其在中耳炎治疗方面保持着国内先进水平；在鼻炎的诊断治疗上也积累了诸多经验。 
\
－泌尿科－
\
通过传统中医手法治疗各种炎症和结石，治疗效果良好，获得了社会的广泛认可。 
\
－牙科－
\
诊疗范围：儿童牙科/一般牙科/牙齿矫正美白/口腔外科等。",,,"021-5017-9407 (zh,RDV),021-5017-9406（Dent (zh,RDV)","PED (zh),CHI (zh),REHAB (zh),GYN (zh),CHIN (zh),DER (zh),OPH (zh),INT (zh),CHIRPL (zh),URO (zh),DENT (zh),ORL (zh)",
162,TOWA Medical Center(GuBei),上海藤和门诊部（古北）,"3nd No.88 RongHua Road, Changning District,Shanghai",上海市长宁区荣华东道88号3F（华一银行上）,Shanghai,上海,,,http://www.towa-clinic.com/index/index_en.html,31.200446,121.401445,,"From the perspective of the patient, TOWA BUND MEDICAL CENTER provides the most advanced and high-end private medical services.Our college cooperates with their own medical team and external hospital clinical departments, to provide comprehensive perfect medical services for patients. According to the results of the patient's symptoms consultation, providing the most appropriate examination, treatment and external linkage treatment services. 
\

\
Medical subjects:: 
\
Internal Medicine・Paediatrics・Dermatology・Surgical・Plastic Surgery・Ophthalmology・Otolaryngology・Urology・Gynaecology・Traditional chinese medicine・Rehabilitation clinic・Gastric endoscopy 
\
","东和邦道门诊部从患者及病人的个人角度出发，提供最先进高端及私密的医疗服务。本院协同自身的医疗团队及外部综合医院的诊疗部门，为患者提供全面健全的各项医疗服务。根据患者症状的会诊综合结果，提供最合适的检查、治疗及外部联动诊疗服务。 
\

\
東和邦道 &gt; 古北门诊部介绍 
\
上海藤和门诊部(古北) 所 在 地：上海市长宁区荣华东道88号3F（华一银行上） 诊疗时间： 周一-周五：09：00～19：00
\
周六・周日：09：00～17：00 定 休 日：国家法定节假日 预约制：本诊所实施“预约优先制”。 诊疗科目: 
\
内科・小儿科・皮肤科・外科・整形外科・眼科・耳鼻科・泌尿科・妇科・中医科・康复诊疗科・胃内视镜检査",,,"021 5204 6123 (zh,STAND)","INT (zh),PED (zh),DER (zh),CHI (zh),CHIRPL (zh),OPH (zh),URO (zh),GYN (zh),CHIN (zh),REHAB (zh),ORL (zh)",
163,Rejoy Dental Clinic,上海丽洁口腔门诊部,"Room906-907,SouthTower,HongkongPlaza, No.283 Middle HuaihaiRoad,Shanghai",上海市淮海中路283号香港广场南座906-907室,Shanghai,上海,200021,erman.hsu@dentalsmile.com.cn,http://www.dentalsmile.com.cn/,31.229049,121.481419,,"Rejoy Dental Clinic is an integrated dental medical institution specializing in dental prevention, treatment and dental health protection. Rejoycomprises internationally qualified residentialdentists from Taiwan and Japan with a wealth of clinical experience, and fully qualified nursing and support staff in order to meet all kinds of requirements from patients with diverse nationalities. The dental care systems and technologies we use atRejoy are all state-of-the-art, and our equipment is sourced internationally from leading global suppliers. We break with the stereotype of conventional clinics, offering aupscalehospitalization model for our patients.Rejoy specializes in CAD/CAM system for all ceramic restoration, implant, waterlaser and micro root canal treatment and others.
\

\

\
Rejoy Dental Clinic, located on Middle Huaihai Rd in Shanghai, has a enjoyable and comfortable environment, cutting-edge medical equipment, professional qualified dentists, fully qualified nursing and support staff as well. We break with the stereotype of conventional clinics, making a high-levelhospitalization model for our patients available.
\
The initial location selection of Rejoy Dental Clinic is based on people-oriented and eventually we choose the landmark in Shanghai to make sure patients can get Rejoy by any public transportation conveniently. 
\
The environment design with full consideration of psychology stands out in Rejoy. Our treatment room, especially our lounge, has gentle light, soft music, fashion magazines, freshly prepared coffee, speedy Wi-Fi and so on, which all reveal our elaborate quality in details. 
\
Dental equipment in Rejoy seeks for the synchronization with global high-end dental clinics. Rejoy provides patients the best professional and reliabletreatment with dentaltreatment center from Sirona, implant system from SwedenNobelBiocare and Procera’sbeauty restoration system. 
\
Rejoy imported Bio-Laser YSGG equipmentin August 2011, which makes our human- based concept even more perfect. It can let patients do mini-invasive treatment without pains. The treatment will be relaxed and soon recovery to patients without injury caused by anesthetic. This Bio-Laser YSGG has been unanimously affirmed by our dentists and patientsin just a few months. 
\
Rejoy will take advantages of the waterlaser to the greatest limit, getting more and more patients enjoy the high-tech method of treatment, and thus, we believe patients will get rid of the fear of visiting dentists. 
\
We will keep trying to offer patients people-oriented services and wish we can give you the perfect beautiful smile…
\

\

\
Rejoy tells us working is not the only thing, but more important, we should enjoy our life! Rejoy helps us build our own dream and belief, providing us a boundless platform for us to create and make our dreams come true.
\
We never fell alone among Rejoy’s team.
\
We are proud to be Rejoyer We serve patients with qualified professional skills to reduce their pains and beautify their life. We are committed to devote ourselves to working on your dental health as our lifework. 
\
Smiles starts from Rejoy… 
\

\
Our commitment is to make sure you can regain your beautiful smile. You will have a wonderful experience in Rejoy Dental Clinic with thoughtful treatment and services. We not only reshape your healthy and beautiful teeth, but also keep the status as long as possible.
\

\
","上海丽洁口腔门诊部是一所集口腔预防、治疗、保健为一体的综合口腔医疗机构。
\
诊所的特色诊疗项目为CAD/CAM椅旁全瓷修复技术、口腔种植技术、水激光诊疗、显微根管治疗等，我们均重金引进了国际牙医主流的诊疗设备，并且聘请到台湾、日本专科医师驻诊。全方位满足不同国籍，不同需求的人群。
\

\
上海丽洁口腔门诊部位于淮海路香港广场，舒适的就医环境，国际顶尖的医疗设备，配合专业的技术团队和客服专员，颠覆了人们以往对口腔诊所的印象，而呈现出一个高级口腔会所的氛围。舒适、惬意、专业是来访者最大的感官体会。
\
诊所从最初的选址开始就以&quot;人性化&quot;为考量，选择了城市的地标性建筑，使客人搭乘任何交通工具都方便到达。 心理学级别的环境设计在丽洁齿科也得到充分的体现。柔和的采光，舒缓的音乐，时尚健康的书籍，醇香的现磨咖啡，极速WIFI连接等…细节之处尽显品质。
\
诊所在设备方面也追求与国际高端口腔诊所同步，全数字化影像资料传输，德国Sirona高级牙科治疗椅、瑞典NobelBiocare种植系统，Procera瑞典瓷美容修复系统，为客人提供了最专业最可靠的诊疗项目。
\
2011年10月Bio－Laser YSGG水激光设备的引进给我们&quot;人性化服务&quot;的理念锦上添花，它在治疗过程中做到微创，无痛。使治疗过程更轻松，治疗后恢复更快，更避免了麻药给身体带来的伤害。在使用了短短几个月时间里，得到了医生和患者的一致肯定。
\
在以后的日子里，我们要把水激光的功能发挥到极致，让更多的患者享受到这种高科技的治疗方式，消除人们对牙科的恐惧。
\
本着&quot;人性化服务&quot;的目标，我们会一直努力着, 奋斗着，我们的愿望就是给您更美的笑容...
\

\
丽洁告诉我们，不仅仅只有&quot;工作&quot;，更重要的是&quot;人生&quot;；
\
丽洁帮我们树立自己的理想和信念，给我们创造和实现梦想的平台；
\
在丽洁的团队中，永远没有&quot;孤独&quot;。
\
我们以身为&quot;丽洁人&quot;而自豪，我们用自己苦学的技艺服务大众，为他人缓解痛苦、美化生活。您的口腔健康和美丽是我们全体丽洁人毕生的事业。
\
笑容从丽洁开始…… 
\

\

\
","上海麗潔歯科医院は口内予防、治療、保健を行う総合歯科医療機構です。
\
医院の治療項目はCAD/CAMイスで全セラッミク修復、インブラント、水レーザー、顕微鏡による根管治療等なります。医院の設備は全部国際歯科医院で使用されている主流設備で，歯医者チームには台湾、日本の専門歯医者が常駐しています。全方位で多国籍，多需用な御客様にサービスを提供しております。
\

\

\
上海麗潔歯科医院は淮海中路香港広場南座に位置し，快適な診療空間を提供致します，国際先端設備の配置と専門歯医者チームによる精度高い歯科医療サービスを提供しております。
\
麗潔は医院場所の選定から&quot;人性化&quot;をポインドにし，上海市の代表的な建築を選び，御客様には任意の交通手段でも便利に到達できる。
\
心理学レベルの室内環境設計でも麗潔で表しています。柔らかめの采光，感性的な音楽，ファッション健康の本棚，香り一杯のコーヒー，高速WIFIの接続等…細かい所で品を表している。
\
麗潔の設備にも国際先端歯科医院と歩調を合わせている，全デジタル化のデータ伝送，ドイツSirona高级歯科治療イス、スウェーデンNobelBiocareインブラントシステム，Proceraスウェーデンセラ美容修復システム，御客様には専門度と精度高い歯科治療サービスを提供しております。
\
2011年10月にはBio－Laser YSGG水レーザー設備の導入で更に我々の&quot;人性化サービス&quot;理念に添え物をしました。水レーザーは治療中には無痛、プチ傷で治療過程をもっと楽になった。治療後の回復も早くて，麻酔による人体への障害を回避しました。短期間内で患者様と歯医者から高い評価を頂きました。
\
今後も引き続き水レーザーの効果を最大限に発揮し、多くの患者様に良いサービスを提供すると同時に歯治療に対する恐怖感を排除します。
\
&quot;人性化サービス&quot;を提供する目標で，我々が引き続き努力致します、我々の願望は御客様に素敵な笑顔を与えることです...
\

\

\
麗潔は我々に教えたのは人生は仕事だけではなく、最も重要なの は人生である；
\
麗潔は我々に理想と信念を持たしてくれました，我々に夢を創造、 実現の舞台を提供してくれました； 
\
麗潔のチームには&quot;孤独&quot;永遠ありません。
\
我々は&quot;麗潔人&quot;として誇りを持っている，自分で学習した技術を皆様にサービスを提供します，御客様の苦痛を解決します。御客様の口内健康と歯の美しさは我々全体麗潔人の一生の追及である。 
\
笑顔は麗潔から開始…… 
\

\

\
麗潔の約束：我々は貴方再度笑顔を取り戻す始発駅です。ここで，貴方は快適な診療とサービスを受けられます。我々は貴方に提供するのは&quot;健康、美しい歯&quot;，更に&quot;如何に健康と美しさを維持すること as long as possible&quot;.
\

\
",,"021 3331 5001 (zh,RDV),021 3331 5660 (zh,RDV)",DENT (zh),
164,EuroEyes Eye Center Shanghai,德视佳眼科,"5th floor, J-Life Center, JinMao Tower, No.88 Century Avenue.",浦东世纪大道88号金茂大厦裙楼5楼,Shanghai,上海,200121,Shanghai@euroeyes.com,http://en.euroeyes.cn/,31.24137,121.511909,,"EuroEyes is Germany's largest clinic group for laser eye treatments (ReLEx smile, Femto-LASIK, LASIK, PRK/LASEK) and refrative lens treatments (ICL, phakic IOLs, multifocal IOLs). Since 1993, more than 300,000 eye treatments have been carried out by EuroEyes surgeons. Our experienced top doctors always use the latest technology and the best methods available. On this basis EuroEyes is able to correct vision disorders like nearsightness, farsightness, astigmatism and presbyopia.
\

\
Since March 2013 our eye clinic in Shanghai has been offering our certified service and a wide range of EuroEyes treatments (ReLEx-SMILE, LASIK, eeLASIK, FEMTO-LASIK, Multifocal lens, ICL). You can find our Laser Eye Center for LASIK in JinMao in Shanghai. 
\

\
Make an appointment if you want to know whether your are a suitable candidate for LASIK in Shanghai. You are also very welcome to join us for one of our information evenings, where we can answer whatever questions you mighthave. The Shanghai Team is looking forward to seeing you!
\
",德视佳眼科（EuroEyes）成立于1993年，在德国及北欧拥有20多家眼科激光手术中心及眼科诊疗门诊，提供全飞秒ReLEx SMILE近视矫正术，飞秒激光屈光矫正术、LASIK准分子手术、PRK、LASEK，ICL晶体植入术，飞秒激光多焦点人工晶体置换术以及一系列屈光晶体置换手术，是德国乃至欧洲最大的连锁眼科激光手术机构之一，迄今已成功实施35多万例眼科手术，是德国取得LASIK手术TÜV最高安全质量标准认证的少数手术中心之一。德视佳眼科（EuroEyes）拥有经验丰富，专业可靠的眼科医生团队，高端先进的眼科技术设备，以技术精湛、手术安全可靠，提供个性化治疗方案，力求达到最佳术后视觉效果为准则，为近视、远视、散光、老花、白内障以及各类眼底病、角膜病患者提供专业的诊疗服务。德视佳眼科（EuroEyes）在中国的第一家手术中心在2013年新年之际，于上海陆家嘴金融区金茂大厦正式开业，诊所技术及设备完全来自于德国，手术医生团队完全来自德国，技术质量标准完全遵循德国最高质量安全标准TÜV认证的要求，力求为中国高端人群提供完全国际化标准的高端眼科诊疗服务。,,,"400 827 5997 (zh,STAND),021-5869 7999 (zh,STAND)",OPH (zh),
165,Shanghai Green Clinic,上海 グリーン クリニック,"1st Floor East Tower, Sun Plaza,No. 88 XianXia Road, Shanghai",上海市仙霞路88号太陽広場東塔1階(E1F),Shanghai,上海,,info@greenclinic.com.cn,http://www.greenclinic.com.cn/,31.211355,121.410613,,,,"私たちはこんなクリニックです 
\

\
海外で活躍される日本人のための総合メディカルセンターです
\

\
上海及び周辺地域の在留邦人の皆様の健康で充実した海外生活をささえるために、（財）倉敷成人病センター（岡山県倉敷市）により2003年に開設されました。私たちは日本人
\
の方が上海で言葉、医療制度、文化、薬、病気の違いでお困りにならぬよう、診療活動を続けています。
\

\
日本人医師・日本人医療スタッフを中心とするクリニックです
\

\
医師9名のうち5名は日本人（医師団）です。放射線技師、薬局、看護婦、受付、事務等の日本人スタッフと日本語を話す中国人のスタッフでクリニックを構成しています。 医師は日本の医師免許を持ち、また、中国政府から正式に診療許可を取得しています。
\

\
上海における各科専門治療の窓口となります 　
\

\
当院の医師がまず診察をさせて頂いた上で、必要な場合は専門医（専門病院ネットワーク）をご紹介します。診察の後、入院が必要と認められる場合でも同様に手続きいたします。 
\

\
総合メディカルクリニックです
\

\
外科、内科、婦人科、小児科他、全科のプライマリーケアを行います。
\
院内には胃内視鏡、超音波、臨床検査、X線などの検査設備、薬局を整えております。
\
また、MRI、負荷心電図、その他詳しい検査が必要な場合は、専門施設を手配いたします。
\

\
健康診断、予防接種、健康診断書作成も行っています
\

\
健診部門（健診センター）では日本国内と同様の外来人間ドックを行っています。また各種予防接種も用意しております(詳しくはお問いあわせください)。受験や入学のための診断書の作成も行っています。 
\

\
夜間･休日も対応するクリニックです
\

\
受付時間終了後及び休日も当直医（日本語話せる中国人医師）が時間外の緊急診療相談に応対しています。当直医による対応時間終了後はSGCコールセンターのオペレーター（日本語）が当院提携専門医や救急病院のご案内と通訳をいたします。
\

\
キャッシュレスメディカルサービス、会社宛請求も承っています
\

\
日本の主要保険会社とアシスタンスサービス会社との提携によるキャッシュレスメディカルサービスで、海外旅行傷害保険にご加入の場合は病気･怪我の治療費を当院が直接保険請求いたします。
\
また、事前に契約のある場合はお勤めの会社宛請求も行ないます。
\
",,"130-6169-8803 (ja,URG),021-6208-2288 (ja,RDV),021-6219-9528 (ja,STAND)","INT (zh),PED (zh),CHIRPL (zh),CHI (zh),ECHO (zh),DENT (zh),IMG (zh),GYN (zh)",
166,PG Dental,平光齿科,"Room 2404, Charity Plaza, No. 88, CaoXiBei Road,XuHui District, Shanghai.",徐汇区漕溪北路88号圣爱大厦2404室,Shanghai,上海,,info@PGdental.cn,http://www.pgdental.cn/,31.198255,121.443452,,"PG DENTAL： 
\
Led by Henry Tsai D.D.S., PG Dental is an international dental group founded by the Tsai Family from Taiwan.With three generations of combined experience in dentistry, Dr. Henry Tsai is devoted to bringing the advanced dental technology from the U.S. and Japan to Shanghai.Moreover, our ADA standard sterilizing system, advanced equipments and professional team assures to serve patients who are from all over the world to this great city. 
\

\
LAB: 
\
With careful listening, precise planning and working with one of Shanghai's best laboratory technicians, Quan Li, Dr. Tsai successfully helps patients create natural teeth and bright smiles that feel good and last. Li studied in Japan and worked with Dr.Tsai for years. This unusual professional harmony and personal friendship ensure patients receive the finest treatment. 
\

\
","背 景： 
\
　　平光齿科是台湾平光齿科集团在上海设立的联营齿科诊所。在美籍台湾医师蔡宗恒Dr. Herny Tsai院长的主持下，我们的团队不仅拥有国际先进技术、严格的进口消毒系统和一流的牙科设备，更以亲切的服务为大上海地区的各国病患提供先进的齿科服务。 
\

\
技 工 所： 
\
　　国内知名的牙齿加工所，技工师留学日本，并与平光齿科有着长年的合作关系。无论是与医师的配合度、制作技术，还是优质加工材料的选材，都是最佳的，保证患者配戴的假牙、牙冠美观、舒适和安全。 
\

\
卫 生 消 毒： 
\
　　采用国际标准防感染操作，国外一流高温高压消毒设备，解决了消毒中存在的隐患，一人一机彻底杜绝交叉感染。让患者远离各种病菌、污渍，完全保障就诊卫生、安全。 　 
\

\
医 疗 设 备： 
\
　　诊所各诊室均统一配有口腔内窥镜系统和全数字化X光片设备，通过各诊室配备的液晶显示器来成像，使得患者能更安全、更快捷、更清晰的了解自己的口腔情况。 
\

\
诊 所 环 境： 
\
　　诊所环境优雅，舒适宜人。以白色为主，附以浅绿、天蓝、嫩黄等暖色调更好的缓解了牙齿治疗的紧张气氛，让您不再害怕踏进口腔诊所，接受牙齿治疗。舒适的候诊区解决了您等候的烦恼，在这里您可以挑选杂志、宽带上网等。
\
　　 每个诊室的牙椅上均配有液晶显示器，在治疗过程中您可挑选自己喜欢的歌曲MTV或影视动画片来放松心情。
\
　　 诊所配有独立的卫生间和洗漱间，方便患者使用。此外，诊所还配有公共宣传栏，可以使患者在就诊前了解更多的口腔知识和保健常识。 
\
",,,"(021)6451 4711 (zh,RDV),(021)6451-5351 (zh,RDV)","DENT (zh),DENT (en),DENT (ja)",
167,Shanghai Kooka Dental Clinic (Pu Xi),恒佳齿科,"Room 3f,No. 400 Chang-le Road, JJ D Center（near to Garden Hotel）,Shanghai",上海浦西卢湾区长乐路400号3楼 （兰心大剧院对面）,Shanghai,上海,,,http://www.kooka-dental.com/,31.2269,121.465762,,"Kooka Dental was founded by Tokyo Shiseikai Dental group and the dental experts from Tokyo Dental College in the year of 2004 in Shanghai. It has kept a long-term treatment corporation with Hosoya Oral Implant Center of Japan. kooka Dental is the top specialized international chain in Shanghai with many professional and rich- experienced dentists at home and abroad. Our team provides you a wide range of dental treatments varying in orthodontics, oral implant, aesthetic prosthodontics and preventive dental dentistry.
\

\
Kooka Dental caring team members are well-trained, and with oversea training background , including senior experts in American MBT Orthodontics , Japanese implant and periodontal experts who master both English and Japanese.
\

\
Kooka Dental adopted the advanced medical equipments and high-tech dental materials in accordance with FDI international standard. We are committed to offering our patients a personalized and private service with a comfortable, relaxed environment, exceptional dental care of painless treatment while maintaining the strictest sanitary and sterilization system to prevent each of our patients from cross-infection.
\

\
Kooka dental is the first dental clinic in China that has adopted the TQM (total quality management) system in general treatments to ensure every patient to enjoy the high-qualified dental service. Our philosophy is “A great physician with exquisite technique and sincere heart “. We are looking for people who share our passion for a perfection and accuracy of dental treatment and would like to bring every family a lifetime of bright and healthy smiles.","恒佳齿科于2004年在上海成立。恒佳齿科是集牙齿诊疗、正畸、种植、修复、美容及口腔预防保健为一体的全方位连锁机构，也是上海地区具备国际顶尖医疗专业水准的齿科国际化 高端连锁口腔机构。恒佳齿科的医疗团队由多位临床经验丰富的美国MBT正畸技术资深专家、具有国外深造背景的口腔医师组成的专家 团队，专家可直接用英语、日语为国际人士提供全方位的口腔医疗保健专业服务。
\

\
恒佳齿科采用符合世界牙科联盟（FDI）标准，国际先进的医疗设备和国际最先进的诊疗仪器及高端材料，并为患者提供私密舒适的一人一诊间的诊疗环境下享受我们特殊的无痛治疗技术。所有诊疗器械采用全程消毒隔离手段，保证在诊疗过程中无交叉感染。
\

\
恒佳齿科是国内首家推出具有高水准的TQM全面质量管理，确保为客户提供国际化的品质服务。恒佳齿科还肩负着带动国内口腔行业的发展和壮大以及推动国际 交流的重任。恒佳将承载着打动千万消费者的温馨感受，让口腔健康走进每一个家庭！以大医精诚的精神树立优秀医院的形象，成为业界最知名和最受信赖的医院。
\
","　　日本東京都歯生会－上海恒佳歯科医院は、東京歯科大学と日本東京都歯生会の臨床でのハイテク材料と高い水準の診療理念のもと、上海に開院された先進的な歯科医院です。当歯科医院の主要な特徴は、日本の進んだ歯科の粘着技術と修復技術を用い“できるだけ歯を削らない、歯神経を抜かない、歯を抜かない”という事です。歯を保護する理念は日常の臨床治療の中で最大限実現されます。
\

\
当歯科医院は古代著名医孫思邈の理念“大医精誠｛技術を極め（精）患者様に対するまっすぐな姿勢（誠）}”から学びながら日々心がけ、患者様中心の医療を追求して参りたいと考えております。
\

\
恒佳歯科医院の治療方式?運営メカニズムや操作の流れは、すべて日本歯科医療体制に基ずいたものです。予約受診制度を採用して、必要最小限のお時間を患者様から頂き、密度の濃い治療をすすめてまいります。担当医責任制により全治療過程、責任をもって進めて参ります。落ち着いた雰囲気の診療室の環境と、厳密な滅菌消毒体制のもと、患者様に１本１本の歯にこだわり続けながら人生を全うして頂く、そんな思いを込めて、日々診療に従事しております。
\
",,"021 64459927 (zh,STAND)",DENT (zh),
169,iSMILE Dental Clinic,永颜口腔诊所,"No. 55, South Shui Cheng Road, Changning District, Shanghai.",上海市长宁区水城南路55号六月汇广场5楼（古北家乐福对面）,Shanghai,上海,201103,info@ismile-dental.com,www.ismile-dental.com,31.202159,121.399418,,"iSMILE Dental Clinic, located in Gubei (opposite Gubei Carrefour), was founded by Dr. Lei Yang and opened on Sept 22nd, 2011.Dr. Yang received his dental certifications from Japan, where he has been a practicing dentist for over a decade. While in Japan, he achieved renown and was well-respected as a specialist in the fields of dental implants and aesthetic dentistry. In fact, all of our dentists, (who come both from China and other countries), have a wealth of experience in dentistry and can ably offer every one of our patients the most professional and accurate dental diagnoses. We also proudly offer our services in a variety of languages, including Chinese, Japanese and English, which enables easy communication between patients and dentists without any language barriers.
\

\
iSMILE Shanghai Dental Clinic is committed to using a combination of our highly skilled dental technicians, state-of-the-art dental equipment, and warm, friendly service together to offer high quality, customized oral treatment plans to all of our patients regardless of their country of origin. Each of our dentists is always accompanied by a professional assistant, thereby utilizing a “four hands” service technique and meeting the highest international standards, in order to provide you with the most meticulous and attentive service possible. 
\

\
iSMILE Dental Clinic adheres to the strictest standards of sterilization, as set forth by the American Dental Association(ADA), to prevent any possibility of cross-infection. There is a special sterilization room, (the sole purpose of which is to ensure sterile instruments,) which is a “clean” room, where the air is sterilized and the room is lit by ultraviolet light. All of our dental instruments are doubly sterilized, first by soaking in specially treated water containing disinfectant and then followed by exposure to a high-enough temperature to kill any and all bacterium. Finally, some of our instruments are purposely designated as single-use-only and are never reused. 
\

\
All of the dentists in our clinicuse plain and simple language to explain our suggested treatment plan to our patients patiently and carefully. In this way, we will jointly develop the final plan together with each individual patient, obtaining your understanding and consent prior to every step of the treatment process. All of our patients will be accompanied by our professional nursing staff during treatment to reassure you with constant support and easy communication.
\

\
iSMILE Dental Clinic is on the cutting edge of dentistry, using the most state-of-the-art dental equipment, instruments and dental materials, such as the Nobel implant system from Sweden and the Sirona digital x-ray machine from Germany. Our advanced technology and comprehensive services can guarantee perfect treatment results every time.
\
","永颜口腔诊所坐落于古北高档社区繁华地段(古北家乐福对面)，2011年9月22日对外营业，由日本留学博士杨磊医生创办，聘请多位中国以及外籍的口腔专科医师以及资深专家坐诊，给患者讲解并实施更全面、权威、科学可行的诊断治疗。杨磊医生持有日本和中国两国的口腔医生行医执照，在日本行医十数年，对于各类疑难杂症颇有经验，特别对于种植手术、贴面美容修复等，在业内享有极高荣誉。诊所聘请中、日、美等多国资深专家医生，为患者提供中、日、英等多语言诊疗环境，让医患沟通无障碍。 
\

\
永颜口腔致力于将先进的口腔设备、高超的诊疗技术和温馨的服务相结合，为各国人士提供量身定制的高品质口腔治疗服务。每位口腔医生都配备专业的口腔护士助手，实行国际标准的四手操作体系，为您提供专业、细致的专业服务。 
\

\
永颜口腔严格遵照美国齿科协会（ADA）标准进行消毒，杜绝交叉感染。配备消毒室、无菌室，用紫外线灭菌灯进行空气消毒，医疗设备每次使用前都经过消毒液浸泡和高温高压双重消毒，不能高温高压消毒的器械均为一次性使用。 
\

\
永颜口腔的医生会用通俗易懂的语言向患者耐心细致地解释治疗计划，与患者共同制定最终的治疗方案，每一步治疗都会事先取得患者的同意。就诊过程中，医护人员全程护理，与患者进行交流沟通。 
\

\
永颜口腔采用国际最先进的牙科设备、仪器及材料，率先引进大量国际领先材料及现金技术，如瑞典诺贝尔nobel种植牙系统，西诺德sirona系列X光数码机等，为患者提供更多更全面的治疗方案，保证了患者治疗后的完美效果。
\
","古北エリア中心部（古北カルフール向い）に位置するアイ・スマイル上海 歯科（永顔口腔）は、2011年7月11日にオープンいたしました。院長の楊磊医師は、日本の長崎大学で博士号を取得した、日本と中国両国の歯科医師免許を持つ数少ない中国人医師であり、日本で十数年に渡り複雑な口腔治療に携わってきました。特に、インプラント手術、審美歯科において、業界内で高い評価と賞賛を得ています。日本、中国、欧米等各国から集まった経験豊かな専門歯科医師が、日・中・英の各言語に対応し、治療計画を立て、詳しい説明を行った後に治療にあたりますので、安心して診療を受けていただけます。
\

\
●アイ・スマイル歯科では、最新の設備を揃えており、高い治療技術と温かいサービスで、患者様それぞれのご要望に対応したハイクオリティな診療を行っております。また、国際基準に従い、各医師に口腔専門の看護師を配備。質の高い、きめ細やかなサービスを提供しています。
\
●アイ・スマイル歯科では、アメリカ歯科医師会（ADA）の基準に厳格に従って消毒・滅菌を行い、院内感染を徹底的に防止。消毒室・無菌室の完備、紫外線殺菌ランプによる空気殺菌、毎回使用前には消毒液及び高温高圧滅菌により医療設備を消毒、高温高圧滅菌ができない機材は使い捨てのものを使用しています。
\
●アイ・スマイル歯科では、総合的な診療後に医師が分りやすく丁寧に治療計画の説明を行い、患者様と一緒に最終の治療プランを決定、各治療ごとに患者様の同意を得ています。医師、看護師ともに、診療過程において患者様とのコミュニケーションを大切にしています。
\
●アイ・スマイル歯科では、nobel(ノーベル)社のインプラントシステムやsirona（シロナ）社製のパノラマX線システム・歯科用機器といった、世界でも最高の歯科設備・器具・材料を導入。オペルームも完備しています。お口の健康を全体的に考慮した、複数の治療プランをご提供しており、治療後ご満足いただける効果が得られるよう、治療体制を整えております。
\
",,"4006 850 288 (zh,STAND),021 - 3250 7127 (zh,RDV)","DENT (zh),DENT (en),DENT (ja)",
170,Jsmiles Dental Clinic,君笑齿科,"12th Floor of Westgate Plaza, No.1038, West Nanjing Road, Jingan District",南京西路1038号梅龙镇广场12楼,Shanghai,上海,,,www.jsmiles.com,31.23479,121.463177,,"Jsmiles Dental in Shanghai offers the newest technology in American dentistry in a relaxing and pleasant spa-like setting. The dentists at Jsmiles use the best clinically proven materials and offer comprehensive dental examinations to help the patient better understand their dental situation so they can make informed decisions. Unlike most dental clinics in Shanghai, Jsmiles Dental emphasizes preventive care so patients can enjoy a healthy and pain-free mouth for a lifetime. 
\

\
Dr. Tommy Ma is the Director and Founder of Jsmiles Dental in Shanghai. He received his Dental Medicine Doctorate degree from the University of Mississippi and has been delivering high quality dental services to patients at his clinic in Atlanta Georgia since 2004 and currently at Jsmiles Dental in Shanghai, China. Dr. Ma's Jsmiles Dental Clinic is currently the only clinic in Shanghai owned and operated by an American dentist, which means you will receive the same dental experience and treatment as you would expect in the United States. 
\

\
At Jsmiles Dental, we believe that maintaining good oral health is an important component to having a confident smile so we also offer traditional dental services in additional to our cosmetic services. Our team has extensive experience with Endodontics, Pedodontics, Prosthodontics, Oral &amp; Maxillofacial Surgery and Orthodontics. We also have experience with popular American cosmetic procedures such as No-Reduction Veneers, Removable Smile Appliances, Crowns , Chairside Whitening, and Implants. From Orthodontics to teeth whitening and veneers, Jsmiles can help your oral health and enhance your smile. 
\

\
Each person's smile is special – and your experience with us should be as well. Our office is designed to help ensure your visit at Jsmiles is as pleasant and soothing as possible. We are equipped with intra-oral cameras, LCD screens, advanced anesthetic delivery systems and noise canceling headphones for your comfort.
\

\
","Jsmiles君笑齿科隶属于上海君笑口腔门诊部有限公司，源自美国，服务中国。由美国牙科博士主办，位于交通便利的南京西路梅龙镇广场。Jsmiles采用最新技术，按照当今最高标准为您提供全方位的齿科治疗，保健及美容。我们的宗旨是让我们的每一位客户都拥有自信健康的灿烂笑容。
\

\
以此为目标，汤米-马博士和他的团队以经过临床试验的最高质量的材料和当前的尖端牙科技术，为您提供顶尖的服务。马博士毕业于美国密西西比大学医学院，在美国亚特兰大创立了自己的齿科诊所，为当地客户提供优质的服务并积累了多年的牙科经验。马博士和他的团队深信，无论身处何地，每个人都值得拥有一个漂亮、健康的笑容。现在，马博士来到了上海，为您带来了最新的牙科技术，以让您的笑容更加美丽自信。
\

\
除了传统的治疗方法，比如烤瓷牙，冷光美白，种植牙，铸造冠修复，矫正等，君笑齿科还能为您提供当前最新的牙科美容治疗技术，包括超薄牙贴面治疗技术以及 可脱卸美白牙套 。
\

\
和国内大多数的齿科治疗不同，我们会针对您的要求进行详尽全面的牙科检查和评估。之后，根据检查数据和结果，马博士和他的专家组(牙周专家，牙髓专家，口腔外科专家，正畸专家)将讨论和制订出最适合您的牙科美容治疗及健康方案，打造您最美丽自信的笑容。
\
",,,"021-3530-6320 (en,STAND),400-630-6320 (en,RDV)","DENT (zh),DENT (en),DENT (fr),DENT (it),DENT (pt),DENT (es)",
171,Dr.Zhou's Dental Clinic,上海周斐斐口腔诊所,"Room 01B,30F,Jianhui Building,No.922, Hengshan Road（Next to the Pacific Department Store XUJIAHUI）",上海市衡山路922号建汇大厦30楼01B室,Shanghai,上海,,drzhoush@163.com,www.dentistinshanghai.com,31.201808,121.445454,,"Thank you for considering Dr.Zhou's as your professional dental care provider in Shanghai. We are here to help you with your dental health from a simple Teeth cleaning and teeth whitening to a more complex dental work such as cosmetic dentistry, dental implants, periodontal treatments &amp; orthodontic and wisdom teeth extraction. 
\

\
Dr.Zhou's Dental Clinic has been serving the English-speaking community in Shanghai for over 4 years and has bulit a good rapport with many professional patients in need of dental treatment over the years. The office has gained the trust of many people around and near the city by delivering an unrivaled level of expert personal dental care to each and every patient. 
\

\
In 2008, we were honored by Shanghai Star as one of top Foreign Dental Clinics in Shanghai. We are also appointed by the Swiss Chinese Chamber of Commerce in Shanghai as the company's Dental Clinic. 
\

\
Fell free to call us at 64470390 to schedule a free consultation where we can talk about your needs and desires. We are looking forward to meeting with you.","2005年，我们开设了这家温馨口腔诊所——上海周斐斐口腔诊所。希望能够以专业的水准，用心的态度帮助每一个珍惜，爱护自己牙齿的人。
\
专业 -- 从治疗理念的精细化到材料选择的人性化，我们一直以超越本土医疗水准的眼光要求自己。这不是广告说词，只因我们的医生曾有海外先进地区行医经验，深知上海与海外的差距在哪里。
\
用心 -- 我们鼓励您与医生之间有充分的表达和沟通。彼此的信任是治疗成功的基础，这也正是目前中国所缺乏的。
\
医者仁心，视病犹亲不是口号， 是我们秉持的职业素质。提供您最准确、迅速的口腔服务，則是我们的的核心价值。
\
从第一通电话中的疑惑，到向亲朋好友们的推荐，您态度的变化是对我们职业最好的诠释。
\
我们欢迎您！
\
",,,"(021) 64470390 (zh,RDV)",DENT (zh),
174,Smile Dental,上海思迈登口腔门诊部,"4F，Commercial Building, No.215, Hefei Road, Huangpu District, Shanghai.(Convenient Xintiandi Location,Free parking)",卢湾区合肥路215号精益商务楼4楼,Shanghai,上海,,s1@smiledent.cn,www.smiledent.cn,31.220698,121.482812,,"You've come to know Smile Dental as the health-oriented professionals who always have your overall well-being in mind. Smile Dental offers complete oral care, from teeth cleaning and whitening to cosmetic restoration, Cerec© one-stop tooth replacement, implants, crowns, bridges and denture realignment services, to gum disease treatment and oral surgery, all within one facility!",上海思迈登口腔门诊部坐落于新天地区域，是一家专业的口腔门诊，提供牙齿种植、牙齿正畸、牙齿修复等项目。门诊拥有真正的国际化医师团队，让更多的人尽情享受美丽的笑容，秉持让&quot;美丽的微笑始于健康的牙齿&quot;的理念，为客户提供高端的专业口腔医疗服务。让每位客户在体验完美口腔服务的同时，更能得到品质的保证。,,,"400-882-0506 (zh,RDV)","DENT (zh),DENT (en)",
177,Global Specialist Group,上海脊椎醫療中心,"No.491 Yi Li (South) Road, Changning District",上海市长宁区伊犁南路491号,Shanghai,上海,200336,info@spine.sh.cn,www.spine.sh.cn ,31.201791,121.4117,,"This place has one of the best chiropractic care in Shanghai! They also provide women's health care and psychological consulting. Definitely something to check out if you are experiencing back pain, prenatal problems or any other physical discomforts.
\

\
Our services in Shanghai : Chiropractic, Osteopathy, Physical Therapy, Orthotics, Orthopedic, Psychology, Spinal Screening and Sports Medicine. We are a professional team offering a multi-disciplinary approach to physical medicine. Our team is comprised of Australian chiropractors and osteopaths as well as orthopedic surgeons from the USA, China and others. We pride ourselves on providing the highest level of Western health care. Our superior service is combined with the best of Western and Chinese technology. GSG is the first clinic to offer this multi-disciplinaryapproach to health care in Shanghai. We help our patients to achieve the optimal level of their well-being physically, psychologically, and spiritually.Our department is certified by the International Standardization Organization (ISO 9001) so you can be certain of the high quality of our service. 
\
",歡迎來到上海脊椎醫療中心，本中心是上海唯一提供脊椎醫療服務的涉外專業機構，由脊椎神經科，整骨科及康復科專家組成。 其總部設立在澳大利亞，分別在新加坡，泰國，香港等地都有分院。我們提供的服務有：正骨，整骨，整脊，理療，康復，功能鞋墊，骨科，精神科，运动伤害治疗等。本中心利用先進的中西方医疗技术，通過特殊的手法矯正，物理治療，肌肉运动疗法以及营养療法來實現醫療目的。自2002年上海分院開張以來，我們高品質的醫療服務和國際化的服務理念，深受各界外籍人士和國內廣大患者的歡迎和信賴，希望我們能幫助您重新擁有健康的生活。,,,"021-22816522 (zh,STAND)","KINE (zh),REHAB (zh)",
178,Wooridul International Spine Hospital,我立德医院,"No.106 Shi Guang Yi Cun, Guohe Road, Yangpu District",上海市杨浦区市光一村106号,Shanghai,上海,,wolidechina@163.com,www.wolide.com,31.324105,121.54398,,"On the spirit of love and human respect, aids the people of the world by minimally invasive spinal surgery and techniques, (MISST) to lead normal or better quality of life.","我立德医院集团是拥有脊柱专业诊疗近30年经验的国际脊柱医院集团。自1982成立以来不断改写脊柱疾病治疗历史，已经成为在韩国釜山温泉洞、首尔清潭洞、金浦机场、釜山乐民、大邱、浦项，中国上海，印度尼西亚雅加达，阿联酋9家脊柱专业医疗机构的医院集团。吸引了全球众多从事脊柱研究及专业治疗的医生专家前往Wooridul集团总部进行学习深造。
\

\
2009年1月韩国我立德医院集团海外首家分院在上海落户，由韩国我立德医院集团和天津天士力集团共同投资兴建。上海我立德医院是中国首家涉外脊柱专科医院。不仅脊柱疾病治疗水平在国际上遥遥领先，且与国际服务标准同步 。精确诊断、快速治疗，检查——诊断——治疗可在一天内一站式完成，并为您提供专任诊疗组、专职护士服务，为使更多国际友人享受优质体贴的服务，我们还提供中、英、日、德、韩等多国语言服务，以最短的时间为您解除病痛，帮助您重新拥有健康的生活 。上海我立德医院特有的“内窥镜激光椎间盘摘除术”等微创脊柱手术在临床上成功率高达95%以上。
\

\
作为一家跨国医院，上海我立德医院不仅提供中、英、日、韩、德等多国语言服务，为您提供量身定制的专诊个性化诊疗，且与国际服务标准同步，提供与多家商业保险公司的直接结算服务，幽雅宜人的环境，有别于传统医院的嘈杂与拥挤，先进的设备、专业的医师队伍、尖端技术、透明收费、星级服务、即刻治疗、顾客至上是上海我立德医院为您创造的人性化的服务宗旨。",,,"8008196900 (zh,STAND)","ORTHOPEDIE (zh),NEUC (zh),INT (zh),CHIN (zh),RAD (zh),ANE (zh)",
179,French Dentist - Shanghai Mart,法国牙医,"Shanghai Mart, No.2299 Yan'an West Road, Room 1711-1712, 17th Floor, Changning District Shanghai",上海市长宁区延安西路2299号上海世贸商城1711-1712室,Shanghai,上海,,thefrenchdentalclinic@gmail.com,www.frenchdentist.cn,31.207155,121.406237,"Choisir un dentiste qui vous convienne et convienne à votre famille est très important, car c'est une relation que vous garderez probablement pendant plusieurs années. C'est pourquoi à French Dentist, nous nous efforçons de maintenir des standards très élevés. Nous ne prenons pas de risques avec votre santé bucco-dentaire et il est primordial que vous vous sentiez à l'aise et confiant à nos côtés.
\

\
Nous comprenons qu’un personnel hautement qualifié et amical, que des équipements à la pointe de la technologie ainsi qu'un large éventail de services sont des qualités qui vous recherchez avant toute chose. C'est pour cela qu' à French Dentist, nous offrons des soins dentaires complets: dentisterie esthétique, implantologie , prothèses dentaires , dentisterie pédiatrique , l'orthodontie, et bien sûr, la dentisterie générale et les services d'hygiène .
\

\
French Dentist a été créé en 2007 et a prouvé son constant engagement à fournir des soins de haute qualité. Notre équipe de dentistes et de spécialistes hautement qualifiés vient exclusivement de France, d' Allemagne et de Corée, et ils sont choisis pour leur engagement à d'excellents résultats et l’attention tout particulière qu’ils portent aux patients.
\
","Choosing a dentist that suits you and your family is very important as this is a relationship that you will probably have for many years. That is why at French Dentist, we strive to maintain very high standards. We do not take risks with your oral health and it is important to us that you feel comfortable and confident in our care.
\

\
French Dentist was established in 2007 and proved its constant commitment to provide high quality treatment to both the expatriate and Shanghainese community. Our team of highly qualified dentists and specialists comes exclusively from France, Germany and Korea, and they are selected for their commitment to excellent results and quality patient care.
\

\
We understand that first-rate state-of-the-art equipment, highly-educated and friendly staff, and a wide range of services are qualities that are on the top of your check–list. This is why at French Dentist we offer full and effective dental service, including: cosmetic dentistry, implant dentistry, prosthetic dentistry, pediatric dentistry, orthodontics, and, of course, general dentistry and hygiene services.
\

\
Your comfort and trust in us is our utmost concern.
\
",,,,"021 5169 9696 (zh,STAND)","ORTHOPHO (zh),DENT (zh),HDON (zh),EST (zh),PRO (zh),CHIRD (zh)",
180,New York Dental Clinic-Puxi,纽约齿科,"No.129, Fugui Dong Road,Changning District,","上海市长宁区富贵东路129号
\

\
（近伊犁南路和黄金城道）",Shanghai,上海,201103,nydentalclinic@gmail.com,www.newyorkdentalchina.com,31.200411,121.413196,,"PROFESSIONALISM 
\

\
The founding dentists at New York Dental Clinic are two distinguished and respectable dental professionals – Dr. Alex Chou (Specialist in Periodontology and Implant Dentistry) and Dr. Sheila So (Specialist in Orthodontics and Dentofacial Orthopedics). Both doctors graduated from renowned New York University College of Dentistry and hold the dental specialties qualifications in the United States. With their backgrounds of profound clinical experiences and passion in teaching and research, Dr Chou and Dr. So are gathered together in New York Dental Clinic to deliver the highest possible standards of dentistry and personalized dental care services to our patients. Our mission is to reconstruct a charming smile in recognition of each patient’s individuality and uniqueness. 
\

\
RELIABILITY 
\

\
Besides having our well-qualified dental professionals, New York Dental Clinic follows American standards of sterilization to ensure patients’ confidence in cleanliness and safety. In addition, our clinic is equipped with digital radiography and photography with high resolution so that more accurate and detailed clinical diagnosis can be achieved for better treatment planning.
\

\
COMFORT
\

\
New York Dental Clinic understands the needs of patients. Our spacious clinic and top-notched dental facilities ensure comfort of patients during dental treatments. Our welcoming staff is courteous and well-mannered. Our appointment schedules are punctual and flexible. We hope to deliver to our patients an unsurpassed dental experience with ease in dental treatments, contentment in esthetics, and satisfaction in services.","专业
\

\
纽约齿科是由美国纽约大学的两位牙科专家－周鸿国医生(牙周种植专科)和苏雯琦医生(牙齿矫正专科/正畸科)主治。两位医生拥有美国牙齿专科专业资格，丰富临床及教学经验，致力于为病人创造健康亮丽的牙齿。纽约齿科采用美国式的诊所管理和先进的医疗设备，提供个人化的牙科服务。同时诊所还引进电脑化和高解像度的Ｘ光设备，让诊断更加精确无误。
\

\
可靠
\

\
纽约齿科的周鸿国院长和苏雯琦医生均拥有非凡的毅力和敏智 － 他们都经历过中外文化的薰陶和培养，而都能脱颖而出，得到美国的专业资格，同袍的认可肯定，和病人的赞许信任。他们在牙科追求完美的执着以及对知识开放的态度，都能为病人提供新科技的多元化选择，制定适合的治疗计划去打造自信健康的笑容。
\

\
舒适
\

\
为了认病人得到顶级的服务，纽约齿科提供宽敞优雅的侯诊室和多个独立治疗室，确保病人得到充分的空间和隐私。另外，我们的医疗团队细心温柔，没有推销压力，没有预约重叠，没有时间紧迫，让你安心接受治疗。",,,"021 6278 1181 (zh,STAND),021 6278 1182 (zh,STAND)","PAR (zh),HDON (zh),DENT (zh),PRO (zh)",
181,Hygeia Dental Care,恒基齿科,"No.3040, Yan’An West Road",上海市延安西路3040号,Shanghai,上海,,yorkdent@gmail.com,www.hygeia-dental.com,,,,"Welcome to Hygeia Dental Care. 
\

\
We provide professional dental solutions designed according to your needs. Located in the international community of Shanghai, all of our senior dentists have extensive training and work experience abroad. Over the years, we have had the privilege of serving thousands of patients, including senior government officials, diplomats and their families, business people, teachers, physicians, and even other dentists. 
\
","欢迎来到恒基齿科！
\
在恒基齿科，我們追求五“心“级的医疗服务
\
恒基齿科隶属于上海恒基口腔门诊部有限公司。自2006年开业以来，我们有幸接待了包括美国前第一夫人在内的数以千计的国内外客人，向他们提供了系列化的口腔医疗服务，从简单的补牙、拔牙到口腔种植、牙齿矫正及美容，覆盖了从幼儿到老年的整体口腔保健，尤其擅长于牙体修复、美容、牙周预防及牙齿矫正。
\
我们的主治医师，均具有近20年的牙科专业经验，包括数年的海外学习或工作经历。作为医生，他们都有一个共同的特点：精益求精，视患者如亲人。
\
",,,"021-64061866 (zh,STAND)",DENT (zh),
184,Shanghai Tokushinkai Dental Clinic-Jinqiao,德真会齿科-金桥诊所,"No.160 LanAn Road, Golden Bridge, Pudong District, Shanghai, China",上海浦东蓝桉路160号（德威学校北侧）,Shanghai,上海,201206,reception_jq@tokushinkai.com.cn,www.tokushinkai.com.cn,31.243972,121.586905,,"Shanghai Pudong New Area Tokushinkai Dental Clinic was opened in the Pudong District on Nov. 28. 2004. This is the third clinic of the Tokushinkai Group in China. It is located in Pentaphyllum Road, Golden Bridge, and the biggest developing area in Shanghai nowadays.
\

\
We have an area of 561 square meters and a total floor space of 202 square meters, with six examination chairs. 
\

\
The interior is filled with natural wooden works or rattan-works and designed with an image based on an Asian-style atmosphere.
\

\
We provide general dentistry, child dentistry, orthodontic dentistry, implant dentistry, and aesthetic dentistry like whitening.
\
Some local staff, who can speak foreign languages, like English or Japanese, are there. So, if you seek a reliable dental clinic, please come to see us.
\
",,,,"021-50307868 (en,STAND),021-50307858 (zh,STAND)",DENT (zh),
185,KOWA HONI Clinic (Puxi),科瓦恒利店---浦西,"HONI Plaza, No.199, Chengdu North Road, Jingan District,Shanghai",上海市静安区成都北路199号恒利国际大厦11楼,Shanghai,上海,,service@kowa.cn,www.kowa-dental.com,31.233114,121.473168,,"Our team of international and overseas trained dentists will look after all your family’s dental health needs.
\

\
Our bright and comfortable clinics, and attentive staff are designed to make the family’s visit comfortable and satisfying, whilst ensuring your teeth &amp; gums stay in perfect health.","⊙ 科瓦齿科隶属于上海科瓦口腔门诊有限公司，把握世界前沿口腔诊疗技术脉动，专注于为客户提供专业、安全、卫生、美观、舒适的口腔诊疗服务。
\
⊙ 科瓦齿科享用德国百年齿科经验，汇聚中国、美国、法国、日本、中国台湾、韩国、德国等多国国际知名口腔专业医师，特聘多位口腔医学博士后、博士常年坐诊，满足不同国籍会员的诊疗需求。
\
⊙ 科瓦齿科拥有全球先进口腔诊疗设备，引进德国多款高端的齿科诊疗设备，包括：数字内窥镜、龋齿激光探测、全景扫描机、牙根尖扫描、德国卡瓦牙椅、三维CT等，为您提供精准的口腔诊疗支持。
\
⊙ 科瓦齿科严格执行德国米拉格消毒灭菌管理，超越您对卫生条件的高要求。
\

\
⊙ 科瓦齿科拥有心理学级别的就医环境，采用一医一诊室的诊疗方式，国际标准的口腔四手操作，使您在舒适、平静、安全的感觉中完成整个诊疗护理过程，避免自发的恐惧和疼痛的心理暗示。科瓦提供超值的服务价格，会员可享受到相当于国家公立医院特需门诊的价格及每年会员专属免费项目。
\
⊙ 科瓦齿科严格执行美国ADA专业管理，超越您对口腔诊疗服务的高要求。
\
⊙ 科瓦齿科提供20余家国际保险直接结算服务。科瓦齿科拥有众多名人、企业CEO、外企高管会员，与世界精英同侪，会员身份自然尊贵。
\
⊙ 科瓦成为30余家世界500强企业、中国100强企业员工口腔医疗定点机构。 
\
⊙ 科瓦齿科国际种植中心通过欧盟CE认证，拥有美国、德国、瑞士、瑞典、韩国等全球知名种植系统，并成为口腔种植专业的演示中心及培训基地；国际口腔种植中心落户科瓦，科瓦并成为教学医院。
\
⊙ 科瓦齿科特邀国际齿科权威专家喻剑明（美国哈佛正畸学博士后）、张永刚、冯雨欣、金辰（日本齿科博士）刘博(法兰克福种植硕士)等30余位专家坐诊；与美国、日本、德国、中国台湾等国际知名口腔产品生产企业合作；运用先进材料，保护你的口腔健康。
\
⊙ 科瓦齿科以&quot;客户满意，我们永远的追求&quot;为宗旨，始终用超越现在的眼光审度，以未来为导向，以优质个性化的服务理念，为您的口腔健康竭尽全力。",,,"021-51082222 (zh,STAND),400-6060-222 (zh,STAND)",DENT (zh),
186,Shanghai Senmao Clinic,上海森茂诊所,"No.1000, LuJiaZui Road",上海市浦东新区陆家嘴环路1000号恒生银行大厦3楼,Shanghai,,,,www.senmaoclinic.jp,31.246211,121.513944,,,,"1. 日本人の医師・看護師・薬剤師が常駐しています。
\
予約から診療、検査、投薬まで全て日本語でOK。
\

\
2. 中国衛生部の認可を受けた上海初の日系医療機関として
\
1998年に開業以来16年の実績。
\

\
3. 内科、外科、胃腸科、小児科、婦人科、耳鼻咽喉科
\
それぞれの専門医による適切な診察。 
\

\
4. 明快な料金体系で安心。
\
各種海外旅行保険の適用によりキャッシュレスで受診可能。
\
さらに片道50元までタクシー代をサービス。
\

\
5. 森茂国際健診センターを併設し、日本と同等の健康診断を実施
\

\
6. 日本と同水準の医療機器（ヘリカルCTスキャンなど）を完備。
\

\
7. 管理栄養士が常駐し、プライマリーケアとして食生活を指導
\

\
8. 診療所の場所は浦東新区の中心に立つHSBCタワー内。
\
アクセス至便で通いやすい。
\

\
9. 日本の医療機関との充実したネットワーク
\

\

\

\
",,"021 6841 0513 (zh,STAND),021 6841 0385 (zh,STAND)","INT (zh),PED (ja),PED (zh),GYN (zh),ORL (zh),INT (ja),GYN (ja),ORL (ja),GAS (ja)",