id,nom,nom_zh,adresse,adresse_zh,ville,ville_zh,cp,mail,website,latitude,longitude,descr_fr,descr_en,descr_zh,descr_ja,descr_de,enum( tel (lang,type )),enum( spe (lang))
,,,,,,,,,,,,,,,,,,,
,,,,,,,,,,,,,,,,,,,
42,GHC PuXi Medical & Dental Center,浦西全康医疗中心,"No.1788, NanJing West Road, Jing An District",静安区南京西路1788号1788国际中心303室 ,Shanghai,上海,200040,claims@ghcchina.com,http://www.ghcchina.com,31.228637,121.450389,,"We are healthcare professionals dedicated to the health and well-being of the global and local communities where we are located and we are passionately committed to providing the highest quality patient care and service in the prevention, diagnosis and treatment of human illness.
\

\
We know that when you choose your healthcare provider, you want to be assured that you will receive caring service of uncompromised international standards with state-of-the-art equipment in a very personalized manner.
\

\
We value you as a patient. We realize your time is important, so we think you will appreciate our attention to details, which are designed with patient comfort, privacy, convenience and safety in mind.","上海全康医疗中心是由来自美国、加拿大、法国、德国、香港和日本的医学专家共同运营的医疗和牙科中心。专科包括了心脏科、泌尿科、儿科、肺科、内科、普通内科、精神科、普通牙科等等。
\

\
全康始终致力于为上海地区的国内外人士提供全面和高质量的国际标准医疗保健、诊断和治疗服务。
\
",,,"136 7195 5332 (ja,STAND),136 8188 8833 (en,URG),021 5298 6339 (zh,RDV)","CHIN (hk),CHIN (zh),DENT (zh),DENT (en),DENT (fr),CAR (hk),CAR (en),URO (zh),URO (en),PED (ja),OPH (zh),PSY (zh),RAD (zh)",
43,Shanghai United Family Hospital-Puxi Main Hospital,上海和睦家医院-浦西,"No.1139, Xianxia Road, Changning District",上海市长宁区仙霞路1139号 ,Shanghai,上海,200336,shuptservice@ufh.com.cn,http://shanghai.ufh.com.cn,31.213916,121.382775,,"Shanghai United Family Hospital (SHU), a joint venture between Chindex International, Inc. (NASDAQ: CHDX) and the Shanghai Changning Central Hospital, is a member of the United Family Healthcare (UFH) network. Opening its doors on December 1, 2004, the hospital’s sole mission is to provide comprehensive, integrated healthcare services in a uniquely warm and caring patient and family service-oriented environment.
\
 
\
SHU is a purpose-built, full-service, JCI accredited facility that offers highly-qualified medical staff from around the world and direct billing to over 30 global insurance companies. As a full service hospital, SHU has a 24-hour emergency room, inpatient and outpatient care, state-of-the-art operating theatres and 24-hour in-house pediatric, radiology, pharmacy and laboratory services. 
\

\
The international staff of senior physicians and local specialists at SHU are selected based not only on the excellence of their training and professional expertise, but also on their compassion, empathy and a genuine interest in working in a multi-cultural environment. In addition to the highly qualified medical team, SHU also has excellent working relationships with medical professors and consultants at the local teaching hospitals and medical facilities around Asia.
\
 
\
Shanghai United Family is your trusted healthcare partner!
\
","上海和睦家医院(SHU)是纳斯达克上市公司美国Chindex集团（股票代码：CHDX）和上海长宁区中心医院共同组建的合资医院，于2004年12月1日开始营业。上海和睦家医院的宗旨是：在家庭般温馨舒适的就诊环境里，为患者提供独特的、全方位的医疗服务。
\
 
\
上海和睦家医院具有自己特定的建院目的，是一家获得JCI国际认证的综合性医院，拥有来自全球的高水平医务人员，同时可与全球40多家保险公司直接结算。上海和睦家医院设有24小时开放的急诊室，可为患者提供门诊和住院服务，医院还配备了一流的手术室、放射科、药房和化验室。
\
 
\
上海和睦家医院在选择具有国际背景的高级医生和本土专家时，不仅考察其培训经历和专业知识是否卓越，还要考察他们的同情心、同理心以及是否真正有兴趣在多元文化环境中工作。除了具有高水平的医疗团队外，上海和睦家医院还与来自地方教学医院及亚洲地区医疗机构的医学教授和顾问建立了良好的工作关系。
\

\
上海和睦家医院可为您提供的住院及门诊服务项目包括：重症急救和急诊科、口腔科、皮肤科、耳鼻喉科、内窥镜室、眼科、心理咨询科、家庭全科、内科、化验科、妇产科、儿科、药房、理疗和康复科、骨科及运动医学科、放射科、外科、中医科。
\

\
上海和睦家医院是值得您信赖的健康伙伴！","上海ユナイテッドファミリー病院（SHU）はユナイテッドファミリー医療グループの一施設であり、シンデックス・インターナショナル(NASDAQ: CHDX)と上海長寧区中心病院の合弁企業として設立されました。2004年12月1日に開業し、温かみのある家庭的な環境の中で総合的な医療サービスを提供することを唯一の使命としています。
\
 
\
SHUはJCI（国際医療施設認定合同機構）の認証を受けた、フルサービスを提供する医療施設であり、高い訓練を受けた世界各国の医療スタッフが常駐し、30以上の保険会社のキャッシュレス・サービスが受けられます。SHUは24時間対応の救急センター、入院と外来診療、最先端の手術室を設置しており、小児科当直、放射線科、薬局、検査室（ラボ）は24時間サービスをしています。
\
 
\
当院の世界各国からのベテラン医師や現地の専門医は、卓越した教育や専門知識を持つだけでなく人格者であり、多文化の環境下で働くことを喜びとしています。当院は高水準の医療チームを有していることに加え、現地や周辺アジアの大学病院の教授や顧問との良好な協力関係を築いています。
\
 
\
上海ユナイテッドファミリー病院は、信頼できるあなたの医療パートナーです。
\
",,"021 2216 3999 (zh,URG),400 639 3900 (zh,RDV),021 2216 3900  (zh,STAND)","DER (zh),DENT (zh),ANE (zh),CHIN (zh),GEN (zh),GYN (zh),INT (zh),OPH (zh),ORL (zh),ORTHOPEDIE (zh),GEN (en),GEN (fr),PSYCHO (zh),PED (zh),REHAB (zh),CHIRPL (zh),RAD (zh),CHI (zh),PED (en),PED (fr),PED (hk)",
44,ParkwayHealth Hong Qiao Medical Center,百汇医疗上海瑞祥门诊部,"No.2258 ,Hong Qiao Road",上海虹桥路2258号,Shanghai,上海,200336,stephanie.wang@parkwayhealth.cn,http://www.parkwayhealth.cn,31.198686,121.384983,,"With a need for people in worldwide to access top quality international healthcare, Singapore Parkway Holdings Limited, the largest private medical group in Asia opened its first medical and surgical center in Shanghai in 2005. ParkwayHeath China currently operates the largest network of 8 medical centers in Shanghai, and 1 state of the art international clinic in Chengdu.
\

\
With a combination of more than 80 expatriate and local physicians, we are capable to provide over 30 specialties, including birthing and inpatient services in more than 20 languages. This leaves you free to enjoy your life, safe in the knowledge that should you need medical assistance, ParkwayHealth is here to provide with you services that you can depend on.
\

\
ParkwayHealth Hong Qiao Medical Center was the first to provide quality medical care to the expat community in Shanghai and continues to be the clinic of choice for you and your family.","百汇是百汇控股（新加坡）公司旗下成员，是亚洲最大的高档医疗服务上市公司。 在新加坡，百汇拥有伊丽莎白医院, 鹰阁医院和东海岸医院 并计划于2011年建设完成Novena医院。目前集团在亚洲地区共拥有15 家医院，3277 张床位，1500 多名著名医疗专家，开设各种专科。
\
 
\
旗舰机构包括设在马来西亚、印度尼西亚（开发商）、文莱、印度的医院和医疗中心等。.公司以 Parkway Shenton 为品牌，开设 30 多家高档护理和卫生保健机构，在肿瘤（癌症）、肝脏手术、心血管疾病等诸多领域颇有建树，并开设眼科中心、微创手术中心等专门外科。 此外，百汇旗下20 多家子公司还可通过鹰阁 CRC 提供各种完善的健康保健服务，包括实验室检查、医学成像、临床研究 (CRO) 等。百汇控股已在新加坡股票交易所上市。 
\

\
此外，百汇还在全球经营着 45 家患者援救中心，为全球患者提供优质全面的卫生保健服务。百汇曾多次囊括包括 SuperBrands 和 亚洲医院管理奖在内的国际卫生管理与服务品质大奖。 
\

\
作为亚洲最大的国际健康保健服务商，百汇拥有庞大的网点和 1500 多名医师。在上海，共有 70 多名经验丰富的医师，设有6 处交通方便的服务网点。可为门诊和住院患者提供各种医疗保健服务。网点遍及上海市中心、 浦东、虹桥和新天地。 
\

\
上海瑞祥门诊部是上海第一家为外国人社区提供优质医疗服务，并继续成为您及您的家庭选择的医疗机构。
\

\
上海瑞祥门诊部拥有富有经验的医疗团队之一。 许文奇医师，柯宝博医师和琳妲医师在上海累计行医20多年。他们都受过广泛的培训，富有评估和治疗各个年龄段儿童的经验。三位医师的孩子都在上海生活，成为了挑战这座“国际化城市”保持儿童健康的老手。 ",,,"021 6445 5999 (en,RDV),021 6445 5999 (zh,URG)","INT (zh),GEN (zh),CHIN (zh),PSYCHO (de),PED (zh),DER (zh),OPH (zh),ORL (nl),POD (de),DER (en),ORL (en),END (zh),DER (hi),DIE (fr),ECHO (zh),POD (zh),CHIN (ja),CHIN (en),PED (ja),PED (en),GEN (hk),GEN (en),END (en),INT (en),GYN (fr),GYN (en),GYN (es),PSYCHO (en),PSYCHO (pt),POD (fr),POD (en),KINE (fr),KINE (en),KINE (pt),KINE (es),OPH (en),CHIROP (en),CHIROP (es),DIE (en),DIE (ar),ECHO (en)",
73,Shanghai East Hospital South Campus,上海市东方医院（同济大学附属东方医院）南院,"No.1800, Yuntai road, Pudong District",上海市浦东新区云台路1800号,Shanghai ,上海,200120,xiaofengshao@gmail.com,http://www.easthospital.cn,31.154058,121.520411,,"Shanghai East Hospital (Tongji University affiliated East Hospital) was founded in 1920, is a modern 3A general hospital which combined of medical, teaching and research in one of. The hospital has a superio geographical position located in the north and south, respectively located in Shanghai Lujiazui Finance and Trade Zone and the Expo area. It's construction area reached 250 000 square meters.
\

\
Shanghai East Hospital has 51 clinical, medical departments and open beds 2200, and has a large number of medical team of experts with deep knowledge, 230 senior professional titels, 119 doctorates, 252 master's degress in personnel, 38 doctoral tutor and 81 master instructors. More than 200 of these experts selected or got national candidates of Countries Hundred Talents Project, The program for Changjiang Scholars, The national Getzing Youth Foundation, Ministry of Education New Century Excellent Talents and Shanghai leading talent program etc.
\

\
We have 9 key specialist of the nation and Shanghai city and with higher levels in the areas of heart failure, emergency trauma, cardiac surgery, oral implant rehabilitation, cardiology, minimally invasive surgery, orthopedics, comprehensive cancer treatment etc. We also undertake the education for  three clinical department of Tongji University's nudergraduates, masters and doctoral and post-doctoral, and as a training base for chief physician's standardization in Shanghai. We have arrhythmia Key Laboratory of the Ministry of Education, the Ministry of Health endoscopic technique training bases, National Center for Cardiovascular Disease technology exchange shanghai base, the Ministry of Health Hepatobiliary and Enteric Surgery Research Center, Shanghai Institute of gallbladder disease, translational medical research public platform of Pudong New Area,Tongji University Institute of Traumatology Institute of organ Transplantation, Tongji University Medicine Center for Cardiovascular Disease, Sino-German heart Institute, Sino-French pathophysiology laboratory and other research institutions. We assume 600 various research projects such as the National 973 Program, 863 Program, the National Science and Technology Support Program, the National Natural Science Foundation etc. The hospital has International advanced large-scale medical equipment like Hyun-speed dual-source CT, 3.0T magnetic resonance, ultra-high-speed electromagnetic waves cancer therapeutic instrument, large tablet DSA, assisted circulation system anetc.
\

\
Since 2000, Shanghai East Hospital bear the first Medicare for major international conferences which held in Shanghai, for example the World Expo and other major events , and the medicare for international dignitaries like Bush, Obama, Sarkozy, Medvedev, Samaranch during theri stay. We also carry out the targeted aid work to regional Hospital of Yulin, Shaanxi, Xinjiang's Ili, Chongqing Wanzhou, Chuxiong of Yunnan, Xi NIng of Qinghai and Xinjiang Shache etc.
\

\
Our spirit is &quot;learning to illness, with good virtue, realistic and innovative, share in trouble&quot; and we are make arduous efforts for creating a boutique hospital of public welfare, academic, internationalization.","上海市东方医院（同济大学附属东方医院）始建于1920年，是一所集医疗、教学和科研于一体的现代化三级甲等综合性医院。医院南北两址，分别位于上海陆家嘴金融贸易区和世博园区，建筑面积25万平方米，地理位置优越。
\

\
　　医院设51个临床、医技科室，开放床位2200 张。医院拥有一大批造诣深厚的医学专家队伍，高级职称人员230 名，具有博士学位人员119人、硕士学位人员252人，博士生导师38 名、硕士生导师81 名，专家队伍中有200 余人次入选或获得国家百千万人才工程国家级人选、教育部长江学者、国家杰青青年基金、教育部新世纪优秀人才、上海市领军人才计划等各级人才计划。
\

\
　　医院有国家、上海市重点专科、特色专科9个，在心力衰竭、急诊创伤、心脏外科、口腔种植修复、心血管内科、微创外科、骨科、肿瘤综合诊治等学科领域具有较高水平。医院承担同济大学临床三系本科、硕士、博士、博士后教育，是上海市住院医师规范化培训基地。医院建有心律失常教育部重点实验室、卫生部内镜技术培训基地、国家心血管病中心上海技术交流基地、卫生部肝胆肠外科研究中心上海胆囊疾病研究所、浦东新区转化医学研究公共平台、同济大学创伤医学研究所、同济大学器官移植研究所、同济大学医学院心血管病中心、中德心脏研究所、中法病理生理学实验室等科研机构。承担国家973计划、863计划、国家科技支撑计划、国家自然科学基金等各类科研课题600 余项。医院拥有炫速双源CT、3.0T 核磁共振、超高速电磁波肿瘤治疗仪、大平板DSA、辅助循环系统等国际先进的大型医疗设备。
\

\
　　自2000 年以来，东方医院承担了在上海举办的各项重大国际会议、世博会、重大赛事的第一医疗保障，以及布什、奥巴马、萨科奇、梅德韦杰夫、萨马兰奇等国际政要访沪期间的医疗保障。先后对陕西榆林、新疆伊犁、重庆万州、云南楚雄、青海西宁、新疆莎车等地区医院开展对口支援工作。
\

\
　　本着“学以去疾、德以扬善，求实创新，同舟共济”的院训，东方医院正为创建公益性、学术型、国际化的精品医院而努力奋斗。",,,"021-38804518-21157 (fr,STAND),15312996085 (fr,RDV)","PSYCHO (zh),RAD (zh),CHIN (zh),ALL (zh),URO (zh),REHAB (zh),ONC (zh),OPH (zh),ORTHOPEDIE (zh),DIE (zh),NEUR (zh),URG (zh),DENT (zh),ORL (zh),CHIN (en),REHAB (en),INT (zh),PSYCHO (en),URG (en),RAD (en),SPO (zh),DENT (en),ORTHOPEDIE (ja),ORTHOPEDIE (en),NEUR (en),ORL (ja),ORL (en),ALL (en),DIE (en),URO (en),URO (fr),SPO (en),ONC (en),CAR (zh),OPH (en),GYN (zh)",
81,Healthway Nobel Eye and ENT Hospital (Healthway Medical Group),上海诺美尔眼耳鼻喉科医院,"No.371, Xin Zha Road (Corner of Xin Chang Road), Huang Pu District",黄浦区新闸路371号,Shanghai,上海,200000,billing_nobel@healthwaychina.com,http://www.healthwaymedical.com/,31.245215,121.473287,,"We are cooperating with many leading international insurance companies all over the world, such as Aetna, Allianz, BUPA, EURO-ALARM, GOODHEALTH, MSH, HTH worldwide, RSA, Vanbreda and Cigna.","诺美尔眼耳鼻喉科医院是以管理服务输出的模式一体化理念，并与国际医疗服务接轨的新型专业医院。立足于规范管理、品牌第一、精湛的医疗技术、极具人性化的服务理念、合理的价位。
\

\
医院营业面积2000余平米，眼科采用目前最安全有效的美国第四代VISX准分子激光治疗设备及前导波高阶象差等系统，专业从事屈光不正治疗、美式21步骤验光配镜、低视力矫正﹑小儿斜弱视治疗及白内障超声乳化等。
\

\
医师拥有超过20000次的手术案例经验，并与台湾诺贝尔眼科及日本蓝美眼科有长期的医术交流，更有日本华裔资深眼科博士、台湾眼科专家座诊，为您提供最放心最优质的服务。诺美尔眼口腔科及耳鼻喉科采用全景X光片机（Technic），美国Beyond冷光美白仪，芬兰PLANMECAX光牙片机，意大利恺撒顶级名牌综合牙椅治疗仪，低温消融等离子体手术系统，鼻内窥镜，纤维喉镜，电脑控制无痛口腔局麻仪等，为广大的患者提供了优质、高效、领先的医疗服务。",,,"021 5030 1699 (en,RDV),021 6359 1082 (zh,STAND),021 6359 1166  (en,RDV)","PHA (zh),DENT (zh),ORL (zh),GEN (zh),DENT (en),ORL (en),GEN (en),OPH (zh),PHA (en)",
82,"The Fifth People’s Hospital of Shanghai, Fudan Univeristy",复旦大学上海市第五人民医院,"No. 801, He Qing Road (No. 128, Rui Li Road), Minhang district",上海市闵行区瑞丽路128号,Shanghai,上海,201100,,http://www.5thhospital.com,31.012029,121.415042,,,"上海市第五人民医院创建于1904年，为工部局所建的“西人隔离医院”。1939年由日本同仁会接办，改称“同仁会医院”。1945年收归国有，定名为“上海市市立第五医院”，1949年上海解放，更名为“上海市市立第五人民医院”。1960年迁至闵行，一度又称“上海市闵行区中心医院”、“上海市工农医院”，1984年经批准恢复“上海市第五人民医院”院名。1995年原闵行区传染病医院并入。1998年闵行区人民政府和原上海医科大学联手共建市五医院，随着原上海医科大学与复旦大学合并为新的复旦大学，现医院又称“复旦大学附属上海市第五人民医院”，为二级甲等非营利性公立医院。 
\

\
上海市第五人民医院目前占地5.81公顷（约90亩），建筑面积6万平方米。医院核定床位584张，开放床位800张，年门急诊量超过70万人次，年住院病人超过1.4万人次，住院病人手术超过6,000例次；现有职工1,000余人，专业技术人员900余人，其中高级职称百人，硕博士46人。医院现拥有上海市百人计划1名，上海市曙光学者1名，上海市医苑新星1名，上海市区县百人计划4名，闵行区卫生系统学科带头人14名；有6人享受国务院特殊津贴；4位专家列入上海领军人才“后备队”（闵行领军人才）培养计划。
\

\
上海市第五人民医院作为复旦大学附属医院和蚌埠医学院、皖南医学院教学医院，医院每年承担五所院校临床、公卫等七个专业200余人的教学任务，拥有授课教授和兼职教授60余人。医院每年发表学术论文约200篇，约1/3在国内核心和权威期刊上发表，部分在国外期刊中发表，也有一些有IF、SEI、SCI指数的文章。上海市第五人民医院现有万元以上设备600余件，拥有重症监护（ICU、CCU），全国一流的高压氧舱、MRI、16层CT、ECT、DSA、800MA的大型X光机、数字胃肠机、C臂介入X光机、全身及脑部彩色超声诊断仪、血液透析、腹腔镜、关节镜、电子内镜系统、碎石机、全自动生化分析仪、超声乳化仪、玻璃体切割器、眼科电脑视野仪、多种激光治疗仪等大型医疗仪器设备，直线加速器也正在配置中。医院资产总值达3.5亿元，其中设备总值8000余万元。医院现能开展全膀胱切除-原位新膀胱术、腹腔镜胆囊切除、肾囊肿切除术及腹腔镜手术治疗宫外孕、人工心脏起搏器安装、心脏间隔缺损封堵术、射频消融术、冠脉造影及安置支架、人工晶体植入、喉再造等难度高、技术新的手术。良好的医疗环境，优质的医疗服务使群众对医院满意率达到94%，医院连续五次被评为上海市文明单位。
\

\
上海市第五人民医院从建院之初的8个临床科室，150张床位的条件下，努力发展学科建设，陆续开设了绝大部分二级和三级学科，迄今已基本齐全。设有内科（分设呼吸、心血管、消化、肾脏、神经、内分泌、血液、感染与风湿病等分科）、普外科、胸外科、神经外科、泌尿外科、妇产科、儿科、骨科、中医科、老年科、肿瘤科、传染科、急诊科、麻醉科、眼科、耳鼻喉科、口腔科、皮肤科、保健科、职业病科、高压氧科、理疗科、检验科、核医学科、放射科（含放射介入和放射治疗科）、药剂科、超声医学科、病理科、营养科等37个专业科室。其中泌尿外科和中医支气管炎专科是上海市医学特色专科；眼科、耳鼻喉科、病理科、儿科新生儿专业、心内科、呼吸科和骨科是闵行区医学特色专科；高压氧舱治疗为国家级和上海市继续教育项目。各科室积极开展新技术、新项目，有较好的抢救重危病人水平。",,,"021 6430 8151 (zh,STAND),021 2428 9000 (zh,RDV)",GEN (zh),
84,Shanghai Healthway Medical Centre(JinQiao),上海威瑞门诊部,"No.1228, BiYun Road, Pudong New Area",上海市碧云路1228号,Shanghai,上海,200120,corporate.sales@healthwaymedical.com, 	http://www.healthwaymedical.com/china-healthway,31.24918,121.596506,,"Healthway Medical Group is quickly expanding in Shanghai, China. Our four established facilities in Shanghai, China: Healthway Medical Centre(JiaoQiao), NeuGlow Medical Centre, Healthway Nobel Hospital and Healthway Dental Centre, are all located in convenient and central areas.
\

\
 We offer a wide range of medical services, including Family Medicine, Dentistry, Health Screening, ENT, TCM and Ophthalmology.
\

\
 Most of our doctors are educated abroad and are highly qualified within their own fields. They are able to communicate in multiple languages. We also adopt advanced medical technology in our hospitals.
\

\
 We offer a competitive price to our patients. And for corporate clients, a generous corporate rate and a consolidated billing system are adopted. This allows the employees to have a cashless visit to our doctors with the presence of a Healthway Medical Card or the Staff Pass of the company. Also, a monthly consolidated invoice will be submitted to the employer with the breakdown of the medical expenditures of each staff.
\

\
 In addition, we are cooperating with many leading international insurance companies all over the world, such as Aetna, Allianz, BUPA, EURO-ALARM, GOODHEALTH, MSH, HTH worldwide, RSA, Vanbreda and Cigna.","上海威瑞门诊部隶属于新加坡康威医疗集团，位于上海浦东新区碧云路1228号。门诊部地处碧云社区与金桥开发区交界处，是一家提供家庭医疗、内科、妇科、中医科和口腔科服务的综合性医疗及口腔科门部。依托由来自中国、日本、新加坡和菲律宾的高水准医疗和牙科医生成员组成的国际化团队，为我们的患者提供优质的医疗服务。主要特色为全科医疗，健康评估，中医治疗与理疗，妇科检查，烤瓷牙、矫正牙、种植牙等。
\
 
\
上海威瑞（金桥）涉外医疗中心是康威中国在大中华地区建立的第一家以高端全科、牙科服务为特色的国际化综合性医疗诊所。以新加坡最顶尖私家医疗服务为标准，旨在为上海的外籍人士及有需求的人群提供全方位的高品质的医疗服务。诊所位于浦东金桥碧云社区，靠近数个国际学校及社区，交通便捷，就诊便利。
\
 
\
上海威瑞门诊部凭借康威中国强大的医疗资源和领先的医疗技术，已设有全科、牙科、中医科、体检、化验科和医学影像科。并汇聚了来自多欧美、日韩、港澳台，东南亚的外籍全科及口腔科专家，能熟练运用多国及地方性语言，可为每一位有需求的病人提供一对一的针对性医疗服务。
\
 
\
上海威瑞（金桥）涉外医疗中心融贯中西，海纳百川，秉承康威中国一直以来务实求精的服务理念，以营造温馨舒适的就医环境、追求卓越的医疗品质，提供优质的医疗服务为己任，为更多的患者提供全面的医疗保健及牙科美容服务。
\
 
\
服务项目：
\
 
\
家庭医疗、成人和儿童的全科医疗及内科药物、妇科、健康普查、中医、牙科服务、门诊药房与合资药物、放射科服务，包括X片摄线和B超、化验服务。",,,"021-50301699 (zh,RDV),021-50301699 (en,RDV)","RAD (zh),GEN (zh),DENT (zh),ORL (zh),OPH (zh),CHIN (zh),DENT (en),ORL (en),GEN (en),OPH (en),RAD (en),CHIN (en)",
85,Shanghai Punan Hospital International Medical Center,上海浦东新区浦南医院国际医疗部,"No.519, NanMaTou Road (No.219 Linyi Road), Pudong New Area",上海市浦东新区南码头路519号（临沂路219号）,Shanghai,上海,200120,info@punanhospital.com,http://www.punanhospital.com,31.199023,121.517465,,"The Punan Hospital International Medical Department consists of the entire 17th floor of the Shanghai Punan Hospital.
\

\
Located in Shanghai’s presitigious Pudong District, between the Lujiazui Financial Zone and the Shanghai 2010 World Expo Site, the Shanghai Punan Hospital was constructed in 1983. Almost 1000 staff members in 28 clinical departments and 8 medical departments treat nearly 1 million patients each year, while nearly 10,000 surgeries are performed. The Shanghai Punan Hospital has been named a Model Unit by the Shanghai Health Department.
\

\
Since the opening of the International Medical Department, patients living in China from the United States, Germany, Australia, Canada, Japan, and 179 other countries and regions have received care in our hospital. We are also designated as an official “compatriot” hospital of Taiwan.
\

\
During 2011, 350 inpatients were hospitalized at the International Medical Department of our hospital. During that time, we help 8,660 people who came to spend time with their loved ones. We also helped make arrangements to escort 26 people home. We are highly experienced with health insurance companies worldwide, and we are listed as a formal hospital for more than 40 companies.
\

\
The Shanghai Punan Hospital boasts some of China’s most advanced medical equipment, including : two sets of neurosurgery navigation equipment, multiple surgical microscopes, various neuroendoscopy and stereotactic treatment instruments, digital X-ray imaging, CT, high-end ultrasound, DSA, digital mammography systems, to name just a few.
\

\
In addition, we have been leaders in the creation and implementation of an ultra-modern and comprehensive computer management system which accesses and cross-refernces data stored in the Hospital Information System (HIS), the Administrative Office System (OA), the Medical Image Storage and Transmission System (PACS), the Laboratory Information System (LIS), and allows doctors to access the information via Mobile Workstations. This information is then also made available to the Regional Health Information System, which then makes your data available to medical professionals in other facilities, keeping you safe wherever you go.","上海市浦东新区浦南医院是一所集医疗、教学、科研为一体、科室齐全、设备先进、具有相当技术力 量并已形成多个特色专科的国家公立性二级综合性医院。
\

\
能开展各种妇科、颅脑肿瘤、脑动脉瘤动静畸形及重症颅脑损伤的急救处理。此外医院的肝外科；骨科也各有特色并在浦东地区享有良好的声誉；肝外科为浦东新区重点特色专科，上海市中山，华山等多家三级医院在我院开设了多科专家门诊，医院工作量始终保持在上海市二级综合性医院的前列。",,,"137 6123 8181 (en,RDV),021 5094 5088 (en,RDV)","NEUC (zh),NEUR (zh),URO (zh),ORTHOPEDIE (zh),CHI (zh),GYN (zh),PED (zh),STO (zh),ORL (zh),DER (zh),DER (en),ORL (en),GYN (en),NEUR (en),NEUC (en),ORTHOPEDIE (en),PED (en),STO (en),CHI (en),URO (en)",
86,Amicare Test Hospital,AMICARE 测试医院,"No.3215, HongMei Road",虹梅路3215,Shanghai,上海,201103,info@aeglechina.cn,http://www.aeglechina.cn,31.180587,121.393119,"********** DEMO **********
\
Hôpital de démo.
\
Toutes les informations contenues sont fictives.
\
********** DEMO **********","********** DEMO **********
\
This hospital has been created for demo purpose.
\
All information are fictional.
\
********** DEMO **********","********** 测试 **********
\
这是一个虚构医院做演示之用。仅适用于测试。
\
所有的资料均为虚构。
\
********** 测试 **********",,,"021 6414 8979 (en,STAND),021 6414 8979 (zh,STAND)","CAR (zh),GEN (zh),NEUR (zh),PED (zh),GYN (zh),URO (en),URO (zh),ALL (zh),DER (zh),CHIN (zh),GAS (zh),ALL (fr),ALL (de),CAR (en),DER (en),GEN (en),GEN (fr),GEN (de),GEN (ja),GEN (pt),GEN (es),GAS (en),GYN (nl),GYN (en),GYN (fr),GYN (ja),NEUR (en),OPH (en),OPH (de),URO (ja),PED (en),PSY (ja),CHIN (en),PSY (en),ACC (zh),OST (zh),VAC (zh),ACC (en),ACC (fr),OST (ja),VAC (en),POD (zh),INT (zh)",
87,GHC PuDong Medical & Dental Implant/Aesthetic Center,浦东全康医疗中心,"World Financial Center Shop 212, 100 Century Avenue, Pudong New Area",上海浦东新区世纪大道100号环球金融中心商场212室,Shanghai,上海,200120,info@ghcchina.com,http://www.ghcchina.com/,31.240795,121.514352,,"Global HealthCare (GHC) is a medical &amp; dental center operated by international doctors and dentists from the US, Canada, France, Germany, Hong Kong, and Japan. Specialists are available in Cardiology, Urology, Pediatrics, Pulmonology, Internal Medicine, General Medicine, Psychiatry, Family Dentistry, Clinical Psychology, Nutrition, etc…
\

\
We are dedicated to the health and well-being of the global and local communities and passionately committed to providing the highest quality patient care and services in the prevention, diagnosis and treatment of human illness.
\

\

\
Operating Hours:
\
Mon.-Fri.: 8am-7pm
\
Sat.-Sun.: 9am-5pm","全康医疗由世界知名的医生和仁济医院合作设立，致力于为上海地区的国内外人士提供全面和高质量的国际标准医疗保健和诊断治疗服务。
\

\
我们了解您对健康的需求，在全康，我们有先进的医疗设备，舒适的就医环境和来自世界各国和地区的医疗专家，将会为您提供人性化和安全有效的医疗服务。
\

\
我们相信您会满意我们对细节的注重，我们将会为您创造一个温馨，舒适，安全和私密的就医环境。
\

\
1.我们尊重个人的尊严和个人隐私，我们尊重不同国度和民族的文化和需求。
\

\
2.以开放，诚恳的态度对待我们的客户，依据个人病情提供个性化专业服务。
\

\
3.积极普及医疗知识，增强以预防为主的自我保健意识。
\

\
4.全康医疗致力于环境保护事业。
\

\
5.全康医疗注重国际合作，以专业敬业的精神为人类健康做出贡献。
\
",,,"136 8188 8833 (en,URG),021 6877 5093 (en,RDV)",DENT (zh),
88,Huashan Worldwide Medical Center,复旦大学附属华山医院国际医疗中心,"8th Floor, No.1 building, No.12 Middle Wulumuqi Road, Jing'an District","上海市乌鲁木齐中路12号
\
上海华山医院1号楼8楼",Shanghai,上海,200040,med-service@sh-hwmc.com.cn,http://www.sh-hwmc.com.cn,31.221936,121.449671,,"Huashan Worldwide Medical Center (HWMC), founded in 1989, is a multidisciplinary, modern international medical establishment. The out-patient clinic is situated on the 8th floor of Building No.1 in the Huashan Hospital campus.
\

\
24 hour emergency services","复旦大学附属华山医院国际医疗中心位于华山医院1号楼8楼，面积850平方米，诊室明亮整洁，环境优美。医疗中心配备先进的影像学检查和超声学检查设备，佐以电子信息预约和排队系统，提供医疗、检验、取药、收银一站式服务方式。提供多家国际保险公司及保险代理公司担保赔付及免现场支付合作，提供全科、专科(除儿科、产科)、专家预约门诊、出诊服务、健康检查和疫苗接种等服务，提供24小时全天候服务。
\

\
与华山医院300余位专家及教授保持常年密切合作，科室设置齐全，专科医生具有较高学术水平，并具有丰富临床经验。大部分医生拥有国外留学、培训的背景，在保持与国际先进医疗水平接轨的同时，保证能与来自世界各地患者作好沟通。
\
·　提供24小时各科门急诊服务。
\
·　接受多种国际信用卡如VISA，MASTER等。
\
·　作为上海改革开放的窗口及国际友谊与健康的纽带，华山国际医疗中心将竭诚为您提供最好的医疗服务，当您在上海因健康问题而备受困扰时，华山国际医疗中心将是您的最佳选择。",,,"021 6248 3986 (zh,STAND),021 6248 3986 (en,RDV)","URO (zh),ORTHOPEDIE (zh),CHI (zh),DER (zh),NEUR (zh),NEUC (zh)",
89,St. Michael Hospital,上海天坛普华医院,"No.388, HongBaoShi Road, Changning District",上海市长宁区红宝石路388号,Shanghai ,上海,201103,genyuxin520@hotmail.com,http://www.stmichael-hospital.com,31.203337,121.407519,,"St. Michael Hospital is an International Hospital located in Chang Ning district (Gubei area) serving a large community of expatriates and locals since 2007. We are staffed by internationally trained and experienced healthcare specialists, and are fully equipped with state of the art medical equipment and facilities. 
\

\
In 2009, St Michael Hospital became part of the Asia Pacific Medical Group (APMG), a leading medical service provider founded in 1992 by 35 American physicians and surgeons. APMG has further enabled St. Michael Hospital to build partnerships with medical providers both in China and around the world. St. Michael’s vision is to serve its clients by providing high quality medical services at affordable rates. 
\

\
St. Michael provides service in English, Russian, Hindi, Japanese and Chinese. St.Michael has more than 22 medical services and over 32 specialists in a variety of different fields.","上海天坛普华医院（原上海康联医院）成立于2007年，坐落于在上海长宁区著名的国际古北社区，是一所具有最先进的医疗设备和国际化医生团队的综合性医院。人性化的环境设计，使医生和医护人员能在温馨的氛围中为医生提供周全的照料。
\

\
2009年6月，上海天坛普华医院成为亚太医疗国际旗下医院。亚太医疗国际集团于1992年由35位美国医生发起并成立的，是最早进入中国的医疗化医疗服务集团。几年来，APMG 在华已有超过数十家医疗机构，成为中国中外合资合作医疗界的先导者。  上海天坛普华医院提供英语、法语、芬兰语、印度语、斯瓦希里语、中文服务。上海天坛普华医院有近40个部门，30多位医疗专家。上海天坛普华医院致力于为您提供最优质的医疗服务。
\
",,,"131 6706 3802 (en,RDV),021 6270 5300 (zh,URG),021 5155 1858 (en,STAND)","DER (zh),POD (zh),DENT (zh),GYN (zh),GEN (zh),INT (zh),ONC (zh),ORTHOPEDIE (zh),PED (zh),PHA (zh),PSY (zh),KINE (zh),SPO (zh),CHIN (zh),RAD (zh),POD (en),DENT (en),DER (en),GEN (en),GYN (en),RAD (en),INT (en),ONC (en),ORTHOPEDIE (en),PED (en),PHA (en),KINE (en),PSY (en),SPO (en),CHIN (en),NEUR (zh),REHAB (zh),IMG (zh),CHIRPL (zh)",
93,Shanghai Tokushinkai Dental Clinic (Hongqiao Branch),上海德真会口腔诊所 虹桥诊所,"3F, Maxdo Center, No.8, Xinyi Road, Hongqiao",长宁区兴义路8号万都中心大厦3楼301室(近仙霞路和遵义路),Shanghai,,201100,reception_hq@tokushinkai.com.cn,http://www.tokushinkai.com.cn/,31.210609,121.411714,,"Shanghai Tokushinkai Dental Clinic was opened in the Rainbow Bridge Development District, Shanghai in Nov. 2002. We provide high-quality health care, treatment and services based on the Tokushinkai's &quot;Six-Benefits for patients&quot;, as indicated in the following.
\

\
1.Safe and Secure Treatments
\
2.Satisfaction of Patients' Dignity
\
3.Comfort
\
4.Convenience
\
5.Fairness and Transparency
\
6.Fair Pricing
\

\
We have a comfortable lobby with a warm hue catering for the various needs of patients. You can enjoy many attractive things there, for example free drinks, the Internet, and various kinds of magazines. The cafe-like atmosphere relives your stress before treatments.
\

\
All the examination rooms are completely private; each of them has a unique theme, Mediterranean or Modern China and so on. They help patients relax and are comfortable.
\

\
In addition to general dentistry, child dentistry, orthodontic dentistry, and implant dentistry, we also provide aesthetic dentistry like whitening, as per your request.
\
Not only Japanese staff, but local staffs who can speak Japanese are working in our clinic. So, if you have any questions please don't hesitate to ask us.","中国德真会(德清会)( Tokushinkai Dental China)1998开始在厦门、上海、苏州等地建立了连锁口腔诊所及技工所，其高品质的医疗技术和服务受到了社会各界和患者的肯定和欢迎。
\

\
虹桥诊所2002-2005连续三年获得长宁区优秀诊所称号。2003-2004获上海市&quot;文明行医、优质服务&quot;先进集体称号；2004年，上海德真会总经理陈裕德先生担任长宁区卫生协会常务理事2006年，陈裕德先生获得了&quot;长宁区优秀中国特色社会主义建设者的&quot;光荣称号。",,,"021 5208 0208 (en,STAND),021 5208 0218 (zh,STAND)","EST (zh),PEDO (zh),PAR (zh),HDON (zh),PRO (zh),DENT (zh)",
95,DDS Dental Pudong Clinic,上海缔浦口腔门诊部,"Room 101-103, The Double Dove Great Tower, No.438, PuDian Road, Pudong New District",浦电路438号 双鸽大厦101-103,Shanghai,,200120,pudong@dds-dental.com,http://dds-dental.com,31.22897,121.539933,,"DDS Dental Care is the leading provider of top quality dental care for Shanghai's international community since 1994.
\

\
We have a complete team of professional dentists, specialist, hygienists, dental technicians and dental assistants, most of us are eduacated and trained in Canada, USA, Australia, UK, France, Israel and Germany, our expatriate dentists and support staff speak several languages which includes English, French, Hebrew, German and Chinese, our goal is to provide the best environment for your dental care in Shanghai.
\

\
We offer 4 state-of-art clinics and own dental lab in convenient locations throughout Shanghai, all of them are fully equipped with the latest facillities.
\

\
We follow the strict guideline for sterilization and operation protocols according to Amercian Dental Association (ADA) and Chinese Stomatological Association (CSA) standards. ","上海缔矢—DDS齿科是一为驻沪外籍人士提供北美标准齿科服务的临床医疗机构，该企业集团目前拥有六口腔门诊部，分别座落于淮海中路、浦东新区陆家嘴经济开发区、虹桥经济开发区及虹桥枢纽、青浦区徐泾。主要医务工作人员均留学受训于欧美，加拿大，澳大利亚等地，并具备大学口腔医学院教学资职，同时部分外籍医师及管理人员的加盟，更使得该企业集团的团队管理富有欧美文化之特色。
\

\
诊所以全科齿科治疗为主，同时开展口腔正畸，美容齿科，种植术等专科治疗。数年的不懈努力已赢得了广大驻沪及周边地区外籍人士的信任和支持，目前缔矢DDS齿科已成为驻沪外籍人士首选青睐诊所。 ",,,"131 6200 1688 (en,URG),021 6876 0409 (zh,RDV)","DENT (zh),DENT (en),DENT (fr),DENT (de)",
108,American-Sino OB/GYN/Pediatrics Services,美华妇儿服务,"3/F, Block 6, Clove Apartment Building, No.800, HuaShan Road",华山路800弄丁香公寓6号裙楼3楼,Shanghai,上海,200050,info@aeglechina.cn,http://www.americanobgyn.com/,31.220901,121.445329,,"ASOG was founded in 2003. We provide a comprehensive array of on-site services for women and children by certified specialists from overseas and China. Our facilities located in the city center are comfortable and equipped with state-of-the-art technology. 
\

\
We are committed to providing quality, compassionate, and personalized healthcare with international standards. Our medical staffs are bilingual in English and Chinese. ","由美国纽约宝康妇产中心（New Life Ob/Gyn Group, LLP） 和中国上海华山医院下属华顺医院联合创办。
\

\
美国纽约康奈尔大学医学院皇后医疗中心为美华妇产服务提供技术支援。
\

\
美华妇儿服务引进美国全套先进医疗设备、网络技术、现代管理及美国私家专科医生模式，是基于美国标准的全套妇儿医疗服务机构。
\

\
科学、专业、优质、舒适的系统服务以及与美国保持同步的技术支持让您足不出沪，即可享受到美国妇产科医师协会认证的医师与专业护理人员全程陪护。
\

\
美华拥有高素质医疗团队，美华的医生都经过专业训练，更有在妇产科、儿科领域工作数十年的经验。大部分医生都在美国接受过培训，有西方的文化背景，了解中西方文化的差异，维护患者的权利和隐私。护士们也都可以用流利的中英文和患者交流，为他们提供优质服务和护理。
\

\
美华门诊采取预约看诊，运用电子病历系统连接每个诊室。客户复查时，医生可轻松调出病历，准确说出病状，为客户提供针对性的专业医疗服务。美华优质的环境与贴心的服务年也成为客户选择美华的关键条件。美华门诊设有网吧、咖啡吧、输液室、儿童游乐室、哺乳室、另有免费饮品和无线网络供应。美华住院部为单人豪华间，每间都是独立的洗手间；提供无线网络、DVD机、卫星电视、微波炉、电冰箱；出院由美华专车护送回家（仅限上海市内）。
\

\
美华妇儿服务自2003年落户上海以来，始终得到崇尚健康的高品位人士的推崇与信赖。让专业贴心的美华，呵护您与宝宝的健康。",,,"021 5288 7240 (zh,URG),021 6210 2299  (zh,STAND),021 6249 3246 (zh,URG)","PED (zh),GYN (zh),GYN (en),PED (en),GYN (hk),ECHO (zh)",
116,Ruijin Hospital Shanghai Jiao Tong University School of Medicine,上海交通大学医学院附属瑞金医院,"No.197, Rui Jin Er Road, Shanghai, China",上海市瑞金二路197号（永嘉路口),Shanghai,上海,200025,ruijin@rjh.com.cn,http://www.rjh.com.cn,31.218371,121.47252,,"Established in 1907 Ruijing Hospital was originally called Guangci Hospital. It is a general teaching hospital under the Shanghai Jiao Tong University School of Medicine  with a land area of 0.12 million M2, a construction area of over 0.15 million M2 and a landscaped area covering nearly 30% of the total area. At present there are 1774 sick beds and a staff of over 3300 persons, among whom 507 persons hold senior titles. The Hospital owns a large number of medical experts who enjoy relatively high celebrity both at home and abroad such as Chen Zhu, member of Chinese Academy of Sciences, Wang Zhengyi, Chen Saijuan, members of Chinese Academy of Engineering, and others. The hospital has 34 clinical departments, 7 departments of medical technology; 9 institutes (endocrionology, hematology, traumatology and orthopedics, burns, hypertension, digestive surgery, neurology, cardiovascular diseases, infectious diseases and respiratory disease); 11 laboratories, among which one is a State key laboratory (Key Laboratory of Medical Genome), 2 key laboratories of Ministry of Public Health (Key Laboratory of Endocrine and Metabolic Diseases of Ministry of Public Health and Key Laboratory of Human Genome of Ministry of Public Health); 3 clinical medical centers (Shanghai Micro-Traumatic Surgery Clinical Medical Center, Shanghai Endocrine and Metabolic Diseases Clinical Medical Center and Shanghai Hematology Clinical Medical Center); 8 State bases for Clinical Research of Drugs; 3 key disciplines of State Ministry of Education, 6 key disciplines of Shanghai Education Commission and 3 leading disciplines of medicine of Shanghai Municipality.
\
 
\
Since successfully rescuing Qiu Caikang in the 50s of 20th century, Ruijin Hospital has always stayed at the world’s advanced level in the field of extensive burns treatment. In the 70s it took the lead at home in carrying out heart and liver transplantations and in the 90s made tremendous progress in research of leukemia molecular biology and its clinical practice. In 21st century organ transplantations which are approaching perfection with each passing day have made many patients regard here as an oasis of life. As a result the hospital has won the honor of the titles of Advanced Collective of the National Health System (for 6 times), 100 Good Hospitals Nationwide, Advanced Collective for Establishing Civilized Industries Nationwide, Study Society of Advanced Ideological and Political Work of The Health System Nationwide; Civilized Unit of Shanghai Municipality (for 9 times); Model Workers’ Center Nationwide; Civilization of Youth Nationwide, Unit for Establishing “May 4th” Red Banner League Organization Nationwide and others.
\
 
\
Ruijin Hospital regards its achievements and honor as a motive force. In order to further meet the market requirements the Hospital actively develops high-grade, refined and advanced therapeutic technologies such as microtraumatic operations, arthroscope operations, cardiovascular Intervening therapy, ophthalmologic quasi-molecular laser operations and so on and implements multidisciplinary or cross-disciplinary consultation system by making full use of the comprehensive therapeutic advantages of the Hospital so as to increasingly raise its therapeutic level. In the meantime the Hospital has positioned its development target on a research-orientated hospital and has been based on clinical practice and intensification of scientific research to bear more clinical new results for the people’s health with the aid of the 9 research institutes at the municipal level and the special features of such disciplines as internal kidney, internal digestion, endocrinology, hypertension, trauma of traditional Chinese medicine, acute necrotic pancriatitis and reproductive health, especially the advantages of scientific research of the State Key Laboratories. The Hospital continues to deepen humanized services, pushing the “Three Hearts’ Project” of “setting the patients’ minds at rest with excellent medical treatment, satisfying the patients with first-class services and easing the patients with graceful environment”, winning the trust of the society and the patients with warm, easy and rapid, excellent and good-quality services and promoting the development of the two civilization constructions of the Hospital.
\
 
\
Ruijin Hospital is the largest clinical teaching base of the Shanghai Second Medical University. Ruijing Clinical Medical College has Clinical Medical Department, Medical Laboratory Department, Senior Nursing Department and Senior Nursing Training Center. Each year it undertakes the teaching work for over 1000 medical students of different school systems and has become the cradle for training talents for medical circles.
\
 
\
In recent years Ruijin Hospital has won over 300 scientific research projects of all kinds, including major projects of State Natural Science Fund, key projects, general projects, State Science and Technology Commission 863 Project, S863 Project, 973 Project, Climbing Program, State “8th 5-Year-Plan” Project for Tackling Key Problems and “9th 5-Year-Plan” Project for Tackling Key Problems, scientific research projects of Ministry of Public Health, State Education Commission Projects for Overseas Students, scientific research projects at the municipal level and other major projects. The Hospital now has 29 stations for master students, 21 stations for Ph.D. students, 12 specialty points for post-doctorial mobile stations, 150 master directors and 59 Ph.D. directors. The scientific research and technical talents of the Hospital make up quite a proportion in Fund for State Outstanding Talents, Training Fund of State Education Commission for Talents Transcending the Century, Shanghai Venus Plan, Shanghai Postvenus Plan, Shanghai Dawn Plan and Plan for 100 Excellent Leading Persons of Disciplines Transcending the Century of the Health System of Shanghai. The Hospital has also won a series of international prizes with very high gold content such as Evens Prize of U.S. Burns Association, Vikt International Burns Prize of Italy, Cathrine Prize  of Cancer of U.S., Brubah Prize of Cancer of Switzerland, Prix de l’Oise from La League Nationale Contre Cancer  ( France ) and prix de Simone &amp; Cino del Duca (France), He Liang He Li Fund Technology Prize of Hong Kong and others. In order to introduce advanced technology and equipment Ruijin Hospital also actively carries out foreign exchanges and coordination, has extensive ties with such countries as France, the U.S., Britain, Canada, Belgium, Japan, Australia and such regions and organizations as Hong Kong, Taiwan and World Health Organization and has established many items of cooperation in scientific research.
\
 
\
On 4th of August 1999 in order to implement our country’s spirit of health reform and explore the new model of hospital development under market economical conditions and realize the aim of “providing relatively excellent services with relatively cheap prices”, Ruijin Hospital took the lead in reorganizing assets with part of medical institutions and established Shanghai Ruijin Hospital Group, initially realizing medical assets reorganization across areas, industries, grades and departments so as to gradually form a regional medical health center with Ruijin Hospital as its core. For four years Ruijin Hospital and its group subordinate hospital branch, Luwan Branch, Minhang Hospital and Taizhou Central Hospital have all achieved significant economic and social returns. 
\
 
\
On 25th of October 2002 Ruijin Hospital again took a solid step in the exploration of the model of scientific research work, creatively establishing at home the “Institute of Biologic Medicine”, thereby forming a new pattern of large-scale scientific research and realizing the overall creation and innovation of scientific research system, employment system and scientific research etc.. This research institute takes the research strength of Ruijin Hospital as the main force, uniting such scientific research units as Shanghai Life Science Institute of Chinese Academy of Sciences, Health Science Center of the Shanghai Second Medical University and State South Center of Human Genome. It is the first research and development institution of taking the hospital as the principal part and integrating life science with clinical medicine. The employment principle of “seeking only the useful professionals instead of possessing the professionals” followed by the Institute truly embodies the “flexible flow” of the professionals, enabling more scientific research personnel to have a stage and space for showing their talent.
\

\
In 2013 the person-times for outpatient department  and emergency department of Ruijin Hospital reached over 3.28million, the number of the patients who underwent surgery was 5.5 ten thousand person-times, the number of the patients discharged from hospital was 8.5 ten thousand person-times, the days for hospitalization was averaged 8.47 days. ","瑞金医院建于1907年，原名广慈医院，是一所集医疗、教学、科研为一体的三级甲等综合性医院，有着百年的深厚底蕴。医院占地面积12万平方米，建筑面积22.1万平方米，绿化面积4万平方米，核定床位1693张（实际开放1800余张），全院职工3544人，其中医师958余人（正副教授及各类高级科技人员453人）。拥有中国科学院院士陈竺，中国工程院院士王振义、陈赛娟等一大批在国内外享有较高知名度的医学专家，其中王振义院士荣膺2010年度国家最高科学技术奖。
\

\
医院共设有42个临床科室、8个医技科室；现有国家教育部重点学科4个（血液病学、内分泌与代谢病学、心血管病学、神经病学），国家临床重点专科项目18个（麻醉科、重症医学科、消化内科、临床护理、检验科、骨科、心血管内科、内分泌科、血液内科、儿内科消化专业、肾脏内科、神经内科、呼吸内科、急诊科、皮肤科、普通外科、烧伤科、中医科），上海市重点学科“重中之重”1个，上海市优势学科2个，上海市特色学科1个，上海市重点学科2个，上海市教委及卫生局重点学科6个。医院还设有上海市临床医学中心3个（微创外科、内分泌与代谢病、血液病），市级研究所6个（上海市伤骨科研究所、上海市高血压研究所、上海市内分泌研究所、上海烧伤研究所、上海血液学研究所、上海消化外科研究所）。此外，还建立了科技部国家重点实验室1个（医学基因组学重点实验室）和教育部重点实验室1个（功能基因组学和人类疾病相关基因研究重点实验室），2个卫生部重点实验室（人类基因组研究重点实验室、内分泌代谢重点实验室），5个上海市重点实验室等。
\

\
20世纪50年代，瑞金医院因成功救治严重烧伤面积达89.3%钢铁工人邱财康，打破了当时国际上“烧伤总面积超过80％无法治愈”的定论而蜚声国内外；1957年医院确诊国内首例原发性醛固酮增多症；70年代在国内率先开展了心脏和肝脏的移植手术；90年代在白血病分子生物学研究和临床医疗领域取得了重大进展。
\

\
瑞金医院以所取得的成就和荣誉为动力，为进一步适应市场需求，积极开展高精尖诊疗技术，如达芬奇机器人手术、微创外科手术、关节镜手术、心血管介入治疗等。并充分利用医院综合医疗优势，实行多学科或跨学科联合会诊制，使医疗诊治水平日益提高。医院学科齐全、技术力量雄厚、特色专科突出，尤其在血液内科、心血管内科、肾脏内科、消化内科、内分泌科、高血压科、呼吸内科、神经内科、感染科、皮肤科、中医伤科、肝胆胰外科、胃肠外科、微创外科、烧伤科、心血管外科、乳腺外科、泌尿外科、功能神经外科、骨科、器官移植和生殖医学等学科方面颇具特色。医院拥有PET-CT、第五代头部伽玛刀、磁共振（MRI3.0T）、64层双源CT、SPECT、SPECT/CT、磁导航DSA、360脑磁图、彩色多普勒超声系统、氩气刀、X－刀、直线加速器等一大批高精尖仪器，医疗设备达到国际先进水平。
\

\
瑞金医院是上海交通大学医学院最大的临床教学基地，瑞金临床医学院现设临床医学和医学检验学两个专业，38个教研室(组)，承担临床医学5年制、8年一贯制、医学检验专业的教学任务，并接受来自20多个国家和地区的留学生教学任务，是上海市教委授牌的留学生实践教学基地。瑞金医院也是上海市最大的住院医师规范化培训基地，每年培训住院医师约250人。同时，瑞金医院外科培训基地是英国爱丁堡皇家外科学院、香港外科医学院联合认证的外科住院医师培训基地。
\

\
近年来，医院所获的国家自然科学基金项目、科技部973项目、863项目、各级省部局级项目、SCI论文发表量及科研总经费始终保持上海首位，全国领先。2012年，医院获各级各类科研项目总计202项，纵向科研经费总计16，113万元。医院现有二级学科博士点14个、二级学科硕士点24个，博士生导师112名、硕士生导师169名，内、外、妇、儿学科均为博士后流动站。医院的科研技术人才在国家杰出青年基金、教育部新世纪优秀人才基金、上海市学科带头人领军计划、上海市启明星计划、上海市曙光计划中占有较重比例。获得一系列高含金量的国内国际奖项，如国家最高科学技术奖、中华人民共和国国际科学技术合作奖、美国灼伤协会伊文思奖，美国凯特林癌症奖，瑞士布鲁巴赫癌症研究奖等。
\

\
作为公立医院，瑞金医院深入贯彻落实国家和上海市医改精神。20世纪90年代末，医院率先与部分医疗机构实行资产重组或各种形式的合作，建立上海瑞金医院集团，使以瑞金医院为核心的区域医疗卫生中心逐步形成。多年来，医院与集团下属的医院分部、卢湾分院、闵行医院、远洋医院和台州中心医院都取得了明显的社会效益和经济效益；积极响应上海市委、市政府“5+3+1”项目的规划要求，在嘉定新城建成瑞金医院北院，将优质医疗辐射到更广区域；2012年，瑞金-卢湾区域医疗联合体的建立，对于纵向整合医疗资源，逐步引导病人分层、有序就医做出了积极探索。
\

\
医院秉持“广博慈爱，追求卓越”的精神，全面倡导“以优质的医疗使病人放心、以一流的服务使病人称心、以优美的环境使病人舒心”的服务理念，连续三次获全国文明单位称号，并获得全国五一劳动奖状、全国卫生系统先进集体、全国模范职工之家、全国三八红旗集体、全国文明巾帼岗、全国青年文明号、上海市文明单位等诸多荣誉。
\

\
近年来，医院积极推行数字化医疗流程管理，大力推广专病门诊、预约门诊、先诊疗后结算和日间病房等便民惠民措施，通过加强精细化管理手段，努力降低平均住院天数，加快床位周转速度，控制药占比，控制院内感染和提高医疗安全。医院还始终把健康教育作为一项重要责任，门诊“专家周周讲”吸引了大量病患及市民前来听讲，高血压健康教育中心已成为覆盖长三角地区的高血压教育培训基地。此外控烟、糖尿病中心、烧伤的防治与急救、血液病肾脏病健康教育、乳腺病资源中心等都已经广泛开展，医务人员通过义诊、网络教育、上媒体讲座、下社区宣教等方式普及健康教育，大大提高市民防病的意识和能力。
\

\
传承百年历史，力争再创辉煌。瑞金医院将一如既往地不断在医、教、研、管理、服务等方面持续改进，把群众满意作为办好医院的首要任务，为广大患者提供优质、安全、高效的医疗服务。",,,"021 6467 8970 (en,STAND),021 6437 0045 (zh,STAND)","CAR (zh),ORTHOPEDIE (zh),CHI (zh),GAS (zh),NEUC (zh),PNEU (zh),RAD (zh),ANE (zh),DER (zh)",
119,Alpha Dental Clinic,上海康怡口腔门诊部,"No.1919, Hong Qiao Road, Xijiao Garden Villa (East Wing) Block M, Chang Ning District",长宁区虹桥路1919号西郊花园别墅（东苑）M幢,Shanghai,上海,200336,info@alphadental.cn,http://www.alphadental.cn,31.204144,121.394001,,"Alpha Dental Clinic is the first Singaporean-managed private dental practice and has been dental needs of the foreign community in Shanghai since 2004. We are a subsidiary of Singapore Q&amp;M Dental Group listed in the SGX. Q &amp; M Dental Group has more than 50 clinics strategically located island-wide in Singapore. 
\
Our Specialties are Orthodontics (Teeth straightening), Dental Implants, Oral Surgery, Cosmetic Dentistry. We employ advanced dental technologies such as Digital X-ray machine, CEREC® 3D CAD/CAM and Laser Dentistry. 
\
","康怡口腔是首家新加坡管理的牙科门诊部，自二零零四年为上海的外籍人士提供优质个性化的口腔治疗方案。康怡口腔是新加坡上市公司全民牙科的子公司。全民牙科在新加坡拥有50多家口腔门诊部。
\
我们的特色项目有正畸治疗、种植牙、口腔手术、牙齿美容。 我们采用先进的牙科技术如数码X光机、CEREC CAD/CAM系统还有无痛激光治疗
\
",,,"1391 811 1319   (zh,URG),021 6270 2875 (en,RDV)","DENT (zh),DENT (en)",
121,Pearl International Dental Clinic,圣贝国际牙科医院,"2F, No.1386, Wen Guang Building, Hongqiao Road, Changning",长宁区虹桥路1386号文广大厦2楼(近伊犁南路),Shanghai,上海,200051,kqjksh@163.com,http://www.shsbyk.com,31.203512,121.413344,,"Internationally high-class dental institution---Pearl international dental clinic, is dedicated to serving high class people and social elites. It takes international standard as a benchmark in areas of professional talent, treatment equipment, cutting-edge technology, clinical pathway, service pattern and sterile process.
\

\
Pearl dental clinic imported implant systems, targeted intangible orthodontic systems, 3D precise porcelain cosmetic restoration systems, whitening systems, beam CT and ZEISS digital microscope systems, which have passed international JCI accreditation. Pearl has tens of foreign experts with international clinical experience, as well as dental expert from Shanghai No.9 Hospital.
\

\
At present, Pearl dental clinic has opened large-scale and high-class dental chains in Beijing, Shanghai, Guangzhou, Chengdu, Xi’an and Jinan. Pearl’s landing to Shanghai is an important step to make Pearl international dental chain medical institutions spreading across Chinese mainland and to realize the ‘two hundred’ strategy---100 overseas branches and one hundred domestic branches. 
\

\
The international and professional Pearl with high quality, powerful information and great reputation will bring you noble and comfortable dental treatment experience.
\
","上海圣贝牙科医院是国际牙科品牌圣贝牙科旗下的连锁牙科医院，是一所集牙齿正畸、牙齿美容、牙齿修复、牙齿种植、儿童牙科、口腔基础治疗为一体的现代化专业口腔医院，其占地面积3300 平米，拥有23间诊疗室，治疗牙椅24把。为在牙科诊治中做到&quot;专业、专注、专攻&quot;，全院设立有牙齿正畸、牙齿种植、牙齿美容、牙齿修复、儿童牙科五大诊疗中心外，并另设立设放射室、注射室、无菌室、消毒供应室、品供应室及技工室等辅助科室。
\

\
上海圣贝牙科医院作为圣贝国际牙科旗下连锁医院， 获得了圣贝牙科先进的医疗技术、人才设备的支持，并在采用圣贝国际牙科的医疗质量管理体系管理的同时，也实现了牙科医疗服务的&quot;本土化&quot;。为实现不同患者的需求，医院实现全年午休制度与特需医疗服务。在专家上，医院除了圣贝飞行牙医团队外，还聘请了来自九院的王申医生、来自华西的张培志医生、葡萄牙的桑德罗医生等等多名常驻门诊专家。
\

\
圣贝牙科品牌起源于1921年德国，并于2007年入驻中国，与国内多家医院开展口腔治疗合作，又于2011年在中国启动自主品牌圣贝牙科，并先后在北京、成都、济南、西安、广州等地开设了专业口腔医院，上海圣贝牙科医院，是圣贝牙科在中国开设的第八家牙科医院。",,,"021 5021 3999 (en,RDV),021 5021 3999 (zh,STAND)","DENT (zh),DENT (en),EST (zh),HDON (zh),PRO (zh),PEDO (zh),PAR (zh)",
126,CAD Dental Centre,嘉贝尔口腔中心,"Block G, Zhonglian Villa, No.1720, Central Huai Hai Road",徐汇区淮海中路1720号众联别墅G座,Shanghai ,上海,200031,caddentalcentre@hotmail.com,http://www.caddental.cn,31.212802,121.447291,,"CAD is the abbreviation for Computer-Aided Design, but at our clinic, it also means COMPASSION, ARTISTRY &amp; DEDICATION, which represents the future trend of dentistry. CAD Dental Centre combines the absolute best in ultramodern dental equipment and technology with the most personal care available. CAD Dental Centre (Shanghai) was the first clinic in China established by Sincere Healthcare of Singapore. Located in the heart of downtown Shanghai, CAD Dental Centre brings experience, technology and proven teamwork from its Singapore practice to China, and offers the same award-winning service locally.  
\

\
With the most advanced technology from Germany, CAD professionals not only achieve for their patients painless treatments, but also relieve their anxieties and shorten visit times. In addition, our partnership with Sirona Dental (Dental Branch of Siemens, Germany) makes CAD Dental Centre the regional training centre for advanced dental technology.
\

\
At CAD, we realize that for our patients, anytime-access to the finest quality healthcare is a big part of their peace of mind. We settle for nothing but the highest international standards in everything we do, and our doctors and staff bring the best possible training and a strong passion to their work. We are confident that your experience at CAD will exceed all your expectations. Who knows? You may even look forward to visiting the dentist!","       嘉贝尔口腔位于上海淮海中路上的一幢花园别墅内，拥有完善的私人停车设施；独立的私密诊疗空间以其专业、贴心的装潢设计让顾客享受安心、舒适的治疗过程；拥有国际领先的计算机天然牙修复系统和牙齿美白spa，先进的医疗设备和贴心的微笑服务形成了完美的组合。
\

\
    嘉贝尔的外籍齿科专家均来自于国外一流大学并拥有丰富的临床经验，熟悉国外最先进的牙科治疗过程，团队专业的技术能力使得嘉贝尔口腔成为西门子公司强有力的合作伙伴并共同成立培训中心，为亚太地区的口腔医生提供先进的口腔技术培训。
\

\
    我们秉承“嘉贝尔口腔，口腔加倍爱”的高标准服务理念，倡导“私人牙医”服务模式，以“以人为本”的医疗准则为每一位来到嘉贝尔的顾客量身定制长期有效的治疗方案， 提供专业的超声波洁牙、牙齿美白、种植牙、牙齿修复、牙齿正畸等口腔全科医疗服务，致力于以更健康的牙齿提升顾客的生活品质，让生活更精彩。",,,"021 6437 5911 (zh,URG),021 6437 7100  (en,STAND),021 6437 7100  (zh,STAND)","STO (zh),STO (en),STO (es)",
127,Landseed International Hospital,上海禾新医院,"No.102, Qinjiang Road, Xuhui District",徐汇区钦江路102号,Shanghai,上海,200233,cheny@landseed.com.cn,http://www.landseedhospital.com.cn,31.182485,121.415567,,"Shanghai Landseed International Hospital, founded in 2012 and situated in the densely populated Xuhui District, is a comprehensive medical and healthcare center with 24 hr outpatient service, hospitalization, health club and mall. 
\

\
Our medical experts are from both sides of the Taiwan Straits, as well as elite overseas staff. Using the latest advanced medical equipment like CT and MRI, the hospital offers preventive healthcare, Family medicine, Surgery, Gynecology, Pediatrics, Dentistry, Ophthalmology, Dermatology, Chiropractic, Rehabilitation, also TCM and Mental Health.Our 24-hour Call Center services safeguard the health of patients – anytime. 
\

\
The establishment of SLIH is a result of the Cross-straits Economic Cooperation Framework Agreement (ECFA), signed between China and Taiwan in 2010. Besides being the first wholly Taiwanese-funded and owned medical institution, it is also the first Taiwanese commercial project to be granted a wholly-owned license under the ECFA initiative.
\

\
20 Years History of Quality Healthcare:
\

\
1991: Landseed International Medical Group's first hospital, Tao Shin Hospital was established at Taiwan.
\
 
\
1994: Landseed flagship hospital, Landseed Hospital, Taiwan was established. It provided a solid medical team with more than 150 doctors, 1000 nurses, 700 beds, and extends outpatient services for 2500 patients/day.
\
 
\
1997: Landseed Hospital, Taiwan became Asia’s first medical institution to acquire the ISO 9001 Quality Management System Certification and Environment Management System Certification. 
\

\
2002: Landseed first hospital in China, Chenxin Hospital was established at Shanghai. 
\

\
2007: Landseed Hospital, Taiwan was listed in World Health Organization (WHO) of Health Promoting Hospital. 
\

\
2012: Landseed flagship hospital in China, Shanghai Landseed International Hospital, which is the first wholly foreign invested hospital in mainland, was established at Shanghai.","上海禾新医院 联新大陆旗舰医院
\
 
\
上海禾新医院是首家国际级台资独资医院进入中国大陆的先驱。医院建筑面积达15,000平米，提供全方位多元化的精致个人化医疗健康照护。涵盖24小时急门诊、住院、健检、出诊、国际保险直付、台湾健保核退、健康会所及乐活商城在内的综合健康养生广场。 医院汇集两岸和国际医疗精英，引进行业内一流的医疗设备，以国际医疗服务质量 和标准为目标，创造专业、舒适、温馨的诊疗环境，为沪上高端人士打造全方位照护平台。
\

\
禾新医院的优势
\
 
\
- 大陆首家台资独资医院
\
- 15000平米全新现代化院区，洁净舒适、安静温馨的就诊环境
\
- 365天无休，提供24小时住院、急门诊、Call Centre服务
\
- 尖端完善的进口医疗重装备，电脑断层（CT)、核磁共振、X光、超声波、骨密度检测.....
\
- 客制化健检、出诊、会诊、转运服务
\
- 温馨宽敞、服务周到的单/双人酒店式病房
\
- 严格的用药安全管理系统
\
- 丰厚的医疗网络，结合三甲医院之医疗资源，提供坚强完善的医疗服务
\
- 总面积：15000平米，床数：100床
\
 
\
楼层分布：
\
1F:联新乐活广场
\
2F:门诊区、药局、医疗美容科、医学影像科
\
3F: 住院区、健检区、特需国际部
\
5F:检验科、手术室、住院区
\
后栋1-3F:中医科、行政办公区
\
",,,"021 6195 7896 (zh,RDV),021 6195 7896 (en,RDV)","GYN (zh),GEN (zh),INT (zh),CHI (zh),PED (zh),KINE (zh),CHIN (zh),PSYCHO (zh),CHIN (en),GEN (en),GYN (en)",
129,KOWA DENTAL Jinmao Clinic (Pudong),科瓦金茂店---浦东,"3N1-3N3, J-life Center,No.88, Century Boulevard, Jinmao Tower",浦东新区世纪大道88号金茂大厦(裙房)3N1-3N5,Shanghai,上海,200021,service@kowa.cn,http://www.kowa-dental.com,31.240811,121.512384,,,"科瓦齿科隶属于上海科瓦口腔门诊有限公司，把握世界前沿口腔诊疗技术脉动，专注于为客户提供专业、安全、卫生、美观、舒适的口腔诊疗服务。
\

\
科瓦齿科享用德国百年齿科经验，汇聚中国、美国、法国、日本、中国台湾、韩国、德国等多国国际知名口腔专业医师，特聘多位口腔医学博士后、博士常年坐诊，满足不同国籍会员的诊疗需求。
\
科瓦齿科拥有全球先进口腔诊疗设备，引进德国多款高端的齿科诊疗设备，包括：数字内窥镜、龋齿激光探测、全景扫描机、牙根尖扫描、德国卡瓦牙椅、三维CT等，为您提供精准的口腔诊疗支持。
\
科瓦齿科严格执行德国米拉格消毒灭菌管理，超越您对卫生条件的高要求。
\

\
科瓦齿科拥有心理学级别的就医环境，采用一医一诊室的诊疗方式，国际标准的口腔四手操作，使您在舒适、平静、安全的感觉中完成整个诊疗护理过程，避免自发的恐惧和疼痛的心理暗示。科瓦提供超值的服务价格，会员可享受到相当于国家公立医院特需门诊的价格及每年会员专属免费项目。
\
科瓦齿科严格执行美国ADA专业管理，超越您对口腔诊疗服务的高要求。
\
科瓦齿科提供20余家国际保险直接结算服务。科瓦齿科拥有众多名人、企业CEO、外企高管会员，与世界精英同侪，会员身份自然尊贵。
\
科瓦成为30余家世界500强企业、中国100强企业员工口腔医疗定点机构。 
\
科瓦齿科国际种植中心通过欧盟CE认证，拥有美国、德国、瑞士、瑞典、韩国等全球知名种植系统，并成为口腔种植专业的演示中心及培训基地；国际口腔种植中心落户科瓦，科瓦并成为教学医院。
\
科瓦齿科特邀国际齿科权威专家喻剑明（美国哈佛正畸学博士后）、张永刚、冯雨欣、毕东君、Jean Haziza(法国)等30余位专家坐诊；与美国、日本、德国、中国台湾等国际知名口腔产品生产企业合作；运用先进材料，保护你的口腔健康。
\

\
科瓦齿科以&quot;客户满意，我们永远的追求&quot;为宗旨，始终用超越现在的眼光审度，以未来为导向，以优质个性化的服务理念，为您的口腔健康竭尽全力。 ",,,"021 5108 2222 (en,STAND),400 6060 222 (zh,STAND)","PED (zh),DENT (zh)",
130,Body & Soul Medical Clinics - Minhang,身闵佳门诊部,"No.211, Cheng Jia Qiao Zhi Road", 程家桥支路211号,Shanghai,上海,201107,minhang@bodyandsoul.com.cn,http://www.tcm-shanghai.com,31.190289,121.389805,,"&quot;Helping people to make a smooth transition into harmonious, balanced and healthy living&quot;
\

\
Body &amp; Soul – Medical Clinics is a clinic for Integrative Medicine. The clinic was founded in July 2004 as a private medical facility under Chinese law. Doris Rathgeber and her team have made great efforts to introduce and apply Integrative Medicine in the Shanghai area.
\

\
Doctors and therapists in our clinics offer a wide range of experience and an extensive knowledge of holistic medicine. With comprehensive experience, continuing education and modern diagnostics, we are able to assure our patients a comprehensive and integrative approach to individual healthcare and clinical diagnosis.
\

\
Our Western and Traditional Chinese Medicine Doctors work as a team and treat individually depending upon the patients needs. As the name of our clinic implies, our primary focus is TCM but we are also licensed to provide comprehensive Western medical treatment and diagnosis. 
\

\
Our team consists of Western doctors and therapists as well as of Chinese doctors, who assist to compile a complex TCM diagnosis. All our doctors and therapists are experienced and licensed. Integrative Medicine includes both body and soul, which comprise a whole. 
\

\
Our doctors work closely together with their patients to provide ongoing education and support with regards to necessary changes in lifestyle including diet and exercise programs. 
\

\
Welcome to our clinic in Minhang where we offer internal medicine, gynecology, acupuncture, tuina-massage, physiotherapy, psychological and nutrition consultations. 
\

\
Our Minhang clinic also offers laboratory, ultrasound and X-ray diagnostics. Our in-house pharmacy dispenses all prescribed medications. The Minhang clinic is located in southwest Shanghai. It is close to the crossing of Hongmei Lu and Chengjiaqiao Zhi Road near the City Shop.
\

\
We are looking forward to seeing you in our clinics and appreciate your feedback. ",,,,"021 6461 6550 (ja,STAND),021 6461 6550 (en,STAND),021 6461 6550 (zh,STAND)","CHIN (zh),CHIN (en),GYN (zh),INT (zh),DER (de),DER (zh),DIE (zh),GYN (de),ACC (en),GYN (en),DER (ja),CHIROP (en),POD (en),ACC (de),GYN (ja),CHIROP (hk),ACC (zh),DER (en),OST (zh),INT (en),INT (de),INT (ja),DIE (en),OST (en),KINE (en),KINE (de),PSYCHO (en),PSYCHO (es),CHIN (de),CHIN (ja),CHIN (es)",
131,ProMed Cancer Centers – Shanghai,上海百瑞肿瘤,"No.170, Danshui Road, LuWan District",卢湾区淡水路170号,Shanghai,上海,200020,appointment@promedcancer.com,http://www.promedcancer.com,31.22459,121.479243,,"ProMed Cancer Centers offer world-class Personalized Quality Care (PQC) in a modern, friendly environment. PQC provides patients with the opportunity to spend up to one hour with their oncologist to develop a personalized treatment plan for their disease. The treatment plan is discussed by our multidisciplinary team of radiation and medical oncology experts who carefully review and evaluate all treatment plans prior to the beginning of care. 
\

\
The patient will have the SAME physician follow their entire course of treatment which allows a trusting relationship to develop between the patient and physician, but patients have the benefit of access to the expertise of all physicians in the Cancer Center.
\

\
We are committed to providing expert, personalized and compassionate treatment that allows patients to live longer and better lives, and improving the overall standards of cancer care through employing the latest technologies, expertise, and management protocols.
\

\
The medical staff of ProMed Cancer Centers and American Cancer Centers, Ltd. are under the direction of internationally recognized physicians from the United States and the United Kingdom with board certification and clinical and research expertise in the fields of radiation oncology and medical oncology. ","上海百瑞肿瘤毗邻卢湾区的新天地，诊疗机构拥有3000平米的宽敞诊疗空间，致力于为您提供国际标准的个体化优质诊疗(PQC)。个体化优质诊疗是一种综合性患者诊疗疗法，我们医生及护士在整个治疗过程中密切监察每个患者。通过百瑞多学科综合诊疗团队对患者健康的全心投入，个体化优质诊疗确保治疗效果更显著更令人满意。 
\

\
上海百瑞肿瘤配备尖端的诊断技术和规范流程、现代化诊疗设备和经验丰富的管理团队，拥有经过专业认证的国际顶尖医生，与国内的知名医生相辅相成，为您提供更专业更贴心的服务。
\

\
我们秉承“以患者为先”的理念，使用世界领先的治疗流程和诊疗方案，为男性和女性患者提供许多不同类型癌症的诊疗服务，包括乳腺、肺、前列腺、肝脏、卵巢、子宫、子宫颈、食管、胃、胰腺、大肠等。",,,"021 3331 9991 (en,RDV),021 3331 9991 (zh,STAND)","RAD (zh),RAD (en),ONC (zh)",
132,Raffles Medical Shanghai,上海莱佛士医疗,"Level 2,No.1801, Hongmei Road, Inno Tower(Capitaland Building), Xuhui District",徐汇区虹梅路1801号 （曹河泾社区） A区凯科大厦 #02-02室 ,Shanghai,上海,200233,enquiries_shanghai@rafflesmedical.com,www.rafflesmedicalgroup.com,31.174145,121.404224,,"With the opening of our first medical centre in Shanghai, RafflesMedical’s unique brand of quality healthcare is now available in China.
\

\
Raffles Medical – Shanghai is a premier one-stop medical centre offering an array of medical services to individuals, corporate clients and their family. Our team of multi-disciplinary and multi-national doctors and healthcare professionals are at hand to meet your diverse medical needs.
\

\
Based in the Innov Tower at the business park along Hong Mei Lu, the medical centre is ideally positioned to serve the expatriate and local community in the region. We are also on the medical panel of many established insurance companies.
\

\
Raffles Medical – Shanghai provides a comprehensive range of services ranging from general medical and dental services to health screening. Together with Raffles Hospital in Singapore, we offer state-of-the-art medical services and professional medical and surgical expertise to patients in China.
\

\
As part of the Raffles Medical Group based in Singapore, you can be assured of the same reliable medical care that is synonymous with the Raffles brand.
\

\
Your Trusted Partner for Health
\
","       莱佛士医疗集团是新加坡最大的私人医疗集团，现进驻中国上海，扩展其高素质和一站式全方位医疗服务。莱佛士上海医疗中心位于漕河泾新兴技术开发区内的凯科国际大厦，旨在为国际企业客户和社会大众， 提供全面医疗服务。
\

\
       本医疗中心设备先进、环境优雅，有跨国籍的多学科专业医师和医护人员竭诚照顾您全家的健康。中心内主要设家庭全科、体检科及口腔科，给您卓越的保健呵护。患者为本，服务至上。我们所倡导的贴心服务理念，也将让您体验高品质的全面健康关怀。
\

\
设于新加坡的莱佛士医院，可满足来往中新两地的个人和团体的医疗需求。拥有先进的检验设施，舒适的门诊及住院环境，以及科目齐全的专科治疗， 是您迈向康复之道的首选医疗伙伴。
\

\
        我们同时是多家保险公司所核准的医疗伙伴，您和家人可放心到莱佛士医疗中心就诊。
\

\
       莱佛士医疗集团信誉卓著，我们秉持着专业的医护守则，真诚与您携手共创安康的未来。",,," 021 6197 2300 (zh,RDV), 021 6197 2300 (en,RDV)","PED (zh),GEN (zh),GYN (zh),DER (zh),DENT (zh),DENT (en),DER (en),GEN (en),GYN (en),PED (en)",
133,American Medical Center,美国医疗中心,"No.888, Tian Lin Road (1 East)",田林路888弄1号东楼,Shanghai,上海,200233,info@amc-shanghai.com,http://www.amc-shanghai.com,31.1715512,121.4232834,,"The American Medical Center (AMC) was founded with the mission to bring the highest American standards of healthcare to Shanghai. AMC provides comprehensive orthopedic care for all bone, joint, and soft tissue injuries, as well as internal medicine, pediatrics, preventive medicine, pain management, physical therapy, and medical imaging services. AMC’s renowned physicians have treated US presidents and professional athletes and bring their expertise to help patients in Shanghai.
\
 
\
AMC provides care to patients of all ages and nationalities and has direct billing agreements with most international insurance providers.","美国医疗中心(AMC)是由美国总统医疗团队、美国职业橄榄球联盟、美国职业曲棍球联合会和全美职业篮球协会顶尖医生共同在上海设立的医疗中心。其目标是为您提供与美国一流医疗中心同步的先进医疗服务，提供关节损伤、软组织损伤诊断治疗，及内科、儿科、全科、预防医学、康复科、疼痛治疗、影像科、高端微创骨外科服务。
\

\
美国医疗中心与大多数国际保险机构签约直付。
\

\
在AMC，我们坚信世界一流的医疗服务和专业的手术可以为中国和周边地区的患者服务。我们专业的医生团队和骨科医生团队积累了多年的经验，并在各个领域成为佼佼者。我们为专业的运动员、知名人士和美国总统提供医疗服务。我们提供全程的个性化医疗保健服务，包括医学成像、诊断、手术和康复。本中心配备了最先进的医疗仪器，有经验丰富的护士和麻醉师组成最先进的手术团队。在每一个医疗过程中，医生和物理治疗师一同合作，以制定最佳的康复计划。",,,"186 1623 9281 (en,STAND),021 6485 7333 (en,STAND)","CAR (zh),ORTHOPEDIE (zh),SPO (zh),CHIN (zh),URO (zh),GEN (zh),REHAB (zh),IMG (zh)",
134,WorldPath Clinic International,上海沃德医疗中心,"No.399, Nan Quan Road (N)",浦东新区世纪大道777号C座（南泉北路399号）,Shanghai,上海,200120,info@worldpathclinic.com,www.worldpathclinic.com,31.239436,121.52317,,"WorldPath Clinic International, is a comprehensive multi-specialty clinic, conveniently located in Pudong's financial district. It was founded in 2009 through a partnership of physicians and healthcare professionals in both China and the United States.
\

\
The clinic operates under the same principals found in the best U.S. medical facilities. WorldPath Clinic International provides expatriates and affluent families in Shanghai with the highest quality medical services in a state-of-the-art ambulatory care center. It provides a comprehensive range of healthcare services - ranging from simple blood tests to diagnostic scans, from cosmetic surgery to dental services, from hair removal by laser to complex surgery.
\

\
Our friendly and experienced team is available to assist patients and visitors with any special request they might have. Further services are available in order to ensure maximum comfort possible to both patients as well as to visitors. WorldPath Clinic is committed in providing the highest quality service and outstanding medical care. ","上海沃德医疗中心是由中国和美国医学专家联合创办的综合门诊部，拥有雄厚的医疗资源和专业的医疗人才，包括众多上海著名医师及常驻上海的美国医师团队。
\

\
以美国领先私家医疗服务为标准创立的国内高端综合门诊，旨在为上海外籍人士和富裕阶层提供国际品质的健康医疗服务。
\

\
上海沃德医疗中心提供包括全科、内科、普外科、泌尿外科、男科、妇科、儿科、皮肤科、医学影像科（包括放射诊断和超声诊断）、眼科、神经科、运动医学科、康复科、中医针灸科、医疗美容科、耳鼻喉科、牙科、体检在内的一站式综合门诊服务，并建立日间手术、日间病房等高效便捷的医疗服务模式，引入与美国同步的私家医疗服务体系，致力于为成功人士提供高品质的的全新生活方式。
\

\
美国哈佛医疗系统是上海沃德医疗中心的后续服务基地，将会有在美国相关领域的国际专家为每位有需求的病人进行一对一的针对性医疗服务，并且为需要前往美国医治的病人提供各方面协助服务，其中包括空中救护、签证办理、陪同翻译、住宿用膳及家庭协助等。
\

\
我们以全新的服务理念和毫无保留的热情为您构筑高品质的健康生活！",,,"400 036 8880 (zh,STAND)","CHIN (zh),ORL (zh),DER (zh),OPH (zh),INT (zh),REHAB (zh),DENT (zh),PED (zh),GYN (zh),GEN (zh),GEN (en),PSYCHO (en),CHIRPL (zh),PSYCHO (zh),CHI (zh),CHIRV (zh),DENT (hk),DENT (en),DENT (de),DENT (ja),CHIN (ja),CHIN (en),PED (hk),PED (en),INT (hk),INT (en),GYN (hk),GYN (en),CHIRPL (en),CHIRPL (ko),REHAB (ja),REHAB (en),DER (en),OPH (ja),OPH (en),CHIRV (en),ORTHOPEDIE (en),ORTHOPEDIE (de)",
135,Body & Soul Medical Clinics - Downtown Clinic (Xintiandi),身心佳中医门诊部,"An Ji Plaza, 14th Floor, No.760 South Xizang Road, Huangpu District",黄浦区西藏南路760号，安基大厦14楼,Shanghai,上海,200011,huangpu@bodyandsoul.com.cn,www.tcm-shanghai.com,31.220421,121.491323,,"Body &amp; Soul – Medical Clinics offer an integrative approach to health by combining Traditional Chinese Medicine (TCM) with Western medicine. Our international team of doctors and therapists provides high quality medical care for patients seeking to be treated as naturally as possible and as scientifically as necessary. 
\

\
Body &amp; Soul aims at treating the person as a whole and thus offers complementary therapies such as herbal medicine, acupuncture, cupping, physiotherapy, osteopathy, chiropractics and medical massages, dermatology, gynecology, psychological and nutrition counseling. 
\

\
Body &amp; Soul also offers custom made orthotics from Hong Kong. 
\

\
In our 350 square meter-clinic, the Body &amp; Soul Team offers a variety of services.
\

\
The Downtown Clinic – Xintiandi is located in the Huangpu district, approximately 10 minutes from Xintiandi. The closest subway stations are Laoximen – lines 8 and 10 – and Lujiabang Road – lines 8 and 9.",,,,"021 5101 9262 (ja,STAND),021 5101 9262 (en,STAND),021 5101 9262 (zh,STAND)","INT (zh),GYN (zh),ACC (en),CHIN (zh),OST (zh),INT (en),INT (de),INT (es),CHIN (en),CHIN (de),CHIN (ja),CHIN (es),DIE (zh),DIE (en),CHIROP (hk),KINE (zh),INT (ja),GYN (en),GYN (de),GYN (ja),GYN (es),ACC (zh),ACC (de),ACC (ja),POD (en),CHIROP (en),OST (en),KINE (en),KINE (de),PSYCHO (en),PSYCHO (es)",
136,ParkwayHealth Vantone Medical and Rehabilitation Center,北京德倍施百汇医疗诊所,"1F - 2F, Vantone Center No. Jia 6, Chaowai Street, Chao Yang District",朝阳区朝外大街甲6 万通中心1-2楼,Beijing,北京,100027,info@aeglechina.cn,www.parkwayhealth.cn,39.9197479,116.4563636,,"Vantone Medical and Rehabilitation Center
\

\
Conveniently located at the first floor of the Vantone Center, in the heart of Beijing CBD zone at Chao Yang District, ParkwayHealth Vantone Medical and Rehabilitation Center provides a wide range of medical services: Family Medicine, Pediatrics, Gynecology, Physiotherapy, TCM, Dermatology, Mental Health, Rehabilitation and Pain Care Management Services, General Surgery and Lab.
\

\
The bilingual Family Physician has more than 10 years clinical experience in Family Medicine and is qualified to diagnose and treat a wide variety of ailments in patients of all ages. The dedicated team of Physiotherapists uses DBC program which is the latest technology to providing patients with individually customized therapy programs to help with the recovery and the treatment of a variety of injuries and complaints. DBC program can treat the following conditions: Chronic Musculoskeletal related injuries treatment, Sports injuries treatment, Post-operative rehabilitation and treatment.","德倍施百汇医疗诊所座落于交通便利的北京朝阳区CBD的万通中心一楼。德倍施百汇医疗诊所为您提供多方位的医疗服务：全科，儿科，妇科，中医科，皮科，外科，康复及疼痛管理科，心理科，实验室。
\

\
我们的双语全科医生拥有超过10年的全科临床经验，擅长诊断治疗各年龄段的各种疾病。康复项目包括：慢性骨骼肌肉疼痛治疗，运动损伤治疗，术后康复治疗，儿童运动损伤，儿童脊柱侧弯。专业理疗师团队采用了最先进的技术，为病人提供量身定制的治疗方案，尽可能帮助治愈损伤及解除忧患。",\N,\N,"4000 662 882 (zh,STAND)","GEN (zh),PED (zh),SPO (zh),ORTHOPEDIE (zh),PSYCHO (zh),CHIN (zh),GYN (zh),DER (zh)",
137,ParkwayHealth SIP Medical and Dental Center,苏州园汇诊所,"Room 203-204, Building 10, Li Gong Di Phase III, SIP",苏州工业园区李公堤三期10栋203-204室,Suzhou,苏州,215000,info@aeglechina.cn,http://www.parkwayhealth.cn,31.29861145,120.6950548,,"Conveniently located in SIP district, ParkwayHealth first clinic in Suzhou offers a comprehensive range of Family Medicine, Traditional Chinese Medicine and Dental services provided by bilingual and highly qualified Physicians. 
\

\
The clinic is also equipped with on-site Pharmacy, Laboratory and Imaging Services.",百汇医疗在苏州的第一个诊所位于交通便利的苏州工业园区内，资深的双语医生将为您提供全方位的医疗服务：全科医疗、心理学科与口腔科。诊所内设有药房，实验室与影像服务。,,,"0512 6790 3490 (zh,STAND)","KINE (zh),GEN (zh),DENT (zh),PSYCHO (zh)",
138,Body & Soul Medical Clinics - Century Park Pudong,身浦佳中医门诊部 ,"Jin Ying Bld (B), Room 1303, 1518 Minsheng Road,No. 80 Hanxiao Road",浦东新区民生路1518号(含笑路80号）金鹰大厦B幢1303室,Shanghai,上海,200135,pudong@bodyandsoul.com.cn,http://www.tcm-shanghai.com/,31.226476,121.556451,,"&quot;Helping people to make a smooth transition into harmonious, ballanced and healthy living&quot;
\

\
Body &amp; Soul – Medical Clinics is a clinic for Integrative Medicine. The clinic was founded in July 2004 as a private medical facility under Chinese law. Doris Rathgeber and her team have made great efforts to introduce and apply Integrative Medicine in the Shanghai area.
\

\
Doctors and therapists in our clinics offer a wide range of experience and an extensive knowledge of holistic medicine. With comprehensive experience, continuing education and modern diagnostics, we are able to assure our patients a comprehensive and integrative approach to individual healthcare and clinical diagnosis.
\

\
Our Western and Traditional Chinese Medicine Doctors work as a team and treat individually depending upon the patients needs. As the name of our clinic implies, our primary focus is TCM but we are also licensed to provide comprehensive Western medical treatment and diagnosis. 
\

\
Our team consists of Western doctors and therapists as well as of Chinese doctors, who assist to compile a complex TCM diagnosis. All our doctors and therapists are experienced and licensed. Integrative Medicine includes both body and soul, which comprise a whole. 
\

\
Our doctors work closely together with their patients to provide ongoing education and support with regards to necessary changes in lifestyle including nutrition, diet and exercise programs. 
\

\
Welcome to our clinic in Pudong where we offer internal medicine, gynecology, acupuncture, tuina-massage, physiotherapy, psychological and nutrition consultations. 
\

\
Our Century Park Clinic also offers laboratory diagnostics. Our in-house pharmacy dispenses all prescribed medications. The Century Park Clinic is located in Pudong, 5 minutes away from Century Park and next to the Entry-Exit Visa Office on Minsheng Road. The closest subway stop is Science and Technology Museum – line 2.
\

\
We are looking forward to seeing you in our clinics and appreciate your feedback. ",,,,"021 6162 0361 (ja,STAND),021 6162 0361 (en,STAND),021 6162 0361 (zh,STAND)","GYN (zh),INT (zh),CHIN (zh),PHA (zh),KINE (zh),CHIN (en),DIE (zh),PHA (en),CHIROP (zh),OST (zh),ACC (zh),GYN (en),GYN (de),GYN (ja),GYN (es),DIE (en),PHA (ja),KINE (en),KINE (de),KINE (ja),PSYCHO (en),PSYCHO (de),CHIN (de),CHIN (ja),CHIN (es),INT (en),INT (de),INT (ja),INT (es)",
139,Body & Soul Medical Clinics - Four Seasons Clinic,徐向东中医诊所,"Four Seasons Hotel, Level 6, No.500, Weihai Road",威海路500号，上海四季酒店6楼,Shanghai,上海,201103,jiangan@bodyandsoul.com.cn,www.tcm-shanghai.com,31.233265,121.468898,,"&quot;Helping people to make a smooth transition into harmonious, ballanced and healthy living&quot;
\

\
Body &amp; Soul – Medical Clinics is a clinic for Integrative Medicine. The clinic was founded in July 2004 as a private medical facility under Chinese law. Doris Rathgeber and her team have made great efforts to introduce and apply Integrative Medicine in the Shanghai area.
\

\
Doctors and therapists in our clinics offer a wide range of experience and an extensive knowledge of holistic medicine. With comprehensive experience, continuing education and modern diagnostics, we are able to assure our patients a comprehensive and integrative approach to individual healthcare and clinical diagnosis.
\

\
Our Western and Traditional Chinese Medicine Doctors work as a team and treat individually depending upon the patients needs. As the name of our clinic implies, our primary focus is TCM but we are also licensed to provide comprehensive Western medical treatment and diagnosis. 
\

\
Our team consists of Western doctors and therapists as well as of Chinese doctors, who assist to compile a complex TCM diagnosis. All our doctors and therapists are experienced and licensed. Integrative Medicine includes both body and soul, which comprise a whole. 
\

\
Our doctors work closely together with their patients to provide ongoing education and support with regards to necessary changes in lifestyle including nutrition, diet and exercise programs. 
\

\
Welcome to our clinic in Jing'an where we offer the following services in the elegant treatment rooms of the Qin Spa - Four Seasons Hotel: acupuncture and physiotherapy.
\

\
The Four Seasons Clinic is conveniently located in Jing’an district, in the heart of the city. The closest subway stop is Nanjing West Road – line 2.
\

\
We are looking forward to seeing you in our clinics and appreciate your feedback.",,,,"021 5101 9262 (en,STAND),021 5101 9262 (zh,STAND)","ACC (zh),CHIN (zh),CHIN (en),ORTHOPEDIE (en),ORTHOPEDIE (fr),ORTHOPEDIE (es),KINE (en),KINE (de)",
140,ParkwayHealth Gleneagles Medical and Surgical Center,上海百汇华鹰门诊部,"Tomorrow Square, No.389 Nanjing West Road, 4th Floor",上海市黄浦区南京西路389号4楼南侧（明天广场裙房内）,Shanghai,上海,200003,sharon.xu@parkwayhealth.cn,http://www.parkwayhealth.cn,31.236421,121.476208,,"ParkwayHealth's Gleneagles Medical &amp; Surgical Center is located within Tomorrow Square (same building as the JW Marriott Hotel), in the heart of downtown Shanghai. Great care and attention has gone into fitting out the center with not only state-of-the-art equipment and onsite operating theaters, but relaxed lighting, tranquil nature features and luxurious private VIP recovery suites as well.
\

\
The center provides the same level of excellent primary Shanghai international medical care one would come to expect from ParkwayHealth. Personalized treatment programs are provided by a permanent medical staff that represents some of the world's most renowned medical specialists. Patients suffering from stress-related and painful medical conditions can also benefit from the clinic's peaceful surroundings, helping them to relax and concentrate on their recovery.",,,,"021 6445 5999 (en,RDV)","GEN (zh),CAR (en),INT (en),OPH (en),ORTHOPEDIE (en),RAD (en),SPO (ja),CAR (zh),ANE (en),CHIN (zh),DIE (zh),CHIN (en),DER (zh),ORL (en),RAD (zh),DIE (hk),KINE (zh),KINE (en),GEN (hk),GEN (en),SPO (en),ORTHOPEDIE (zh),ANE (de),ANE (zh),OPH (de),OPH (es),DIE (en),GAS (en),GAS (ko),GYN (en),GYN (fr),GYN (es),ALL (en),ALL (fr),SPO (zh),ORL (fr),ORL (de),ECHO (fr),ECHO (zh),CHIRPL (zh),POD (zh),INT (ko),POD (de),POD (fr),POD (en),CHIRPL (de),CHIRPL (en),GAS (zh),DER (hi),DER (en),OPH (zh),ORL (zh),CHIROP (en),CHIROP (es),ECHO (en),ALL (zh),ORTHOPEDIE (ja)",
141,ParkwayHealth's Shanghai Centre Medical & Dental Centers,上海瑞新医疗中心,"203-4 West Retail Plaza,No.1376, Nanjing Wes† Rd",上海市南京西路1376号,Shanghai ,上海,200040,karen.zhang@parkwayhealth.cn,http://www.parkwayhealth.cn,31.2328,121.457967,,"For those that live or work in the city center, seeking out medical care usually means having to go to a large, intimidating and often crowded hospital that lacks any personalized care. ParkwayHealth's Shanghai Centre Medical &amp; Dental Centers are centrally located just off the main commercial street of Nanjing West Road in the Portman Hotel complex and is a mere walking distance from many major office complexes and consulates.
\

\
Not only do we offer onsite primary Shanghai international medical and dental care, but specialty services in both areas are also available from an internationally qualified medical staff and onsite state-of-the-art equipment. Our Health Screening center is also based at this convenient location, assisting you with all work and visa related health checks.","对于那些在市中心居住或工作的人们来说，看病往往只能选择大医院，而那里常常人满为患，缺乏私人化的服务。上海瑞新医疗中心紧邻繁华的南京西路商业街，位于波特曼饭店综合区内。周边有许多写字楼和领馆，步行即可到达。
\

\
我们不仅提供全面的医科和牙科服务，而且能够进行这两个领域的专业治疗。中心的医护人员具有国际认证资格；配备当今先进的医疗设备。 
\
",,,"021 6445 5999 (en,RDV)","GEN (zh),INT (zh),GEN (ru),DENT (zh),PSY (zh),ECHO (zh),GYN (zh),PED (en),GEN (hk),GEN (de),GEN (fr),GEN (pl),GEN (en),INT (en),GYN (ja),GYN (en),DENT (ru),DENT (ja),DENT (fr),DENT (en),PSY (en),ECHO (ja),ECHO (en)",
142,ParkwayHealth's Specialty & Inpatient Center,上海新瑞医疗中心,"No.170, Danshui Rd., 3 Floor",上海市淡水路170号3楼,Shanghai,上海,200020,flora.zhang@parkwayhealth.cn,http://www.parkwayhealth.cn,31.224835,121.479106,,"ParkwayHealth's Specialty &amp; Inpatient Center is conveniently located in the center of Shanghai, right next to Xintiandi. It offers the same level of out-patient care as our other facilities, and it also provides our network with additional specialized medical support through in-patient care.","上海新瑞医疗中心位于交通便利的上海市中心，毗邻新天地。中心秉承一贯的服务准则，为门诊患者提供一流的医疗服务；此外，中心还可以为住院患者提供更加体贴周到的专业医疗服务。 
\

\
上海新瑞医疗中心和非营业段服务
\

\
 住院治疗部——可以为术后或需要过夜的病人提供国际化的私人标准病房。配备24小时驻院医师和合格的医护人员，随时提供必要的帮助。 
\

\
女性健康服务和分娩中心
\

\
 内设专门的女性卫生保健资源和设施。我们的分娩中心可以为准妈妈提供24小时电话服务。分娩现场均配备产科和妇科医师、新生儿医师专家以及医护人员。同时提供产前和产后护理课程。内设的专门仪器和有经验的妇产科专家也能够为您提供妇科服务。 
\

\
儿科中心
\

\
 百汇医疗儿科中心专为儿童设计了轻松活泼的环境，配备了最新的技术，以便为您的孩子提供最全面的儿科服务和一流的护理。 
\

\
非营业段咨询中心
\

\
 我们提供24小时电话服务，如果您白天没有时间，那可以下班后咨询。如果是无生命危险的紧急事件，我们的医生可随时为您提供帮助。请注意，如果您面临危及生命的紧急情况，建议您拨打120叫救护车或者直接前往最近的急诊室接受治疗。
\
 ",,,"021 6445 5999 (en,RDV)","ORL (zh),PED (zh),INT (zh),GYN (zh),CAR (zh),KINE (zh),CHI (zh),GEN (en),GEN (de),ALL (zh),ECHO (zh),ECHO (ja),OPH (zh),PED (hk),PED (en),GEN (zh),GEN (fr),INT (de),INT (fr),INT (en),INT (es),GYN (hk),GYN (fr),GYN (en),CAR (en),CHI (en),KINE (fr),KINE (en),KINE (pt),KINE (es),OPH (en),ORL (fr),ORL (en),ORTHOPHO (de),ORTHOPHO (en),ORTHOPHO (es),ECHO (en),ALL (fr),ALL (en)",
143,ParkwayHealth Jin Qiao Medical and Dental Center,上海瑞浦门诊部,"No.51 Hongfeng Road, Jin Qiao, Pudong",上海市浦东金桥红枫路51号,Shanghai,上海,201206,amelia.wu@parkwayhealth.cn,http://www.parkwayhealth.cn,31.244073,121.588717,,"Jin Qiao Medical and Dental Center
\
Our Jin Qiao Medical and Dental Center is expanding its international medical services.
\

\
For the benefit of Pudong residents wishing to avoid the crowds and the noise of downtown Puxi, ParkwayHealth offers a conveniently located out-patient medical facility in Jin Qiao. With an overseas trained multilingual staff and a comprehensive range of specialties, Jin Qiao Medical and Dental Center offers a wide range of Shanghai international medical services for your whole family, including minor urgent medical care.",为了方便浦东居民避开浦西的拥挤和嘈杂，百汇医疗在金桥交通便利区设置了方便门诊病人的医疗点，为您和家人提供包括小急诊在内的全面保健服务。 ,,,"021 6445 5999 (zh,RDV)","GEN (zh),INT (zh),PED (zh),GYN (zh),ORL (zh),DENT (ru),DENT (zh),OPH (de),OPH (zh),PSY (zh),PSYCHO (zh),PSY (en),ECHO (zh),ORTHOPEDIE (de),ECHO (en),PED (hk),PED (en),GEN (hk),GEN (it),GEN (en),GEN (es),GEN (ko),INT (de),INT (pl),INT (en),INT (ko),GYN (hk),GYN (en),PSYCHO (hk),PSYCHO (en),GAS (en),GAS (ko),DENT (ja),DENT (en),KINE (hk),KINE (fr),KINE (en),KINE (pt),KINE (es),OPH (en),OPH (es),NEUR (en),NEUR (ko),ORL (fr),ORL (en),ORTHOPHO (de),ORTHOPHO (en),ORTHOPHO (es),SPO (fr),SPO (en),ORTHOPEDIE (en)",
144,ParkwayHealth Jin Mao Tower Medical Center,上海汇星金浦门诊部,"JinMao Tower, J-LIFE, Podium Building, 88 Century Avenue, Pudong New Area",浦东新区世纪大道88号金茂大厦群房1N01（B）,Shanghai,上海,200120,maggie.zhang@parkwayhealth.cn,http://www.parkwayhealth.cn,31.241301,121.51209,,"Shanghai Jin Mao Tower Medical Center
\

\
Ensuring that our patients are able to access quality international-standard health care wherever they are is one of our key goals.  That is why we’ve opened our brand new Jin Mao Tower Medical Center.  
\

\
Centrally located in Lujiazui, our Jin Mao Medical Center is within walking distance of many major office complexes and a short taxi ride from the Expo site.",为了能更好地服务于我们的患者，我们在浦东陆家嘴金茂大厦新开了一家全新的诊所，离陆家嘴办公区仅几步之遥，离世博园区也是很短的出租车距离。 ,,,"021 6445 5999 (en,RDV),021 6445 5999 (zh,STAND)","GEN (zh),GEN (hk),GYN (zh),CAR (zh),KINE (zh),PSYCHO (zh),ECHO (en),NEUR (en),NEUR (ko),INT (en),INT (ko),PSY (zh),ECHO (zh),GEN (en),INT (zh),GYN (ja),GYN (en),PSYCHO (hk),PSYCHO (de),PSYCHO (en),PSYCHO (pt),CAR (en),KINE (hk),KINE (en),DER (hi),DER (en),PSY (en)",
147,United Family Minhang SRC Clinic,和美家闵行诊所,"Ground Floor, Shanghai Racquet Club, Lane 555, Jinfeng Road, Huacao Town, Minhang District",上海市闵行区华漕镇金丰路555号上海网球俱乐部内,Shanghai,,201107,srcclinic@ufh.com.cn,http://shanghai.ufh.com.cn,31.206655,121.29366,,"The United Family Minhang Clinic is located on the ground floor of the Shanghai Racquet Club in Shanghai’s Minhang District. The clinic opened on November 23, 2004 and offers Family Medicine, Mental Health, Pediatrics, and Obstetrics &amp; Gynecological services to the community.
\
 
\
As with all facilities in the UFH network, the United Family Minhang Clinic is staffed by highly qualified medical practitioners from China and around the world. The clinic offers direct billing to numerous global insurance providers and strictly adheres to the Joint Commission International (JCI) accreditation standards.
\
 
\
United Family Minhang Clinic is your trusted partner in health, offering international quality care to all communities in Shanghai.
\
","上海闵行和美家诊所位于闵行区上海网球俱乐部会所1楼，该诊所于2004年11月23日开业，可为居住在俱乐部以及周边社区的国内外居民提供全科、心理科、儿科与妇产科服务。
\
 
\
与和睦家医疗旗下所有分支机构一样，和美家诊所拥有来自国内及世界各地的高素质医务人员，并与多家国际保险公司合作，可提供全面的保险直接赔付服务。在严格遵守JCI国际标准的前提下，为患者提供全面的高质量医疗服务。
\
 
\
上海闵行和美家诊所旨在为上海社区提供国际化的高质量医疗服务，是值得您信任的健康伙伴！
\
",,,"021 2216 3999 (zh,URG),021 2201 0995 (zh,STAND)","GEN (zh),GEN (ja),GEN (fr),GEN (en),GEN (nl),GEN (pt),GEN (es)",
148,Shanghai Redleaf Women’s Hospital,上海红枫亚泰妇产医,"No.1209, Middle Huai Hai Rd, Xu hui District, Shanghai",上海市徐汇区淮海中路1209号,Shanghai,上海,200020,cs@redleafhospital.com,www.redleafhospital.com,31.220276,121.459469,,"Shanghai Redleaf Women’s Hospital is located in the heart of the city in the former French Concession area on Huaihai Road. The hospital is designed to meet high-class international hospital and hotel standards while providing comprehensive, specialized care for the women and children of Shanghai. Specializing in Obstetrics, Gynecology, Pediatrics and Newborn Care, the spacious hospital operates a total of 105 beds and also has onsite 178 parking spaces for the convenience of the patients. As a comprehensive hospital for women and children, we offer a broad range of services including: Postpartum Rehabilitation, Early-Child Development, Medical Beauty/ Cosmetic Medicine and a Center for Mother and Child. Redleaf prides itself on being the first comprehensive international standard women's hospital in China.
\

\
The hospital is built in the French Renaissance style and is surrounded by historic buildings, on its campus, which have been restored for clinical use. Inside the buildings there are elegant resting areas and private rooms that have been designed thoughtfully and with great taste.
\
  
\
 Mission
\
 Our mission is to provide excellent health care and unique medical butler services. We will deliver patient care that is based on medical evidence, on quality and on safety in a gracious and elegant environment.
\
 
\
Vision
\
 We will be a leader in high-end healthcare quality and service for Shanghai, China and the Asia Pacific. We will serve as a model for delivering care that meets the highest expectations of clients who seek us to care for them.
\

\
Top Medical Resource
\
 Cooperation with  prestigious hospitals ensures a great future
\
 
\
Redleaf Women’s Hospital offers a broad range of advanced medical services for women.  The international medical staff integrate their western and eastern training and experience to create a unique service. Redleaf has built a strategic partnership with the Massachusetts General Hospital, a teaching Hospital of Harvard Medical School, to assist in delivering world-class medical care. This includes clinical training and academic exchanges, clinical research, joint international medical conferences and Tele-education/ Telemedicine sessions. Massachusetts General Hospital has also provided two top executives as part of the strategic collaboration, Dr. Isaac Schiff, Honorary CEO and Dr. John Yeh, Hospital CEO, to insure that Redleaf management and clinical services can remain current with international advances.
\
 Dr. Schiff is Chief of the Vincent Obstetrics and Gynecology Service at Massachusetts General Hospital in Boston and the Joe Vincent Meigs Professor of Gynecology at Harvard Medical School. He is a reproductive endocrinologist and a former president of the North American Menopause Society (NAMS). Dr. John Yeh is board certified in obstetrics and gynecology and in reproductive endocrinology. He currently serves as  Professor of Obstetrics and Gynecology at Harvard Medical School and is based at Massachusetts General Hospital.
\
 In keeping with our mandate to provide state of the art medical care and to be a leader in women’s medicine, Redleaf has established partnerships with renowned hospitals including Shanghai First Maternity and Infant Hospital and the Children’s Hospital of Fudan University. The leading experts from these hospitals will provide regular in-house consultations and collaborate with the Redleaf physician and nursing team. An open-channel cooperation with each organization was established to enhance a committed working relationship to provide better High-End Services for Redleaf patients and provide collaboration for local and national research.
\
  
\
Leading Expert Medical Team
\
 Top medical physicians for top clients
\
 
\
Our medical team consists of physicians, midwives and nurses who strive to provide a high-quality and high-end health service for our patients. Their strong medical background, work experience and professional ethics enable them to provide their services in a safe and efficient manner. Redleaf physicians have been selected for their technical skills and for their abilities to interact with patients, listen and answer their questions and advise them in a respectful way. “Patient Centered Care” is of the utmost importance starting with the appointment making process and extending through all the care provided by our professional and service staff.
\
 
\
Strong Medical Butler Service
\
 Care from our hearts makes your visit memorable
\
 
\
A member of the Redleaf staff will accompany patients throughout their visit to make the time pleasant and stress free. Redleaf patients will enjoy high-class hotel-like services including in-room catering and medical butler services. This is a service that is unique to Redleaf.
\
 In order to meet the language needs of Redleaf international patients, medical translators can be provided to insure proper communication with all staff.
\
  
\
International Medical Safety Standard
\
 Safety and quality comes first
\
 
\
Redleaf aims to achieve international hospital accreditation through DNV, Det Norske Veritas, a global provider of services for risk management and hospital accreditation for over 1300 healthcare organizations.
\
 Our state-of-the-art facility is equipped with the latest and most advanced medical equipment to aid with diagnosis and treatment. Redleaf collaborates with SAP AG, headquartered in Germany, a world leader in medical software, to pioneer their paperless, electronic medical record health services in China.
\
 Redleaf has advanced, sophisticated medical equipment. The equipment items include; laparoscopic equipment from Olympus, GE E8 digital four-dimensional ultrasound, GE Panda newborn resuscitation bed, GE Giraffe versatile incubator, Philips FM30 fetal heart monitor, MP30 ECG instrument, Toshiba digital X-ray imaging system, MEDI-FUTURE digital mammography X-ray machines and other advanced imported equipment for clinical diagnosis and treatment. Our comprehensive, high-tech security system ensures that the baby and mother get maximum security and privacy protection.
\
","上海红枫亚泰妇产医院坐落于著名的钻石地段——淮海中路1209号，是专为女性及儿童提供医疗服务和健康管理的国际化高端医疗机构。
\
红枫的医疗环境宽敞舒适，拥有105张床位及178个停车位，开设妇科、产科、新生儿科、儿科、产后康复中心、儿童早期发展中心，并与红枫母婴中心的母婴商场、中心会所、医疗美容、产后修复等一起形成一站式的配套服务，是中国首家专业化、系列化、全方位的女性和儿童医疗服务机构。
\
整个院区优雅宁静，拥有新建的法式风格主楼、副楼以及数座古典保护建筑。步入其中，内部环境更是温馨典雅，无论是公共休息区域还是私人病房，每个细节都追求极致完美，每处设计都尽显人性关怀。
\
 
\
红枫的使命
\
 
\
我们的使命是为客户提供卓越的医疗服务和独特的医疗管家式服务，其基础为一支具有严谨作风、精湛技术的医疗团队和高贵、典雅的医疗环境。
\
 
\
红枫的愿景
\
 
\
我们旨在成为上海、中国乃至亚太地区医疗质量及服务的领先者。我们将满足来院客户之最高需求与期望，争取成为同行业中的典范。
\
 
\

\

\
顶级的医疗资源
\
 
\
强强携手共领未来
\
 
\
为吸纳和共享全球顶级妇婴医疗资源，红枫与哈佛大学医学院附属教学医院——美国麻省总院结成战略合作伙伴关系。双方在研发、教育以及培训方面展开密切的交流与合作，包括人员培训和学术交流、携手开展临床研究和临床试验、联合举办国际医疗会议，以及建立共同的信息技术平台，以实现远程教育和远程会诊。同时，来自麻省总院的国际知名妇产科专家艾萨克希夫博士与叶日鸿博士分别出任红枫荣誉院长和院长，从而确保红枫在医院管理体制与临床医疗服务方面与国际最先进水平保持同步。
\
红枫还与上海市第一妇婴保健院、上海复旦大学附属儿科医院等国内知名的医疗机构建立了合作伙伴关系，以致力于高水平的临床治疗、学术交流、医疗管理、质量认证等方面的立体协作。上海市第一妇婴保健院定期派遣权威妇产科专家坐诊红枫，并为红枫开通绿色通道服务，同时双方还共同合作申请完成国家及地方科研项目。上海复旦大学附属儿科医院不仅为红枫提供医疗人才方面的支持，还开通了快速便捷的绿色通道。另外，红枫作为上海复旦大学附属儿科医院新生儿科分部，将为其VIP提供高端的医疗服务。
\
 
\
专家级的医疗团队
\
 
\
精英组合专为精英
\
 
\
红枫的医护团队由海内外顶尖的医师和权威的专家领衔，同时汇集了具有丰富经验的护士、助产士和医技人员，让您不出国门，同样拥有世界最前沿的专业医疗服务。他们具有资深的医学背景、丰富的专业经验和高尚的职业道德，从而以最佳的医学理论为您制定安全、合适的诊疗方案。我们的医生不仅医术精湛，还善于与客人沟通，耐心地听取您的诉求、亲切地回答您的问题，并提出相应的建议，让您享受高端医疗的舒适与快乐。
\
凭借资深的医学背景、丰富的专业经验和高尚的职业道德，红枫医生为您提供全面、私密的高端医疗服务。
\
 
\
卓越的医疗管家团队
\
 
\
呵护备至尽享尊贵
\
 
\
我们的客服以最高端的国际标准为准则，尊敬、热情、专业地接待每一位客人。贴心的医疗管家为每一位红枫客人提供“私享”的权力，让您体验到无缝隙的陪同诊疗服务，包括提供院内就医信息、进行就医安排、解决就医所遇的困扰等在内的各种贵宾级服务。而在整个就诊过程中，您的医疗管家都会悉心陪伴在您身边。所有的检查、收费、取药等流程，都有专人为您服务，您只需在舒适的休息区享用一杯咖啡，所有的手续都会为您办理就绪。
\
为了满足外籍人士的就医需求，外语娴熟的医护及客服人员将为外籍人士提供多语种服务。同时，我们五星级酒店式的客房、礼宾、餐饮、商务服务会让您尽享尊贵礼遇。
\
我们的医疗管家将悉心陪伴在您身边，让您享受医疗过程的可靠与温馨。
\
 
\
国际化的医疗安全标准
\
 
\
安全为本品质为上
\
 
\
红枫遵循国际质量及安全标准来完善我们的服务。为了提升医院整体质量管理体系和风险管控能力，建立以客人为中心的高水准护理和高满意度服务，我们执行全球服务及风险管理权威认证的Det Norske Veritas (DNV) 国际认证标准。两年来，红枫在DNV的监管和指导下，按照中国卫生部与国际医院管理的标准建立医院的管理体系，并将于2013年底进行DNV的NIAHO认证。NIAHO医院管理标准的运用可确保红枫客人在安全的环境中得到标准化的最佳医疗服务。
\
我们借用全球先进成熟的管理运营软件平台SAP，引入合作伙伴海思林科的医疗行业最佳实践，在国内率先使用其先进的无纸化、高质量、国际化的管理方式，通过建立和谐、集成的IT解决方案帮助改善客人的医疗体验。
\
红枫拥有先进、精良的医疗设备。日本奥林巴斯一体化数字腔镜手术室、麻醉工作站、美国GEE8数字四维彩超、美国GE大熊猫新生儿保暖台、长颈鹿多功能培养箱、荷兰飞利浦FM30胎心监护仪、MP30心电监护仪、东芝数字X射线摄影系统、MEDI-FUTURE数字乳腺X射线机等先进进口设备，为临床诊疗、保健、康复提供安全可靠的保障。同时，我们全方位、高科技的安防体系能确保您能够获得最大的安全及隐私保障。
\
 
\
精彩纷呈的妈妈课堂
\
 
\
沙龙&amp;学习的愉悦体验
\
 
\
我们为准妈妈和准爸爸提供一系列以备孕、孕产及育儿等全方位知识为内容的专业课程，并使用汉语、英语、德语、法语等多语种授课。这些课程采取轻松的沙龙形式，针对您的个人情况邀请相关的专业人士与您分享广泛而科学的孕产和育儿经验。在这里，您不仅可以与专业人士零距离接触，还可以与其他妈妈交流心得、畅谈感受。
\
我们灵活地根据每个准妈妈的自身条件和特点，配合不同时期的需求，为您量身定制私人教学计划。在获得孕产期知识的同时，您还可以拥有精彩快乐的孕期体验，选择包括孕妇操、瑜伽、游泳等在内的孕期和产后的体能训练课程。我们的目标是让每位来到红枫的母亲都有一个安全、轻松的分娩过程，拥有一段美好难忘的孕产时光。
\
汉语、英语、德语、法语等多语种的妈妈课堂为准妈妈和准爸爸提供涵盖备孕、孕产及育儿等全方位的知识。
\
 
\
广泛全面的保险联盟
\
 
\
全球联动方便快捷
\
 
\
为了给您提供最有力的保障，红枫将与国内外诸多大型保险公司及保险机构签订合作协议，为持有保险的客户提供更加便捷的保险理赔服务。无论您是中国籍公民还是在华外籍人士，我们经验丰富的商务部专员都会为您省去繁琐的保险理赔过程，从而确保您在得到最好的医疗服务的同时，能够尽早获得应有的保险服务。
\
为持有保险的客户提供更加便捷的保险理赔服务，免除您的后顾之忧。
\
",,,"021-6196 1133 (zh,STAND),021-6196 3333 (zh,RDV)","GYN (zh),PED (zh),IMG (zh),ANE (zh),ANA (zh),PHA (zh),GYN (de),GYN (fr),GYN (en)",
149,Shanghai DeltaWest Clinic,上海德西门诊部,"Building B, 5F, No.2558, West Yan’ an Road, Shanghai 201103 (inside Shanghai Workers Sanitorium, next to Millennium HongQiao Hotel)",上海市长宁区延安西路2558号B座5层 (上海虹桥千禧海鸥大酒店旁，工人疗养院内),Shanghai,上海,,patientservice@deltahealth.com.cn,http://www.deltahealth.com.cn/,31.203704,121.402448,,"About DeltaHealth China
\
 
\
DeltaHealth China is invested and supported by known world-class healthcare institutions and financial corporations. With a foreign joint-venture medical license issued by the Ministry of Health of China, DeltaHealth aims to develop a leading network of specialty hospitals and clinics in China. Beginning with the Shanghai Delta Hospital and its first outpatient facility, the Shanghai DeltaWest Clinic, DeltaHealth’s strength and focus will be on the world-class medical expertise, superior patient service, and advanced hospital management.
\
 
\
About Shanghai Delta Hospital
\
 
\
Located in Xujing, near Shanghai Hongqiao Transportation Hub, Shanghai Delta Hospital (SDH) will be a 350-bed (Phase I 230 beds) acute-care hospital focused on cardiovascular services. SDH is currently under construction and will open for service in 2015. SDH will serve both the Chinese and expatriate populations in Shanghai and the Yangtze Delta areas focusing on cardiovascular specialty services. In addition, the hospital will offer primary care services within its outpatient department and downtown satellite facilities.
\
 
\
About Shanghai DeltaWest Clinic
\
 
\
The Shanghai DeltaWest Clinic (SDC) is DeltaHealth’s first outpatient clinic in Shanghai. Located near the Hongqiao business district and in the heart of the Gubei international community, SDC’s 21,000 sq-ft (1,950 sqm) facility houses an international and domestic team of experienced medical professionals providing a wide-range of primary and specialty care including cardiovascular care and rehabilitation services.
\
 
\
Our Features
\
 
\
Comprehensive cardiovascular medical services
\
 
\
Shanghai DeltaWest Clinic offers comprehensive cardiovascular services through its Center of Cardiac Excellence, Chest Pain Clinic, General Cardiology, Pediatric Cardiology, Women’s Cardiology and Cardiac Rehabilitation.
\
 Strategic partnership with local and international medical institutions
\
 
\
By partnering with local and world known international medical centers, SDC is able to provide the best practice medical and clinical services in Shanghai.
\
 International medical service providers and experienced management team
\
 
\
SDC houses a team of outstanding domestic and overseas medical doctors and clinicians. Its operating team is made of dedicated management professionals with rich local and international work experiences.
\
 
\
Our Services
\
 
\
Cardiac Center of Excellence
\
 
\
Chest Pain Clinic
\
 General Cardiology
\
 Pediatric Cardiology 
\
 Women’s Cardiology 
\
 Cardiac Rehabilitation
\
 
\
Other Medical Services
\
 
\
Behavioral Health &amp; Psychiatry
\
 Dentistry
\
 Dermatology
\
 Endocrinology
\
 E.N.T
\
 Family Medicine
\
 Gastroenterology/ Endoscopy
\
 General Surgery
\
 Gynecology
\
 Internal Medicine
\
 Ophthalmology
\
 Pediatrics
\
 Physical Therapy
\
 Traditional Chinese Medicine 
\
 Other Specialties
\
 International Referral Service
\
","关于德达医疗
\
 
\
德达医疗是由世界著名的医疗机构和金融机构投资合作成立的专业医疗管理集团。持有中国卫生部批准的医疗机构建设执照和中国商务部批准的商业执业证书。德达医疗专注于心血管专科医疗服务，致力于成为中国心血管医疗领域的引领者。从旗下的第一家医院（上海德达医院），和第一家上海市区门诊（上海德西门诊）开始，德达医疗将致力于为客户提供和创造世界一流的医疗设施、优质的患者临床服务和最先进的医院运营管理。
\
 
\
关于上海德达医院
\
 
\
上海德达医院位于上海虹桥交通枢纽以西七公里的徐泾地区，是一家正在建设中的中外合资特色综合医院。医院将拥有床位350张（其中一期230张），预计开业时间为2015年。上海德达医院以心血管专科为主，着眼于为上海、长江三角洲各城市及全国其它地区主流群体提供专科医疗服务。同时，医院的门诊部及市内门诊中心还将为在华外籍人士、国际及商务区各群体提供高端的全科医疗服务。
\
 
\
关于上海德西门诊
\
 
\
上海德西门诊部（shanghai DeltaWest Clinic）于2013年1月正式营业。上海德西门诊部位于上海市虹桥中心商业区和国际社区的核心位置，提供一系列的全科和专科服务，特色医疗服务包括心血管疾病的早期诊断、专家门诊治疗和心脏康复项目等。
\
 
\
我们的特色
\
 
\
全方位的心血管专科治疗
\
 
\
上海德西门诊设立心脏病中心，胸痛门诊，心脏专科门诊，妇女心脏门诊，小儿心脏门诊以及心脏康复中心，可为广大患者提供系统全面的心血管医疗服务。
\
 与国内及国际医疗机构建立战略性合作关系
\
 
\
与国内及美国知名医疗机构的合作，上海德西门诊可为患者提供上海顶级国际化医疗服务。
\
 国际医疗服务的提供者及经验丰富的管理团队
\
 
\
上海德西门诊拥有国内及海外医术精湛的国际医疗专家，其管理团队由富有国内及国际工作经验的管理专家组成。
\
 
\
我们的服务
\
 
\
特色专科
\
 
\
心脏中心
\
 胸痛门诊
\
 心脏专科门诊
\
 妇女心脏门诊
\
 小儿心脏门诊
\
 心脏康复中心
\
 
\
其他专科
\
 
\
全科医疗
\
 妇科
\
 儿科
\
 消化内科/内窥镜
\
 行为健康与心理咨询
\
 中医科
\
 牙科 
\
 眼科 
\
 耳鼻喉科
\
 其他专科门诊
\
",,,"400 821 0277 (zh,STAND),(021) 2213-9771 (ja,STAND)","ANE (en),CHIN (zh),CHI (zh),CAR (zh),DER (zh),IMG (zh),GEN (zh),REHAB (zh),ANE (zh),ECHO (zh),INT (zh),DENT (zh),GYN (zh),GAS (zh),OPH (zh),ORL (zh),END (zh),CHIN (en),GEN (de),GEN (fr),GEN (en),GEN (nl),END (de),END (fr),END (en),INT (fr),INT (en),INT (ko),GYN (en),IMG (en),CAR (ja),CAR (en),CAR (ko),DENT (en),REHAB (ja),REHAB (en),OPH (en),PSY (it),PSY (ja),PSY (fr),PSY (en),PSY (es),ECHO (en),PED (zh)",
150,Shanghai Tokushinkai Dental Clinic-Jingan,:上海德诚会口腔门诊部-静安,"Pacheer Commercial Centre 2F, No.555, Nanjing Road,Jingan District, Shanghai china",上海静安区南京西路555号555商厦2楼,Shanghai,上海,200041,reception_ja@tokushinkai.com.cn,http://www.tokushinkai.com.cn/,31.236743,121.473083,,"Shanghai Tokushinkai Dental Clinic was opened in the Jingan District, city center area of Shanghai, in Nov. 2004. This clinic is on the corner of jointed Chengdu North Rd. and YanAn expressway, near Top of City where high-quality office buildings and several huge hotels are located.
\

\
We have a spacious-comfortable lobby catering for the various needs of patients, for example free drinks, the Internet, and various kinds of magazines. The warm-hearted interior designs relax patients well.
\
 All the examination rooms are completely private; each design is based on the seven flowers' images which are famous in China. 
\

\
Any patient can be provided with care, treatment and services by experienced dentists who have advanced specific education oversea. Japanese staffs also deliver their support to patients and provide high-quality health care together with state-of-the-art medical equipment in the finest environment. We are available on Saturdays, Sundays, and holidays as in Japan.
\

\
We provide general dentistry, child dentistry, orthodontic dentistry, implant dentistry, and aesthetic dentistry like whitening as well as Japan.
\

\
We are looking forward to serving the people in Shanghai.
\
",,,,"021-63400290 (zh,RDV),021-63400270 (zh,RDV)","EST (zh),HDON (zh),PRO (zh),DON (zh),PRO (ja),PEDO (zh),PRO (en)",
151,Shanghai East International Medical Center,上海东方国际医院,"No.150, JiMo Road Shanghai",上海市即墨路150号,Shanghai,上海,200120,marketing@seimc.com.cn.,http://www.seimc.com.cn/,31.243424,121.519096,,"Introduction
\
Shanghai East International Medical Center (SEIMC) is a highly respected joint venture hospital in Shanghai’s booming Lujiazui Financial District. SEIMC opened in 2003 and has been providing quality 24-hour care to the international community in Shanghai and its neighboring provinces. Our dedicated international team of multilingual medical professionals provide a wide range of world-class services that make us the healthcare provider of choice for multinational corporations, international schools, foreign consulates, five-star hotels, and families from all over the world.
\

\
 For 10 years, our medical center has been a leader in expatriate healthcare. Some of our notable accomplishments in Shanghai’s medical field include:
\

\
•  First to receive a comprehensive hospital operating license in Shanghai 
\
•  First to establish 24-hour out-patient and in-patient service 
\
•  First to establish in-house operating theaters 
\
•  First to offer GE digital x-ray and digital mammography
\
•  Primary provider for English-speaking emergency care in Pudong
\

\

\
History 
\
In 2001, the leadership team of a newly-built hospital in Lujiazui was introduced to several doctors and hospital administrators from the United States who were interested in making a difference in China. Out of this conversation came the idea of creating comprehensive hospital with a highly qualified, international team of doctors that would the first of its kind in Shanghai.
\

\
Shanghai East International Medical Center opened its doors in 2003 as a U.S.-China joint venture hospital founded by Shanghai East Hospital and U.S. Healthcare Management Enterprises, Inc., a California-based healthcare organization.
\

\
The hospital continues to care for people of all nationalities and has saved numerous lives since its opening. With an expansion in progress and a growing expatriate community, Shanghai East International Medical Center sees a bright future for healthcare in Shanghai and is committed to delivering exceptional medical care to Shanghai’s citizens for decades to come.
\

\

\
Mission Statement 
\
We shall strive to provide prompt and efficient provision of safe, contemporaneous, evidence-based, patient-oriented and accessible services to Shanghai East International Medical Center's patients. 
\

\

\
Vision &amp; Core
\
 Values Shanghai East International Medical Center strive to be the best healthcare provider by offering safe, evidence-based and patient-oriented practices through its global team of professionals.
\
",上海东方联合医院（上海东方国际医院有限公司）是上海最具规模的中外合作的综合性医院。我院能够为您提供综合性的医疗保健服务，包括家庭全科、儿科、妇产科、脊椎神经治疗科、专家会诊、住院服务以及外科手术等。我们拥有众多经验丰富、全日制的国际医疗专家，有24小时的热线电话，并可直接与众多国际保险公司结单。我们正在为越来越多的制造加工业、国际学校、外国领事馆、五星级酒店、以及来自世界各地的家庭提供便捷的高水准的医疗服务。,,,"021 5879-9999 (zh,RDV)","CAR (zh),URG (zh),CHI (zh),GYN (zh),PED (zh),REHAB (zh),CHIN (zh),RHU (zh),INT (zh),END (zh),URO (zh),ORTHOPEDIE (zh),SPO (zh),ONC (zh),OPH (zh),DER (zh),ORL (zh),GEN (zh)",
152,St.John’s Health Clinic,上海景康门诊部,"No. 4, Lane 398, Dapu Road, Luwan District, Shanghai（Near Quxi Road）",上海市卢湾区打浦路398弄(近瞿溪路口)4号,Shanghai,上海,200023,,www.jingkang.net.cn,31.203697,121.478868,,"St.John’s is known as the first 5-star preventive medical center in Shanghai with more than 4,000 square meters of well-appointed floor space. The center has thorough and complete physical examination and follow-up health management systems, and senior professional health management physicians and personal health assistants or “health secretaries” provide comprehensive services including counseling and education on nutrition and exercise, management of pressure-release and other aspects of medical care. The center is fully equipped with the most modern and advanced health examination equipments and provides unique and comprehensive adult health examination services, analgesic gastroenteroscopy, functional medicine, and dentistry, including specialist clinics for both traditional chinese and western medicine. St. John’s helps people of all ages better manage their health scientifically to make each stage of life healthier, longer and better!
\

\
","上海景康门诊部有限公司拥有完善的健检和后续健康管理体系，专业管理健康的资深医师和健康秘书为您提供营养、运动、舒压、医疗等全面健康管理服务。4000多平方米雅致空间，医检分离，拥有先进的健康检查设备，提供成人完整健康检查、无痛肠胃镜、功能医学、口腔门诊、中西医专家门诊等特色服务。帮助各年龄人群科学管理健康，让生命的每一步走得更稳、更远、更好！ 
\

\
舒适的环境
\
精心设计的就诊环境，超过四千平方米雅致空间，提供完全不同于传统医院的舒适与体贴，整洁、优美的布景、营造出轻柔舒缓、放松身心的愉悦享受。专业护理人员细心周到的服务，让您有宾至如归的感觉。来体检，就像是在度假！
\
 
\
健康检验设备
\
科学检测仪器，选自欧洲、美国及日本名牌专业厂商，对身体无危害，检验高效、精准。即使是高复杂的检查，也能在不知不觉间完成，让身体深处隐藏无所遁形，为疾病判断和及早防治提供准确、清晰的指导。
\
 
\
专业的体检及门诊服务
\
量身订制的个性化体检流程，轻松6小时全身健康检查，快速完成详尽准确的健康报告。我们还有专业护理人员全程陪同，悉心解说，妥帖照顾。体检完毕，资深医师还可一对一详细解说报告，提供健康保养建议，并由专业营养师提供健康饮食建议。
\
 
\
我们不但提供体检，还提供医院转诊等后续服务。如遇病况，我们将根据受检者状况，提供妥善的转诊建议和服务，令检者及早获得该领域专家的后续治疗。我们还定期举办健康讲座，指导日常生活饮食和疾病的预防，帮助您强身、防癌、抗衰老。
\
 
\
值得信赖的精英团队
\
久负盛名的台北医疗界精英，资深中、西医及牙医驻诊，与资深专业医师共同组成强劲医诊团队，为您提供完整周详的检查及健康管理服务。更联手上海各大三甲医院之权威医师及教授，组成强大医疗会诊及顾问团队，提供深入的后续健康管理服务。
\
",,,"021-53029922  (zh,STAND)","OPH (zh),DENT (zh)",
154,SinoUnited Health-Portman Clinic,盛和康复医疗中心,"Suite 601, Shanghai Centre, No.1376 Nanjing Road (W)Shanghai",上海市静安区南京西路1376号上海商城西峰601室,Shanghai,上海,200040,contact@sinounitedhealth.com,www.sinounitedhealth.com.cn,31.232881,121.457885,,"SinoUnited Health is the first western medical center in Shanghai that specializes in all aspects of pain management and rehabilitation. Since 2004, experts from around the world in the fields of Orthopedics, Physiotherapy, Sports Medicine, Neurology, Osteopathy and Pain Management work together to accurately diagnose and treat our patients’ medical problems. 
\

\
At SinoUnited Health, our goal is more than just the immediate alleviation of pain. We are dedicated to curing people or improving their quality of life after an injury, accident, disease or surgery. We treat the source of pain so that our patients will be able to live without limitations. 
\

\
SinoUnited Health’s three Shanghai medical centers are committed to offering you the highest standard of international healthcare. We welcome you to visit our facilities and explore our extensive direct billing network.
\
 
\

\
As an International clinic we offer our services in a variety of languages to our patients including: English, Japanese, Chinese, German, Italian, French, Swedish, Danish, Norwegian, and Turkish.
\
","盛和康复医学中心是上海首家以康复治疗、骨科诊疗、疼痛医学和运动医学见长的专业外资高端医疗机构。
\

\

\
2004年成立以来，我们一直致力于提供优质的个性化康复医疗服务。我们拥有世界一流的康复医疗团队。
\

\

\
在盛和康复医学中心，您享受到的是世界一流的医疗服务，并且对于您的治疗不只限于诊所，我们的医务人员会帮助您进行全天候的积极康复！我们的医疗团队将从根源治疗您的伤痛，并且教会您如何在日常生活中预防病痛。
\

\
让您随心所“动”！
\
",,,"021 6279 8920 (zh,STAND)","KINE (zh),ORTHOPEDIE (zh),REHAB (zh),SPO (zh),OST (zh),NEUR (zh)",
155,Klinoerth Therapy Clinic,明珍健康信息咨询 ,"Room 1819, 500 Xiang Yang Nan Road, Xu Hui district, Shanghai","上海徐汇区，襄阳南路500号, 1819室",Shanghai,上海,,info@klinoerth.com,http://www.klinoerth.com/,31.211837,121.464358,"La philosophie de Klinœrth : La voie vers votre guérison 
\
 
\
Notre philosophie favorise un style de vie plus sain et fournit des services en réadaptation chez les enfants et les adultes à travers des professionnels qualifiés qui ont comme objectif d'établir la norme en Chine pour des soins en réadaptation. Cela exige un travail d'équipe rigoureux, ainsi qu'un grand dévouement. Nous mettons notre écoute et notre volonté d'apprentissage au service de nos patients.
\
 
\
 
\
L'atteinte de cet objectif se traduit par une prise en charge individualisée de chaque patient, et l'application de normes éthiques et professionnelles supérieures dans le domaine de la santé.
\
 
\
 
\
Notre philosophie est le fondement de notre réussite.
\
  
\
- Psychologie
\
- Orthophonie 
\
- Physiothérapie ou Kinésithérapie
\
- Chiropractie
\
- Médicine Alternative: balancement énergétique
\
- Ergothérapie
\
- Semelle Orthopédique
\
","Our philosophy is to promote a healthier lifestyle and provide rehabilitation services for children and adults through the treatment of caring and qualified professionals who are committed to setting the standard of rehabilitative care in China.
\
 
\
This requires relentless team work and great devotion. We put our listening and our insatiable willingness to learn at our patient's disposition.
\
 
\
The fulfillment of this objective translates into an individualized treatment plan for each patient and the application of higher ethical and professional standards within the healthcare field.
\

\
Our philosophy is the foundation of our success.
\
 
\
We can provide you with a wide range of treatments dedicated to improve your quality of life, including:
\
 
\
-Acupuncture
\
- Psychology
\
- Educational psychology
\
- Physiotherapy
\
- Chiropractics
\
- Speech Therapy
\
- Occupational Therapy
\
- Energy Balancing
\
- Foot Orthotics
\
","Klinoerth的宗旨是提倡一种更加健康的生活方式，并且我们通过在中国具有标准康复治疗的专业人员为孩子和成人进行治疗服务。这不仅要求我们具有不懈的团队精神，更需要有对工作的巨大热忱。我们将非常乐意站在病人的角度上去倾听并学习。
\

\
Klinoerth的宗旨将会完全的融入到每一个病人的个性化治疗中，并且把更高的道德和专业化标准的应用贯穿于医疗保健领域之中。
\

\
这一切便是我们成功的基础。
\

\
我们提供一系列的治疗方式以提高您的健康质量。
\

\
针灸
\
心理治疗
\
教育（改造）心理学
\
物理治疗
\
脊柱神经按摩治疗
\
语言治疗
\
职业治疗
\
替代治疗
\
足部矫正
\
",,,"021 5466 2621 (zh,RDV)","ACC (zh),CHIROP (zh),ORTHOPEDIE (zh),OST (zh),PSYCHO (zh),KINE (zh),ORTHOPHO (zh),REHAB (zh)",
156,Shanghai Aier Eye Hospital-International Patients Service Center,爱尔眼科-国际部,"No.1286, Hongqiao Road (near Songyuan Road), Changning District, Shanghai",长宁区虹桥路1286号（近宋园路）,Shanghai,上海,,ipsc@aier021.com,http://www.aier021.com/en/,31.201933,121.419199,,"Shanghai Aier Eye Hospital, founded by the AIER Ophthalmology Hospital Group, which is the largest chain ophthalmology center in China, is a large-scale comprehensive ophthalmic medical center &amp; hospital. Shanghai Aier Eye Hospital is committed to providing world-class professional ophthalmic services.
\
 
\

\
International Patients Service Center(IPSC) of Shanghai AIER Eye Hospital is committed to provide high quality and comprehensive eye care service at international standards for the expatriates living in shanghai and beyond. We help you treat and take care of your sight. Whether you need highly specialized surgery or simply your first pair of glasses, you can get the very best ophthalmic care at IPSC.
\

\

\
IPSC has a professional team consisted of doctors and nurses who are multi-lingual (English, Japanese) and have international education background and working experience. Our medical doctors are qualified ophthalmologists and are licensed both in China and abroad. They specialize in all aspects of eye care, including diagnosis, management and surgery for eye diseases. 
\

\

\
IPSC also offers a complete range of support services, such as telephone/online consultation, routin eye screen and 24-hour inpatient service, etc.
\
",,,,"(021)32519930 (en,RDV)","OPH (zh),ORTHOPTIE (zh)",
158,Brånemark Osseointegration Center Shanghai,上海百年茂口腔门诊部,"368, Shanghai Centre, No.1376, Nanjing West Road, Shanghai",上海静安区南京西路1376号上海商城3楼368室,Shanghai,上海,200003,info@abocs.cn,http://www.abocs.cn/,31.232802,121.458485,,"Brånemark Osseointegration Center
\
It is a privilege for our Shanghai operation to use the name “Brånemark Osseointegration Center” under direct authorization by Professor P-I Brånemark, “The Father of Dental Implants”.
\

\
It was the early sixties in Sweden when Professor P-I Brånemark discovered the phenomenon of “Osseointegration”. In 1965 Professor Brånemark treated the first patient with titanium dental implants. Since then, over millions of patients worldwide have received dental implants and enjoy better quality of life.
\

\
Our Company
\
Brånemark Osseointegration Center Shanghai, ABOCS, is a joint venture between the Dental Implants and Maxillofacial Centre (Hong Kong) and the Tokushinkai Dental Group (Shanghai).
\

\
Our professional team consists of experts from China, specialists from Hong Kong and Singapore.
\
 
\
Brånemark Osseointegration Center Shanghai has the state-of-the-art clinical facilities and cutting edge dental equipment for imaging, diagnosis and treatment. For examples, we have Sirona® C8+ and C4+ dental units, NewTom® VGi Cone Beam Scanner, KLS Martin marLED® operating light, Milestone Scientific CCLAD STA™, Nobel Biocare® Dental Implants, SimPlant® Crystal simulation software etc.","上海百年茂口腔Brånemark Osseointegration Center (BOC) –百年茂骨整合中心标志着一个非凡的背景。
\

\
当今种植牙技术源于瑞典白年茂教授（ Professor PI Brånemark） 在六十年代所作有关《骨整合技术》 Osseointegration 的科研成果。自1965年第一位种植牙患者起，到今天种植牙已经造福了数以百万计的患者。
\

\
和香港DIMFC一样，上海百年茂口腔是全球少数获得瑞典《骨整合技术》之父白年茂教授 （Professor PI Brånemark ）直接授权可使用其冠名权的种植牙中心。
\
",,,"137 0171 8101  (zh,URG),021 6289 8101 (zh,RDV)","CHIRM (zh),PAR (zh),PRO (zh),STO (zh),PRO (en),PRO (fr),PRO (de),CHIRM (en),PAR (en),STO (en)",
159,Cidi Dental,西典齿科,"Room 706-708, No. 495, Jiangning Road",江宁路495号博鸿大厦,Shanghai,上海,200040,dentist@cididental.com,http://www.cididental.com/cn/,31.241443,121.458058,,"Cidi Dental is a successfully launched joint-venture clinic. 
\
 
\
Cidi Dental will be providing high standard dental technique and dental care to the expat communities. 
\

\
Our goal is to be your partners for good oral health and help you to achieve a healthy smile for a lifetime. 
\

\
CIDI DENTAL will make you feel at home. ","西典齿科是以新的齿科理念为驻沪的外籍家庭提供最为细致的牙科医疗保健机构，从最基本的消毒隔离到最先进的牙科美容治疗技术都以ADA（AMERICAN DENTAL ASSOCIATION）的要求为标准，体现以人为本的最终医疗准则，同时将国外最新的齿科保健知识带给您和家人。
\
 
\
1.　西典齿科拥有全部国外进口的设备和材料，保证了治疗过程的安全性及准确性。所有治疗程序都会在第一时间让您知晓。
\
 
\
2.　西典齿科的牙科医师及助手都经过专业培训并曾赴国外受训，他们将给您最专业最安全的牙科服务。
\
 
\
3.　西典齿科的齿科医师及助手将与您一起制定医疗计划，所有治疗程序都会在第一时间让您知晓,以细致入微的人性化，专业化精神缓解您的顾虑。
\
 
\
4.　西典齿科很荣幸地邀请到了DR. LING(毕业于哈佛牙医学院,现任UCLA牙周病学讲师)作为诊所的种植牙手术指导及牙齿美容保健顾问专家。
\
","海にある歯科医院CIDI DENTALの日本語HP兼ブログです。
\
浦東・浦西にそれぞれオフィスがあり、日本人Drがいます。
\
ここでは主に浦東の最新情報を更新していきますのでよろしくお願いします！
\
",,"021-51154575 (en,RDV),13621798486 (zh,URG),021-51154550 (ja,RDV)","DENT (zh),PAR (zh),HDON (zh)",
160,New Vision Eye Clinic,瑞视眼科,"3rd Floor, Jin Kai Li Square, No.758, Xizang South Road,Shanghai",上海市黄浦区西藏南路758号2-3楼(建国新路口),Shanghai,上海,200011,,http://eng.rjeye.com/,31.220911,121.491066,,"New Vision Eye Clinic is a symbol for the preservation and enhancement of precious eye sight, created by New Vision Holdings LLC, USA in 1996. New Vision Eye Clinic is dedicated to providing the most current and comprehensive diagnostic and treatment services in ophthalmology. Our experienced physicians are skilled to treat eye diseases and visual problems in most ophthalmic subspecialties.
\
 
\
New Vision Eye Clinic serves patients in an attentive private practice environment. Our newly built 3000 square-meters modern facility is conveniently located at the central area of Shanghai. The clinic utilises the very latest technologies and is designed to meet the highest standards of clinical practice as well as customized to the comfort of patients.
\
 
\
New Vision Eye Clinic offers a wide range of services in:
\
 
\
General Ophthalmology
\
 Presbyopia Surgery / Natural Lens Exchange
\
 Laser Vision Correction (PRK/LASIK/LASEK/Epi-LASEK)
\
 Phakic IOL for Vision Correction
\
 Cataract Surgery
\
 Oculoplastic Surgery
\
 Retinal Laser Therapy
\
 Glaucoma
\
 Optometric and Optical Services
\
 
\
Extensive Experience
\
 
\
Our faculty of physicians consists of well respected specialists in the field of ophthalmology. Each of our physicians specializes in at least one area of ophthalmic care and has completed fellowship training in one or more subspecialties. Since it’s opening in 1996, New Vision Eye Clinic has conducted more than 80,000 cases of laser surgery for correcting refractive deficiencies, and more than 20,000 operations on cataract, glaucoma and retinal disorders. Many of our doctors are current members of international medical societies including American Academy of Ophthalmology, International Society of Refractive Surgery, American Association for Research in Vision and Ophthalmology and German Ophthalmology Association.
\
 
\
Modern Technology
\
 
\
Our newly established facility in Shanghai is equipped with the most technically advanced equipment designed to make the treatment as safe and efficient as possible. New Vision Eye Clinic understands the importance of technology and continuously invests in the latest technologies so our physicians can achieve the best possible results for the patients. Our refractive surgeons have access to the latest equipment and specialize in a broad range of refractive techniques including wavefront guided LASIK, customized LASEK/PRK, and phakic intraocular lens implantation (IOL). A broad technology base enables our physicians to customize treatment for each patient’s individual needs.
\
","上海瑞视维景眼科门诊部有限公司一直致力于提供高标准的临床治疗，安全的手术效果，及热情的就诊环境及服务。但是我们承诺对于您和您的员工们所提供卓越的服务水准没有变。
\
 
\
为了继续紧跟时代需求的发展，上海瑞视眼科在上海市中心地段建造了新一代的眼科手术中心设施，引进美国先进的眼科医院设计思路和规范，提供便捷患者的优质服务。我们拥有新的激光技术设备，包括FS200飞秒及EX500准分子激光。让我们的医疗团队能给您带来精准及高效率的诊断及治疗
\
 
\
 
\
 
\
 
\
 
\
无论您有什么问题，我们的医生和临床医护人员都能帮助您充分了解可供您选择的方案，我们也为此倍感自豪。作为一家独特的眼科专科医院，我们的经营管理由医生主导，他们是瑞视管理团队的主体，您可以充满信心地去享受我们的关怀和治疗，我们始终把患者的利益放在首位，而不是医院的经营效益。
\
 
\
瑞视的医生们都是在眼科界备受尊敬的专家，每个医生都在一个或多个专业领域有专攻和受过国际资格认证培训。我们中的许多医生都是现有国际医学协会的成员，包括美国眼科学会、国际屈光手术协会、美国视觉与眼科研究协会。
\
 
\
我们私密的等候及设备齐全的诊察室会使您感到与医生的交流如
\
 
\
此轻松。您可以随时在现场的药房及眼镜店购买到您所需要的东西。我们安全的地下停车库及优越的地理位置将使您非常方便地访问我们。
\
 
\
 
\
 
\
 
\
 
\
虽然对于一个企业来说，不希望有新客户似乎有点奇怪，但对于很多眼睛疾病相关的问题我们宁愿您不要发生这样的需求。这是为什么我们提供多元化的教育讲座及宣教资料，来指导您如何保护好您的眼睛，预防疾病的产生。
\
 
\
无论您是选择来我们医院做近视矫治这样的选择性治疗，还是来解决您的视觉问题，我们都将随时为您提供服务。您在眼睛保健上有任何需要，上海瑞视眼科将竭诚帮助您缔造一个良好的视界。",,,"021-6437-7445  (zh,RDV)",OPH (zh),
161,TOWA Medical Center(PuDong),上海东和邦道门诊部（浦东）,"No.5, JingKang Road, Pudong District,Shanghai",上海市浦东新区锦康路5号,Shanghai,上海,, info@towa-clinic.com ,http://www.towa-clinic.com/index/index_en.html,31.222666,121.544761,,"From the perspective of the patient, TOWA BUND MEDICAL CENTER provides the most advanced and high-end private medical services.Our college cooperates with their own medical team and external hospital clinical departments, to provide comprehensive perfect medical services for patients. According to the results of the patient's symptoms consultation, providing the most appropriate examination, treatment and external linkage treatment services. 
\

\
Medical department
\
We have fruitful clinic experience in respiratory medicine, digesting internal medicine, endocrine division and hematology. We can make the swift reflection on various incurable diseases. In the terms of pediatric medicine, we have made great achievements on the treatment of Pneumonia, nephritis, diarrhea which seriously endanger the health of children. Large numbers of patients come here due to the achievements above. 
\
－Paediatrics department－
\
Welcome to advisory information on infant health care. 
\
Diagnoses range：A variety of common diseases in pediatrics, such as asthma, skin diseases, slow development, diabetes, etc. 
\
－Surgical department－
\
We have set up the general surgery and gastrointestinal surgery professional team. Through the efforts made by all the staffs, we have formed the comprehensive department with relatively higher level, more specific division and stronger technical power. 
\
－Rehabilitation department－
\
Diagnoses range：All kinds of sequelae rehabilitation treatment which is caused by traumatic. 
\
－Department of gynecology－
\
We have strong technical force in gynecology which is the comprehensive department combined the Chinese medicine, Western medicine and Chinese and Western Medicine. For many gynecological diseases especially the Irregular menstruation, cervicitis and pelvic inflammatory disease we adopt the treatment of Integrative Medicine which has great effect, high cure rate, and few side effects and low relapse rate. Our department is devoted to decrease the suffering of female friends and bring them with heath. 
\
－Traditional Chinese medicine department－
\
Diagnoses range：Provide various personalized supplements of TCM prescription, prescription and Chinese massage. 
\
－Dermatology department－
\
Treat various dermatologys with high efficiency by combining the Western medicine treatment means with advantages of Chinese medicine in our hospital which has achieved satisfied effect. 
\
－Ophthalmology department－
\
We can correct myopia, treat cataract, glaucoma, vitreous body, retinal disease, strabismus, Pediatric Ophthalmology, keratopathy, ocular surface disease and orbital disease. We do not have the whole project of professional medical optometry ophthalmology clinic. 
\
－ENT department－
\
ENT common test. Diagnosis and treatment of frequently-occurring disease. We have maintained the advanced technical domestically especially in the treatment of otitis media. We have also connected much experience in the diagnosis and treatment of rhinitis. 
\
－Urology department－
\
Treat various inflammation and stones by adopting traditional Chinese medical methods which has fair effect and accepted widely by the people. 
\
－Dental department－
\
Diagnoses range：Children's Dentistry / General Dentistry / Orthodontics whitening / oral surgery and so on. ","东和邦道门诊部从患者及病人的个人角度出发，提供最先进高端及私密的医疗服务。本院协同自身的医疗团队及外部综合医院的诊疗部门，为患者提供全面健全的各项医疗服务。根据患者症状的会诊综合结果，提供最合适的检查、治疗及外部联动诊疗服务。 
\

\

\
－内科－
\
对呼吸内科、消化内科、内分泌科、血液内科具有丰富的临床经验，能对各种疑难杂症做出快速的反应，在小儿内科方面，对严重危害小儿健康的肺炎、肾炎、腹泻病的诊治取得了不菲的成绩，大批患者慕名而来。 
\
－小儿科－
\
欢迎随时咨询有关婴幼儿的健康保健情报。 
\
诊疗范围：儿科的各种常见病，如哮喘、皮肤病、发育缓慢、糖尿病等 
\
－外科－
\
设有普通外科、肠胃外科等专业组。经过全院上下的一致努力，已经形成整体水平较高、专业分工较细、技术力量强的综合性科室。 
\
－整形外科－
\
诊疗范围：各种腰间盘相关的骨及神经痛、以及骨折、脱臼等外伤。 
\
－康复科－
\
诊疗范围：各种外伤引起的后遗症的康复治疗等。 
\
－妇科－
\
妇科技术力量雄厚，是一个中医、西医、中西医结合综合性科室。对于多种妇科疾病，尤其是月经不调、宫颈炎、盆腔炎等，采用中西医结合的治疗方法，疗效显著，治愈率高，副作用小，复发率低。本科室致力于为女性朋友减小痛苦、带来健康的福音。 
\
－中医科－
\
诊疗范围：提供各种个性化进补的中医处方、食补处方以及中医推拿等。 
\
－皮肤科－
\
采用西医诊疗手段结合本院优势中医中药，高效治疗各种皮肤病，取得令患者满意的疗效。 
\
－眼科－
\
矫正近视，治疗白内障、青光眼、玻璃体、视网膜疾病、眼底疾病、斜视、小儿眼科、角膜病、眼表疾病、眼眶病，还设有专业医学验光配镜等全眼科诊疗项目。 
\
－耳鼻喉科－
\
五官科常规检查、多发病的诊治；在耳鼻喉科，尤其在中耳炎治疗方面保持着国内先进水平；在鼻炎的诊断治疗上也积累了诸多经验。 
\
－泌尿科－
\
通过传统中医手法治疗各种炎症和结石，治疗效果良好，获得了社会的广泛认可。 
\
－牙科－
\
诊疗范围：儿童牙科/一般牙科/牙齿矫正美白/口腔外科等。 ",,,"021-5017-9407  (zh,RDV),021-5017-9406（Dent (zh,RDV)","PED (zh),CHI (zh),REHAB (zh),GYN (zh),CHIN (zh),DER (zh),OPH (zh),INT (zh),CHIRPL (zh),URO (zh),DENT (zh),ORL (zh)",
162,TOWA Medical Center(GuBei),上海藤和门诊部（古北）,"3nd No.88 RongHua Road, Changning District,Shanghai",上海市长宁区荣华东道88号3F（华一银行上） ,Shanghai,上海,,,http://www.towa-clinic.com/index/index_en.html,31.200446,121.401445,,"From the perspective of the patient, TOWA BUND MEDICAL CENTER provides the most advanced and high-end private medical services.Our college cooperates with their own medical team and external hospital clinical departments, to provide comprehensive perfect medical services for patients. According to the results of the patient's symptoms consultation, providing the most appropriate examination, treatment and external linkage treatment services. 
\

\
Medical subjects:: 
\
Internal Medicine・Paediatrics・Dermatology・Surgical・Plastic Surgery・Ophthalmology・Otolaryngology・Urology・Gynaecology・Traditional chinese medicine・Rehabilitation clinic・Gastric endoscopy 
\
","东和邦道门诊部从患者及病人的个人角度出发，提供最先进高端及私密的医疗服务。本院协同自身的医疗团队及外部综合医院的诊疗部门，为患者提供全面健全的各项医疗服务。根据患者症状的会诊综合结果，提供最合适的检查、治疗及外部联动诊疗服务。 
\

\
東和邦道 &gt; 古北门诊部介绍 
\
上海藤和门诊部(古北) 所 在 地：上海市长宁区荣华东道88号3F（华一银行上） 诊疗时间： 周一-周五：09：00～19：00
\
周六・周日：09：00～17：00 定 休 日：国家法定节假日 预约制：本诊所实施“预约优先制”。 诊疗科目: 
\
内科・小儿科・皮肤科・外科・整形外科・眼科・耳鼻科・泌尿科・妇科・中医科・康复诊疗科・胃内视镜检査 ",,,"021 5204 6123 (zh,STAND)","INT (zh),PED (zh),DER (zh),CHI (zh),CHIRPL (zh),OPH (zh),URO (zh),GYN (zh),CHIN (zh),REHAB (zh),ORL (zh)",
163,Rejoy Dental Clinic,上海丽洁口腔门诊部,"Room906-907,SouthTower,HongkongPlaza, No.283 Middle HuaihaiRoad,Shanghai",上海市淮海中路283号香港广场南座906-907室,Shanghai,上海,200021,erman.hsu@dentalsmile.com.cn ,http://www.dentalsmile.com.cn/,31.229049,121.481419,," Rejoy Dental Clinic is an integrated dental medical institution specializing in dental prevention, treatment and dental health protection. Rejoycomprises internationally qualified residentialdentists from Taiwan and Japan with a wealth of clinical experience, and fully qualified nursing and support staff in order to meet all kinds of requirements from patients with diverse nationalities. The dental care systems and technologies we use atRejoy are all state-of-the-art, and our equipment is sourced internationally from leading global suppliers. We break with the stereotype of conventional clinics, offering aupscalehospitalization model for our patients.Rejoy specializes in CAD/CAM system for all ceramic restoration, implant, waterlaser and micro root canal treatment and others.
\
 
\
  
\
     Rejoy Dental Clinic, located on Middle Huaihai Rd in Shanghai, has a enjoyable and comfortable environment, cutting-edge medical equipment, professional qualified dentists, fully qualified nursing and support staff as well. We break with the stereotype of conventional clinics, making a high-levelhospitalization model for our patients available.
\
    The initial location selection of Rejoy Dental Clinic is based on people-oriented and eventually we choose the landmark in Shanghai to make sure patients can get Rejoy by any public transportation conveniently. 
\
    The environment design with full consideration of psychology stands out in Rejoy. Our treatment room, especially our lounge, has gentle light, soft music, fashion magazines, freshly prepared coffee, speedy Wi-Fi and so on, which all reveal our elaborate quality in details. 
\
    Dental equipment in Rejoy seeks for the synchronization with global high-end dental clinics. Rejoy provides patients the best professional and reliabletreatment with dentaltreatment center from Sirona, implant system from SwedenNobelBiocare and Procera’sbeauty restoration system. 
\
    Rejoy imported Bio-Laser YSGG equipmentin August 2011, which makes our human- based concept even more perfect. It can let patients do mini-invasive treatment without pains. The treatment will be relaxed and soon recovery to patients without injury caused by anesthetic. This Bio-Laser YSGG has been unanimously affirmed by our dentists and patientsin just a few months. 
\
     Rejoy will take advantages of the waterlaser to the greatest limit, getting more and more patients enjoy the high-tech method of treatment, and thus, we believe patients will get rid of the fear of visiting dentists. 
\
    We will keep trying to offer patients people-oriented services and wish we can give you the perfect beautiful smile…
\

\
 
\
Rejoy tells us working is not the only thing, but more important, we should enjoy our life! Rejoy helps us build our own dream and belief, providing us a boundless platform for us to create and make our dreams come true.
\
We never fell alone among Rejoy’s team.
\
We are proud to be Rejoyer We serve patients with qualified professional skills to reduce their pains and beautify their life. We are committed to devote ourselves to working on your dental health as our lifework. 
\
Smiles starts from Rejoy… 
\
 
\
 Our commitment is to make sure you can regain your beautiful smile. You will have a wonderful experience in Rejoy Dental Clinic with thoughtful treatment and services. We not only reshape your healthy and beautiful teeth, but also keep the status as long as possible.
\
 
\
"," 上海丽洁口腔门诊部是一所集口腔预防、治疗、保健为一体的综合口腔医疗机构。
\
     诊所的特色诊疗项目为CAD/CAM椅旁全瓷修复技术、口腔种植技术、水激光诊疗、显微根管治疗等，我们均重金引进了国际牙医主流的诊疗设备，并且聘请到台湾、日本专科医师驻诊。全方位满足不同国籍，不同需求的人群。
\

\
    上海丽洁口腔门诊部位于淮海路香港广场，舒适的就医环境，国际顶尖的医疗设备，配合专业的技术团队和客服专员，颠覆了人们以往对口腔诊所的印象，而呈现出一个高级口腔会所的氛围。舒适、惬意、专业是来访者最大的感官体会。
\
    诊所从最初的选址开始就以&quot;人性化&quot;为考量，选择了城市的地标性建筑，使客人搭乘任何交通工具都方便到达。 心理学级别的环境设计在丽洁齿科也得到充分的体现。柔和的采光，舒缓的音乐，时尚健康的书籍，醇香的现磨咖啡，极速WIFI连接等…细节之处尽显品质。
\
    诊所在设备方面也追求与国际高端口腔诊所同步，全数字化影像资料传输，德国Sirona高级牙科治疗椅、瑞典NobelBiocare种植系统，Procera瑞典瓷美容修复系统，为客人提供了最专业最可靠的诊疗项目。
\
    2011年10月Bio－Laser YSGG水激光设备的引进给我们&quot;人性化服务&quot;的理念锦上添花，它在治疗过程中做到微创，无痛。使治疗过程更轻松，治疗后恢复更快，更避免了麻药给身体带来的伤害。在使用了短短几个月时间里，得到了医生和患者的一致肯定。
\
    在以后的日子里，我们要把水激光的功能发挥到极致，让更多的患者享受到这种高科技的治疗方式，消除人们对牙科的恐惧。
\
 本着&quot;人性化服务&quot;的目标，我们会一直努力着, 奋斗着，我们的愿望就是给您更美的笑容...
\

\
丽洁告诉我们，不仅仅只有&quot;工作&quot;，更重要的是&quot;人生&quot;；
\
 丽洁帮我们树立自己的理想和信念，给我们创造和实现梦想的平台；
\
 在丽洁的团队中，永远没有&quot;孤独&quot;。
\
 我们以身为&quot;丽洁人&quot;而自豪，我们用自己苦学的技艺服务大众，为他人缓解痛苦、美化生活。您的口腔健康和美丽是我们全体丽洁人毕生的事业。
\
笑容从丽洁开始…… 
\

\

\
","上海麗潔歯科医院は口内予防、治療、保健を行う総合歯科医療機構です。
\
    医院の治療項目はCAD/CAMイスで全セラッミク修復、インブラント、水レーザー、顕微鏡による根管治療等なります。医院の設備は全部国際歯科医院で使用されている主流設備で，歯医者チームには台湾、日本の専門歯医者が常駐しています。全方位で多国籍，多需用な御客様にサービスを提供しております。
\
 
\
  
\
    上海麗潔歯科医院は淮海中路香港広場南座に位置し，快適な診療空間を提供致します，国際先端設備の配置と専門歯医者チームによる精度高い歯科医療サービスを提供しております。
\
    麗潔は医院場所の選定から&quot;人性化&quot;をポインドにし，上海市の代表的な建築を選び，御客様には任意の交通手段でも便利に到達できる。
\
心理学レベルの室内環境設計でも麗潔で表しています。柔らかめの采光，感性的な音楽，ファッション健康の本棚，香り一杯のコーヒー，高速WIFIの接続等…細かい所で品を表している。
\
    麗潔の設備にも国際先端歯科医院と歩調を合わせている，全デジタル化のデータ伝送，ドイツSirona高级歯科治療イス、スウェーデンNobelBiocareインブラントシステム，Proceraスウェーデンセラ美容修復システム，御客様には専門度と精度高い歯科治療サービスを提供しております。
\
    2011年10月にはBio－Laser YSGG水レーザー設備の導入で更に我々の&quot;人性化サービス&quot;理念に添え物をしました。水レーザーは治療中には無痛、プチ傷で治療過程をもっと楽になった。治療後の回復も早くて，麻酔による人体への障害を回避しました。短期間内で患者様と歯医者から高い評価を頂きました。
\
    今後も引き続き水レーザーの効果を最大限に発揮し、多くの患者様に良いサービスを提供すると同時に歯治療に対する恐怖感を排除します。
\
&quot;人性化サービス&quot;を提供する目標で，我々が引き続き努力致します、我々の願望は御客様に素敵な笑顔を与えることです...
\

\
  
\
麗潔は我々に教えたのは人生は仕事だけではなく、最も重要なの は人生である；
\
麗潔は我々に理想と信念を持たしてくれました，我々に夢を創造、 実現の舞台を提供してくれました； 
\
麗潔のチームには&quot;孤独&quot;永遠ありません。
\
我々は&quot;麗潔人&quot;として誇りを持っている，自分で学習した技術を皆様にサービスを提供します，御客様の苦痛を解決します。御客様の口内健康と歯の美しさは我々全体麗潔人の一生の追及である。 
\
笑顔は麗潔から開始…… 
\
 
\
  
\
    麗潔の約束：我々は貴方再度笑顔を取り戻す始発駅です。ここで，貴方は快適な診療とサービスを受けられます。我々は貴方に提供するのは&quot;健康、美しい歯&quot;，更に&quot;如何に健康と美しさを維持すること as long as possible&quot;.
\
 
\
",,"021 3331 5001 (zh,RDV),021 3331 5660 (zh,RDV)",DENT (zh),
164,EuroEyes Eye Center Shanghai,德视佳眼科,"5th floor, J-Life Center, JinMao Tower, No.88 Century Avenue.",浦东世纪大道88号金茂大厦裙楼5楼,Shanghai,上海,200121,Shanghai@euroeyes.com,http://en.euroeyes.cn/,31.24137,121.511909,,"EuroEyes is Germany's largest clinic group for laser eye treatments (ReLEx smile, Femto-LASIK, LASIK, PRK/LASEK) and refrative lens treatments (ICL, phakic IOLs, multifocal IOLs). Since 1993, more than 300,000 eye treatments have been carried out by EuroEyes surgeons. Our experienced top doctors always use the latest technology and the best methods available. On this basis EuroEyes is able to correct vision disorders like nearsightness, farsightness, astigmatism and presbyopia.
\

\
Since March 2013 our eye clinic in Shanghai has been offering our certified service and a wide range of EuroEyes treatments (ReLEx-SMILE, LASIK, eeLASIK, FEMTO-LASIK, Multifocal lens, ICL). You can find our Laser Eye Center for LASIK in JinMao in Shanghai. 
\
 
\
Make an appointment if you want to know whether your are a suitable candidate for LASIK in Shanghai. You are also very welcome to join us for one of our information evenings, where we can answer whatever questions you mighthave.  The Shanghai  Team is looking forward to seeing you!
\
 ",德视佳眼科（EuroEyes）成立于1993年，在德国及北欧拥有20多家眼科激光手术中心及眼科诊疗门诊，提供全飞秒ReLEx SMILE近视矫正术，飞秒激光屈光矫正术、LASIK准分子手术、PRK、LASEK，ICL晶体植入术，飞秒激光多焦点人工晶体置换术以及一系列屈光晶体置换手术，是德国乃至欧洲最大的连锁眼科激光手术机构之一，迄今已成功实施35多万例眼科手术，是德国取得LASIK手术TÜV最高安全质量标准认证的少数手术中心之一。德视佳眼科（EuroEyes）拥有经验丰富，专业可靠的眼科医生团队，高端先进的眼科技术设备，以技术精湛、手术安全可靠，提供个性化治疗方案，力求达到最佳术后视觉效果为准则，为近视、远视、散光、老花、白内障以及各类眼底病、角膜病患者提供专业的诊疗服务。德视佳眼科（EuroEyes）在中国的第一家手术中心在2013年新年之际，于上海陆家嘴金融区金茂大厦正式开业，诊所技术及设备完全来自于德国，手术医生团队完全来自德国，技术质量标准完全遵循德国最高质量安全标准TÜV认证的要求，力求为中国高端人群提供完全国际化标准的高端眼科诊疗服务。,,,"400 827 5997 (zh,STAND),021-5869 7999 (zh,STAND)",OPH (zh),
165,Shanghai Green Clinic,上海 グリーン クリニック,"1st Floor East Tower, Sun Plaza,No. 88 XianXia Road, Shanghai",上海市仙霞路88号太陽広場東塔1階(E1F),Shanghai,上海,,info@greenclinic.com.cn,http://www.greenclinic.com.cn/,31.211355,121.410613,,,,"私たちはこんなクリニックです 
\

\
海外で活躍される日本人のための総合メディカルセンターです
\

\
上海及び周辺地域の在留邦人の皆様の健康で充実した海外生活をささえるために、（財）倉敷成人病センター（岡山県倉敷市）により2003年に開設されました。私たちは日本人
\
の方が上海で言葉、医療制度、文化、薬、病気の違いでお困りにならぬよう、診療活動を続けています。
\

\
日本人医師・日本人医療スタッフを中心とするクリニックです
\

\
医師9名のうち5名は日本人（医師団）です。放射線技師、薬局、看護婦、受付、事務等の日本人スタッフと日本語を話す中国人のスタッフでクリニックを構成しています。 医師は日本の医師免許を持ち、また、中国政府から正式に診療許可を取得しています。
\

\
上海における各科専門治療の窓口となります 　
\

\
当院の医師がまず診察をさせて頂いた上で、必要な場合は専門医（専門病院ネットワーク）をご紹介します。診察の後、入院が必要と認められる場合でも同様に手続きいたします。 
\

\
総合メディカルクリニックです
\

\
外科、内科、婦人科、小児科他、全科のプライマリーケアを行います。
\
 院内には胃内視鏡、超音波、臨床検査、X線などの検査設備、薬局を整えております。
\
また、MRI、負荷心電図、その他詳しい検査が必要な場合は、専門施設を手配いたします。
\

\
健康診断、予防接種、健康診断書作成も行っています
\

\
健診部門（健診センター）では日本国内と同様の外来人間ドックを行っています。また各種予防接種も用意しております(詳しくはお問いあわせください)。受験や入学のための診断書の作成も行っています。 
\

\
夜間･休日も対応するクリニックです
\

\
受付時間終了後及び休日も当直医（日本語話せる中国人医師）が時間外の緊急診療相談に応対しています。当直医による対応時間終了後はSGCコールセンターのオペレーター（日本語）が当院提携専門医や救急病院のご案内と通訳をいたします。
\

\
キャッシュレスメディカルサービス、会社宛請求も承っています
\

\
日本の主要保険会社とアシスタンスサービス会社との提携によるキャッシュレスメディカルサービスで、海外旅行傷害保険にご加入の場合は病気･怪我の治療費を当院が直接保険請求いたします。
\
また、事前に契約のある場合はお勤めの会社宛請求も行ないます。
\
",,"130-6169-8803 (ja,URG),021-6208-2288 (ja,RDV),021-6219-9528 (ja,STAND)","INT (zh),PED (zh),CHIRPL (zh),CHI (zh),ECHO (zh),DENT (zh),IMG (zh),GYN (zh)",
166,PG Dental,平光齿科,"Room 2404, Charity Plaza, No. 88, CaoXiBei Road,XuHui District, Shanghai.",徐汇区漕溪北路88号圣爱大厦2404室,Shanghai,上海,,info@PGdental.cn,http://www.pgdental.cn/,31.198255,121.443452,,"PG DENTAL： 
\
Led by Henry Tsai D.D.S., PG Dental is an international dental group founded by the Tsai Family from Taiwan.With three generations of combined experience in dentistry, Dr. Henry Tsai is devoted to bringing the advanced dental technology from the U.S. and Japan to Shanghai.Moreover, our ADA standard sterilizing system, advanced equipments and professional team assures to serve patients who are from all over the world to this great city.  
\
 
\
LAB: 
\
With careful listening, precise planning and working with one of Shanghai's best laboratory technicians, Quan Li, Dr. Tsai successfully helps patients create natural teeth and bright smiles that feel good and last. Li studied in Japan and worked with Dr.Tsai for years. This unusual professional harmony and personal friendship ensure patients receive the finest treatment. 
\
 
\
","背 景： 
\
　　平光齿科是台湾平光齿科集团在上海设立的联营齿科诊所。在美籍台湾医师蔡宗恒Dr. Herny Tsai院长的主持下，我们的团队不仅拥有国际先进技术、严格的进口消毒系统和一流的牙科设备，更以亲切的服务为大上海地区的各国病患提供先进的齿科服务。 
\
 
\
技 工 所： 
\
　　国内知名的牙齿加工所，技工师留学日本，并与平光齿科有着长年的合作关系。无论是与医师的配合度、制作技术，还是优质加工材料的选材，都是最佳的，保证患者配戴的假牙、牙冠美观、舒适和安全。 
\
 
\
卫 生 消 毒： 
\
　　采用国际标准防感染操作，国外一流高温高压消毒设备，解决了消毒中存在的隐患，一人一机彻底杜绝交叉感染。让患者远离各种病菌、污渍，完全保障就诊卫生、安全。 　 
\
 
\
医 疗 设 备： 
\
　　诊所各诊室均统一配有口腔内窥镜系统和全数字化X光片设备，通过各诊室配备的液晶显示器来成像，使得患者能更安全、更快捷、更清晰的了解自己的口腔情况。  
\
 
\
诊 所 环 境： 
\
 　　诊所环境优雅，舒适宜人。以白色为主，附以浅绿、天蓝、嫩黄等暖色调更好的缓解了牙齿治疗的紧张气氛，让您不再害怕踏进口腔诊所，接受牙齿治疗。舒适的候诊区解决了您等候的烦恼，在这里您可以挑选杂志、宽带上网等。
\
　　 每个诊室的牙椅上均配有液晶显示器，在治疗过程中您可挑选自己喜欢的歌曲MTV或影视动画片来放松心情。
\
　　 诊所配有独立的卫生间和洗漱间，方便患者使用。此外，诊所还配有公共宣传栏，可以使患者在就诊前了解更多的口腔知识和保健常识。 
\
",,,"(021)6451 4711  (zh,RDV),(021)6451-5351  (zh,RDV)","DENT (zh),DENT (en),DENT (ja)",
167,Shanghai Kooka Dental Clinic (Pu Xi),恒佳齿科,"Room 3f,No. 400 Chang-le Road, JJ D Center（near to Garden Hotel）,Shanghai",上海浦西卢湾区长乐路400号3楼 （兰心大剧院对面）,Shanghai,上海,,,http://www.kooka-dental.com/,31.2269,121.465762,,"Kooka Dental was founded by Tokyo Shiseikai Dental group and the dental experts from Tokyo Dental College in the year of 2004 in Shanghai. It has kept a long-term treatment corporation with Hosoya Oral Implant Center of Japan.  kooka Dental is the top specialized international chain in Shanghai with many professional and rich- experienced dentists at home and abroad. Our team provides you a wide range of dental treatments varying in orthodontics, oral implant, aesthetic prosthodontics and preventive dental dentistry.
\

\
Kooka Dental caring team members are well-trained, and with oversea training background , including senior experts in American MBT Orthodontics , Japanese implant and periodontal experts who master both English and Japanese.
\
 
\
Kooka Dental adopted the advanced medical equipments and high-tech dental materials in accordance with FDI international standard. We are committed to offering our patients a personalized and private service with a comfortable, relaxed environment, exceptional dental care of painless treatment while maintaining the strictest sanitary and sterilization system to prevent each of our patients from cross-infection.
\
 
\
Kooka dental is the first dental clinic in China that has adopted the TQM (total quality management) system in general treatments to ensure every patient to enjoy the high-qualified dental service. Our philosophy is “A great physician with exquisite technique and sincere heart “. We are looking for people who share our passion for a perfection and accuracy of dental treatment and would like to bring every family a lifetime of bright and healthy smiles.","恒佳齿科于2004年在上海成立。恒佳齿科是集牙齿诊疗、正畸、种植、修复、美容及口腔预防保健为一体的全方位连锁机构，也是上海地区具备国际顶尖医疗专业水准的齿科国际化 高端连锁口腔机构。恒佳齿科的医疗团队由多位临床经验丰富的美国MBT正畸技术资深专家、具有国外深造背景的口腔医师组成的专家 团队，专家可直接用英语、日语为国际人士提供全方位的口腔医疗保健专业服务。
\

\
恒佳齿科采用符合世界牙科联盟（FDI）标准，国际先进的医疗设备和国际最先进的诊疗仪器及高端材料，并为患者提供私密舒适的一人一诊间的诊疗环境下享受我们特殊的无痛治疗技术。所有诊疗器械采用全程消毒隔离手段，保证在诊疗过程中无交叉感染。
\

\
恒佳齿科是国内首家推出具有高水准的TQM全面质量管理，确保为客户提供国际化的品质服务。恒佳齿科还肩负着带动国内口腔行业的发展和壮大以及推动国际 交流的重任。恒佳将承载着打动千万消费者的温馨感受，让口腔健康走进每一个家庭！以大医精诚的精神树立优秀医院的形象，成为业界最知名和最受信赖的医院。
\
","　　日本東京都歯生会－上海恒佳歯科医院は、東京歯科大学と日本東京都歯生会の臨床でのハイテク材料と高い水準の診療理念のもと、上海に開院された先進的な歯科医院です。当歯科医院の主要な特徴は、日本の進んだ歯科の粘着技術と修復技術を用い“できるだけ歯を削らない、歯神経を抜かない、歯を抜かない”という事です。歯を保護する理念は日常の臨床治療の中で最大限実現されます。
\

\
当歯科医院は古代著名医孫思邈の理念“大医精誠｛技術を極め（精）患者様に対するまっすぐな姿勢（誠）}”から学びながら日々心がけ、患者様中心の医療を追求して参りたいと考えております。
\

\
恒佳歯科医院の治療方式?運営メカニズムや操作の流れは、すべて日本歯科医療体制に基ずいたものです。予約受診制度を採用して、必要最小限のお時間を患者様から頂き、密度の濃い治療をすすめてまいります。担当医責任制により全治療過程、責任をもって進めて参ります。落ち着いた雰囲気の診療室の環境と、厳密な滅菌消毒体制のもと、患者様に１本１本の歯にこだわり続けながら人生を全うして頂く、そんな思いを込めて、日々診療に従事しております。
\
",,"021 64459927 (zh,STAND)",DENT (zh),
169,iSMILE Dental Clinic,永颜口腔诊所,"No. 55, South Shui Cheng Road, Changning District, Shanghai.",上海市长宁区水城南路55号六月汇广场5楼（古北家乐福对面）,Shanghai,上海,201103,info@ismile-dental.com,www.ismile-dental.com,31.202159,121.399418,,"iSMILE Dental Clinic, located in Gubei (opposite Gubei Carrefour), was founded by Dr. Lei Yang and opened on Sept 22nd, 2011.Dr. Yang received his dental certifications from Japan, where he has been a practicing dentist for over a decade. While in Japan, he achieved renown and was well-respected as a specialist in the fields of dental implants and aesthetic dentistry. In fact, all of our dentists, (who come both from China and other countries), have a wealth of experience in dentistry and can ably offer every one of our patients the most professional and accurate dental diagnoses. We also proudly offer our services in a variety of languages, including Chinese, Japanese and English, which enables easy communication between patients and dentists without any language barriers.
\

\
iSMILE Shanghai Dental Clinic is committed to using a combination of our highly skilled dental technicians, state-of-the-art dental equipment, and warm, friendly service together to offer high quality, customized oral treatment plans to all of our patients regardless of their country of origin. Each of our dentists is always accompanied by a professional assistant, thereby utilizing a “four hands” service technique and meeting the highest international standards, in order to provide you with the most meticulous and attentive service possible. 
\

\
iSMILE Dental Clinic adheres to the strictest standards of sterilization, as set forth by the American Dental Association(ADA), to prevent any possibility of cross-infection. There is a special sterilization room, (the sole purpose of which is to ensure sterile instruments,) which is a “clean” room, where the air is sterilized and the room is lit by ultraviolet light. All of our dental instruments are doubly sterilized, first by soaking in specially treated water containing disinfectant and then followed by exposure to a high-enough temperature to kill any and all bacterium. Finally, some of our instruments are purposely designated as single-use-only and are never reused. 
\

\
All of the dentists in our clinicuse plain and simple language to explain our suggested treatment plan to our patients patiently and carefully. In this way, we will jointly develop the final plan together with each individual patient, obtaining your understanding and consent prior to every step of the treatment process. All of our patients will be accompanied by our professional nursing staff during treatment to reassure you with constant support and easy communication.
\

\
iSMILE Dental Clinic is on the cutting edge of dentistry, using the most state-of-the-art dental equipment, instruments and dental materials, such as the Nobel implant system from Sweden and the Sirona digital x-ray machine from Germany. Our advanced technology and comprehensive services can guarantee perfect treatment results every time.
\
","永颜口腔诊所坐落于古北高档社区繁华地段(古北家乐福对面)，2011年9月22日对外营业，由日本留学博士杨磊医生创办，聘请多位中国以及外籍的口腔专科医师以及资深专家坐诊，给患者讲解并实施更全面、权威、科学可行的诊断治疗。杨磊医生持有日本和中国两国的口腔医生行医执照，在日本行医十数年，对于各类疑难杂症颇有经验，特别对于种植手术、贴面美容修复等，在业内享有极高荣誉。诊所聘请中、日、美等多国资深专家医生，为患者提供中、日、英等多语言诊疗环境，让医患沟通无障碍。 
\

\
永颜口腔致力于将先进的口腔设备、高超的诊疗技术和温馨的服务相结合，为各国人士提供量身定制的高品质口腔治疗服务。每位口腔医生都配备专业的口腔护士助手，实行国际标准的四手操作体系，为您提供专业、细致的专业服务。 
\

\
永颜口腔严格遵照美国齿科协会（ADA）标准进行消毒，杜绝交叉感染。配备消毒室、无菌室，用紫外线灭菌灯进行空气消毒，医疗设备每次使用前都经过消毒液浸泡和高温高压双重消毒，不能高温高压消毒的器械均为一次性使用。 
\

\
永颜口腔的医生会用通俗易懂的语言向患者耐心细致地解释治疗计划，与患者共同制定最终的治疗方案，每一步治疗都会事先取得患者的同意。就诊过程中，医护人员全程护理，与患者进行交流沟通。 
\

\
永颜口腔采用国际最先进的牙科设备、仪器及材料，率先引进大量国际领先材料及现金技术，如瑞典诺贝尔nobel种植牙系统，西诺德sirona系列X光数码机等，为患者提供更多更全面的治疗方案，保证了患者治疗后的完美效果。
\
","古北エリア中心部（古北カルフール向い）に位置するアイ・スマイル上海 歯科（永顔口腔）は、2011年7月11日にオープンいたしました。院長の楊磊医師は、日本の長崎大学で博士号を取得した、日本と中国両国の歯科医師免許を持つ数少ない中国人医師であり、日本で十数年に渡り複雑な口腔治療に携わってきました。特に、インプラント手術、審美歯科において、業界内で高い評価と賞賛を得ています。日本、中国、欧米等各国から集まった経験豊かな専門歯科医師が、日・中・英の各言語に対応し、治療計画を立て、詳しい説明を行った後に治療にあたりますので、安心して診療を受けていただけます。
\

\
●アイ・スマイル歯科では、最新の設備を揃えており、高い治療技術と温かいサービスで、患者様それぞれのご要望に対応したハイクオリティな診療を行っております。また、国際基準に従い、各医師に口腔専門の看護師を配備。質の高い、きめ細やかなサービスを提供しています。
\
●アイ・スマイル歯科では、アメリカ歯科医師会（ADA）の基準に厳格に従って消毒・滅菌を行い、院内感染を徹底的に防止。消毒室・無菌室の完備、紫外線殺菌ランプによる空気殺菌、毎回使用前には消毒液及び高温高圧滅菌により医療設備を消毒、高温高圧滅菌ができない機材は使い捨てのものを使用しています。
\
●アイ・スマイル歯科では、総合的な診療後に医師が分りやすく丁寧に治療計画の説明を行い、患者様と一緒に最終の治療プランを決定、各治療ごとに患者様の同意を得ています。医師、看護師ともに、診療過程において患者様とのコミュニケーションを大切にしています。
\
●アイ・スマイル歯科では、nobel(ノーベル)社のインプラントシステムやsirona（シロナ）社製のパノラマX線システム・歯科用機器といった、世界でも最高の歯科設備・器具・材料を導入。オペルームも完備しています。お口の健康を全体的に考慮した、複数の治療プランをご提供しており、治療後ご満足いただける効果が得られるよう、治療体制を整えております。
\
",,"4006 850 288 (zh,STAND),021 - 3250 7127 (zh,RDV)","DENT (zh),DENT (en),DENT (ja)",
170,Jsmiles Dental Clinic,君笑齿科,"12th Floor of Westgate Plaza, No.1038, West Nanjing Road, Jingan District",南京西路1038号梅龙镇广场12楼,Shanghai,上海,,,www.jsmiles.com,31.23479,121.463177,,"Jsmiles Dental in Shanghai offers the newest technology in American dentistry in a relaxing and pleasant spa-like setting. The dentists at Jsmiles use the best clinically proven materials and offer comprehensive dental examinations to help the patient better understand their dental situation so they can make informed decisions. Unlike most dental clinics in Shanghai, Jsmiles Dental emphasizes preventive care so patients can enjoy a healthy and pain-free mouth for a lifetime. 
\

\
Dr. Tommy Ma is the Director and Founder of Jsmiles Dental in Shanghai.  He received his Dental Medicine Doctorate degree from the University of Mississippi and has been delivering high quality dental services to patients at his clinic in Atlanta Georgia since 2004 and currently at Jsmiles Dental in Shanghai, China.  Dr. Ma's Jsmiles Dental Clinic is currently the only clinic in Shanghai owned and operated by an American dentist, which means you will receive the same dental experience and treatment as you would expect in the United States. 
\

\
At Jsmiles Dental, we believe that maintaining good oral health is an important component to having a confident smile so we also offer traditional dental services in additional to our cosmetic services.  Our team has extensive experience with Endodontics, Pedodontics, Prosthodontics, Oral &amp; Maxillofacial Surgery and Orthodontics.  We also have experience with popular American cosmetic procedures such as No-Reduction Veneers, Removable Smile Appliances, Crowns , Chairside Whitening, and Implants.  From Orthodontics to teeth whitening and veneers, Jsmiles can help your oral health and enhance your smile. 
\

\
Each person's smile is special – and your experience with us should be as well. Our office is designed to help ensure your visit at Jsmiles is as pleasant and soothing as possible. We are equipped with intra-oral cameras, LCD screens, advanced anesthetic delivery systems and noise canceling headphones for your comfort.
\

\
","Jsmiles君笑齿科隶属于上海君笑口腔门诊部有限公司，源自美国，服务中国。由美国牙科博士主办，位于交通便利的南京西路梅龙镇广场。Jsmiles采用最新技术，按照当今最高标准为您提供全方位的齿科治疗，保健及美容。我们的宗旨是让我们的每一位客户都拥有自信健康的灿烂笑容。
\

\
以此为目标，汤米-马博士和他的团队以经过临床试验的最高质量的材料和当前的尖端牙科技术，为您提供顶尖的服务。马博士毕业于美国密西西比大学医学院，在美国亚特兰大创立了自己的齿科诊所，为当地客户提供优质的服务并积累了多年的牙科经验。马博士和他的团队深信，无论身处何地，每个人都值得拥有一个漂亮、健康的笑容。现在，马博士来到了上海，为您带来了最新的牙科技术，以让您的笑容更加美丽自信。
\

\
除了传统的治疗方法，比如烤瓷牙，冷光美白，种植牙，铸造冠修复，矫正等，君笑齿科还能为您提供当前最新的牙科美容治疗技术，包括超薄牙贴面治疗技术以及 可脱卸美白牙套 。
\

\
和国内大多数的齿科治疗不同，我们会针对您的要求进行详尽全面的牙科检查和评估。之后，根据检查数据和结果，马博士和他的专家组(牙周专家，牙髓专家，口腔外科专家，正畸专家)将讨论和制订出最适合您的牙科美容治疗及健康方案，打造您最美丽自信的笑容。
\
",,,"021-3530-6320 (en,STAND),400-630-6320 (en,RDV)","DENT (zh),DENT (en),DENT (fr),DENT (it),DENT (pt),DENT (es)",
171,Dr.Zhou's Dental Clinic,上海周斐斐口腔诊所,"Room 01B,30F,Jianhui Building,No.922, Hengshan Road（Next to the Pacific Department Store XUJIAHUI）",上海市衡山路922号建汇大厦30楼01B室,Shanghai,上海,,drzhoush@163.com,www.dentistinshanghai.com,31.201808,121.445454,,"Thank you for considering Dr.Zhou's as your professional dental care provider in Shanghai. We are here to help you with your dental health from a simple Teeth cleaning and teeth whitening to a more complex dental work such as cosmetic dentistry, dental implants, periodontal treatments &amp; orthodontic and wisdom teeth extraction. 
\

\
Dr.Zhou's Dental Clinic has been serving the English-speaking community in Shanghai for over 4 years and has bulit a good rapport with many professional patients in need of dental treatment over the years. The office has gained the trust of many people around and near the city by delivering an unrivaled level of expert personal dental care to each and every patient. 
\

\
In 2008, we were honored by Shanghai Star as one of top Foreign Dental Clinics in Shanghai. We are also appointed by the Swiss Chinese Chamber of Commerce in Shanghai as the company's Dental Clinic. 
\

\
Fell free to call us at 64470390 to schedule a free consultation where we can talk about your needs and desires. We are looking forward to meeting with you.","2005年，我们开设了这家温馨口腔诊所——上海周斐斐口腔诊所。希望能够以专业的水准，用心的态度帮助每一个珍惜，爱护自己牙齿的人。
\
    专业 -- 从治疗理念的精细化到材料选择的人性化，我们一直以超越本土医疗水准的眼光要求自己。这不是广告说词，只因我们的医生曾有海外先进地区行医经验，深知上海与海外的差距在哪里。
\
    用心 -- 我们鼓励您与医生之间有充分的表达和沟通。彼此的信任是治疗成功的基础，这也正是目前中国所缺乏的。
\
    医者仁心，视病犹亲不是口号， 是我们秉持的职业素质。提供您最准确、迅速的口腔服务，則是我们的的核心价值。
\
    从第一通电话中的疑惑，到向亲朋好友们的推荐，您态度的变化是对我们职业最好的诠释。
\
我们欢迎您！
\
",,,"(021) 64470390  (zh,RDV)",DENT (zh),
174,Smile Dental,上海思迈登口腔门诊部,"4F，Commercial Building, No.215, Hefei Road, Huangpu District, Shanghai.(Convenient Xintiandi Location,Free parking)",卢湾区合肥路215号精益商务楼4楼,Shanghai,上海,,s1@smiledent.cn,www.smiledent.cn,31.220698,121.482812,,"You've come to know Smile Dental as the health-oriented professionals who always have your overall well-being in mind. Smile Dental offers complete oral care, from teeth cleaning and whitening to cosmetic restoration, Cerec© one-stop tooth replacement, implants, crowns, bridges and denture realignment services, to gum disease treatment and oral surgery, all within one facility!",上海思迈登口腔门诊部坐落于新天地区域，是一家专业的口腔门诊，提供牙齿种植、牙齿正畸、牙齿修复等项目。门诊拥有真正的国际化医师团队，让更多的人尽情享受美丽的笑容，秉持让&quot;美丽的微笑始于健康的牙齿&quot;的理念，为客户提供高端的专业口腔医疗服务。让每位客户在体验完美口腔服务的同时，更能得到品质的保证。,,,"400-882-0506 (zh,RDV)","DENT (zh),DENT (en)",
176,Towako Clinic Shanghai,上海永惠门诊部,"4/F, No.6, Lane 800, Huashan Road",上海市华山路800弄丁香公寓6号裙楼4楼。（镇宁路、长乐路交叉口）,Shanghai,上海,,syhh@syhh.net,http://www.syhh.net/,31.220707,121.445564,,,"作为在沪最大、最具特色的对日专业医疗机构：
\
 永惠华以提供纯正日式医疗服务为宗旨，以服务日籍人士和国内高端人群为目标，遵循日本医疗机构经常采用的优新治疗方案，严格执行“一对一”的诊疗和保密制度，为患者提供最优质、最高档、最私密的诊疗服务。
\
 作为在沪最大、最具特色的对日专业医疗机构：
\
 永惠华以日本加藤妇女医院、永遠幸妇女病院、藤野妇女門診部、美国New Hope Fertility Center为国际技术合作依托，同各海外医疗保险公司及其代理公司合作，以提供妇科、生殖健康和不孕症、医疗美容科、中医科、内科、男科、小儿科等全科诊疗服务为主要医疗业务。
\
 作为在沪最大、最具特色的对日专业医疗机构：
\
 永惠华的医护和管理人员多属留日归国优秀人才，可进行无隔阂、无障碍的双语沟通。医护人员深谙日本国内的医疗服务特点和服务流程，熟悉日籍人士疾病的常见发病机理，能及时、准确地做出各种判断并给予最合适的治疗方案。
\
 作为在沪最大、最具特色的对日专业医疗机构：
\
 永惠华门诊的整体建筑和医疗流程设计，均由日本设计师和日本医疗资深人士担当。院内装潢采用了大量进口环保和高科技材料：高效新风系统、吸尘杀菌系统、超净生活医疗用水系统以及大量先进医疗器械等等得到实际利用。院内色调典雅、温馨，配套服务设施齐全。
\
 作为在沪最大、最具特色的对日专业医疗机构：
\
 永惠华依托日本加藤妇女医院的强势支持，以“自然周期法”和玻璃化冷冻技术为技术支撑，从维护女性身体健康、维系家庭和谐角度出发，引领不孕症治疗技术的发展方向。 ","婦人科が特色の上海で一番大きい規模の日系総合クリニックです。
\

\
 永恵華クリニックは不妊治療で高い評価を得ている加藤レディスクリニックの関連施設であり、永遠幸医療グループの資金と技術提供を受けて2005年11月に開設しました。
\

\
 さらに、先進医療設備や日系医療機関として上海で一番と誇る床面積1983平米あまりの規模を生かして、最先端な婦人科や不妊症治療のサービス以外に、より多くのニーズ、特に日本人団体や医療保険会社の要望に応えるため、2006年10月からは、外科、内科、眼科、小児科、中医科、健康診断、女性外来など幅広い診療ができるようになりました。
\

\
 当クリニックは医療機器や施設の整備などのハードのみならず、日本人か日本語できる医師や看護師が多数在籍しており、日本語で対応できるだけではなく、日本での実務研修も実施してすべてを日本スタンダードで行っています。日系医療機関がゆえに永恵華職員は上海在留日本人に木目細かい医療サービスを提供します。
\

\
 永恵華クリニックは日本人設計士により、内装に使われた建材からその他機材の多くを中国国外から輸入し、高水準な換気・浄水機能など国内にはない院内環境を造る事に成功しました。
\

\
 永恵華クリニックは東京の加藤レディースクリニックの多大なる協力の下、自然周期法、ガラス化凍結保存法の技術を使い、不妊治療でも大きな成果を出しています。 
\

\
",,"（021）62113333  (zh,RDV)","GYN (zh),INT (zh),CHIN (zh),CHIRPL (zh)",
177,Global Specialist Group,上海脊椎醫療中心,"No.491 Yi Li (South) Road, Changning District",上海市长宁区伊犁南路491号,Shanghai,上海,200336,info@spine.sh.cn,www.spine.sh.cn ,31.201791,121.4117,,"This place has one of the best chiropractic care in Shanghai! They also provide women's health care and psychological consulting. Definitely something to check out if you are experiencing back pain, prenatal problems or any other physical discomforts.
\

\
Our services in Shanghai : Chiropractic, Osteopathy, Physical Therapy, Orthotics, Orthopedic, Psychology, Spinal Screening and Sports Medicine. We are a professional team offering a multi-disciplinary approach to physical medicine. Our team is comprised of Australian chiropractors and osteopaths as well as orthopedic surgeons from the USA, China and others. We pride ourselves on providing the highest level of Western health care. Our superior service is combined with the best of Western and Chinese technology. GSG is the first clinic to offer this multi-disciplinaryapproach to health care in Shanghai. We help our patients to achieve the optimal level of their well-being physically, psychologically, and spiritually.Our department is certified by the International Standardization Organization (ISO 9001) so you can be certain of the high quality of our service.   
\
",歡迎來到上海脊椎醫療中心，本中心是上海唯一提供脊椎醫療服務的涉外專業機構，由脊椎神經科，整骨科及康復科專家組成。 其總部設立在澳大利亞，分別在新加坡，泰國，香港等地都有分院。我們提供的服務有：正骨，整骨，整脊，理療，康復，功能鞋墊，骨科，精神科，运动伤害治疗等。本中心利用先進的中西方医疗技术，通過特殊的手法矯正，物理治療，肌肉运动疗法以及营养療法來實現醫療目的。自2002年上海分院開張以來，我們高品質的醫療服務和國際化的服務理念，深受各界外籍人士和國內廣大患者的歡迎和信賴，希望我們能幫助您重新擁有健康的生活。 ,,,"021-22816522  (zh,STAND)","KINE (zh),REHAB (zh)",
178,Wooridul International Spine Hospital,我立德医院,"No.106 Shi Guang Yi Cun, Guohe Road, Yangpu District",上海市杨浦区市光一村106号,Shanghai,上海,,wolidechina@163.com,www.wolide.com,31.324105,121.54398,,"On the spirit of love and human respect, aids the people of the world by minimally invasive spinal surgery and techniques, (MISST) to lead normal or better quality of life.","我立德医院集团是拥有脊柱专业诊疗近30年经验的国际脊柱医院集团。自1982成立以来不断改写脊柱疾病治疗历史，已经成为在韩国釜山温泉洞、首尔清潭洞、金浦机场、釜山乐民、大邱、浦项，中国上海，印度尼西亚雅加达，阿联酋9家脊柱专业医疗机构的医院集团。吸引了全球众多从事脊柱研究及专业治疗的医生专家前往Wooridul集团总部进行学习深造。
\
 
\
      2009年1月韩国我立德医院集团海外首家分院在上海落户，由韩国我立德医院集团和天津天士力集团共同投资兴建。上海我立德医院是中国首家涉外脊柱专科医院。不仅脊柱疾病治疗水平在国际上遥遥领先，且与国际服务标准同步 。精确诊断、快速治疗，检查——诊断——治疗可在一天内一站式完成，并为您提供专任诊疗组、专职护士服务，为使更多国际友人享受优质体贴的服务，我们还提供中、英、日、德、韩等多国语言服务，以最短的时间为您解除病痛，帮助您重新拥有健康的生活 。上海我立德医院特有的“内窥镜激光椎间盘摘除术”等微创脊柱手术在临床上成功率高达95%以上。
\

\
作为一家跨国医院，上海我立德医院不仅提供中、英、日、韩、德等多国语言服务，为您提供量身定制的专诊个性化诊疗，且与国际服务标准同步，提供与多家商业保险公司的直接结算服务，幽雅宜人的环境，有别于传统医院的嘈杂与拥挤，先进的设备、专业的医师队伍、尖端技术、透明收费、星级服务、即刻治疗、顾客至上是上海我立德医院为您创造的人性化的服务宗旨。",,,"8008196900 (zh,STAND)","ORTHOPEDIE (zh),NEUC (zh),INT (zh),CHIN (zh),RAD (zh),ANE (zh)",
179,French Dentist - Shanghai Mart,法国牙医,"Shanghai Mart, No.2299 Yan'an West Road, Room 1711-1712, 17th Floor, Changning District Shanghai",上海市长宁区延安西路2299号上海世贸商城1711-1712室,Shanghai,上海,,thefrenchdentalclinic@gmail.com,www.frenchdentist.cn,31.207155,121.406237,"Choisir un dentiste qui vous convienne et convienne à votre famille est très important, car c'est une relation que vous garderez probablement pendant plusieurs années. C'est pourquoi à French Dentist, nous nous efforçons de maintenir des standards très élevés. Nous ne prenons pas de risques avec votre santé bucco-dentaire et il est primordial que vous vous sentiez à l'aise et confiant à nos côtés.
\

\
Nous comprenons qu’un personnel hautement qualifié et amical, que des équipements à la pointe de la technologie ainsi qu'un large éventail de services sont des qualités qui vous recherchez avant toute chose. C'est pour cela qu' à French Dentist, nous offrons des soins dentaires complets: dentisterie esthétique, implantologie , prothèses dentaires , dentisterie pédiatrique , l'orthodontie, et bien sûr, la dentisterie générale et les services d'hygiène .
\

\
French Dentist a été créé en 2007 et a prouvé son constant engagement à fournir des soins de haute qualité. Notre équipe de dentistes et de spécialistes hautement qualifiés vient exclusivement de France, d' Allemagne et de Corée, et ils sont choisis pour leur engagement à d'excellents résultats et l’attention tout particulière qu’ils portent aux patients.
\
","Choosing a dentist that suits you and your family is very important as this is a relationship that you will probably have for many years. That is why at French Dentist, we strive to maintain very high standards. We do not take risks with your oral health and it is important to us that you feel comfortable and confident in our care.
\

\
French Dentist was established in 2007 and proved its constant commitment to provide high quality treatment to both the expatriate and Shanghainese community. Our team of highly qualified dentists and specialists comes exclusively from France, Germany and Korea, and they are selected for their commitment to excellent results and quality patient care.
\

\
We understand that first-rate state-of-the-art equipment, highly-educated and friendly staff, and a wide range of services are qualities that are on the top of your check–list. This is why at French Dentist we offer full and effective dental service, including: cosmetic dentistry, implant dentistry, prosthetic dentistry, pediatric dentistry, orthodontics, and, of course, general dentistry and hygiene services.
\

\
Your comfort and trust in us is our utmost concern.
\
",,,,"021 5169 9696 (zh,STAND)","ORTHOPHO (zh),DENT (zh),HDON (zh),EST (zh),PRO (zh),CHIRD (zh)",
180,New York Dental Clinic-Puxi,纽约齿科,"No.129, Fugui Dong Road,Changning District,","上海市长宁区富贵东路129号
\
 
\
（近伊犁南路和黄金城道）",Shanghai,上海,201103,nydentalclinic@gmail.com,www.newyorkdentalchina.com,31.200411,121.413196,,"PROFESSIONALISM 
\
 
\
The founding dentists at New York Dental Clinic are two distinguished and respectable dental professionals – Dr. Alex Chou (Specialist in Periodontology and Implant Dentistry) and Dr. Sheila So (Specialist in Orthodontics and Dentofacial Orthopedics). Both doctors graduated from renowned New York University College of Dentistry and hold the dental specialties qualifications in the United States. With their backgrounds of profound clinical experiences and passion in teaching and research, Dr Chou and Dr. So are gathered together in New York Dental Clinic to deliver the highest possible standards of dentistry and personalized dental care services to our patients. Our mission is to reconstruct a charming smile in recognition of each patient’s individuality and uniqueness. 
\
 
\
RELIABILITY 
\
 
\
Besides having our well-qualified dental professionals, New York Dental Clinic follows American standards of sterilization to ensure patients’ confidence in cleanliness and safety. In addition, our clinic is equipped with digital radiography and photography with high resolution so that more accurate and detailed clinical diagnosis can be achieved for better treatment planning.
\
 
\
COMFORT
\
 
\
New York Dental Clinic understands the needs of patients. Our spacious clinic and top-notched dental facilities ensure comfort of patients during dental treatments. Our welcoming staff is courteous and well-mannered. Our appointment schedules are punctual and flexible. We hope to deliver to our patients an unsurpassed dental experience with ease in dental treatments, contentment in esthetics, and satisfaction in services.","专业
\

\
 纽约齿科是由美国纽约大学的两位牙科专家－周鸿国医生(牙周种植专科)和苏雯琦医生(牙齿矫正专科/正畸科)主治。两位医生拥有美国牙齿专科专业资格，丰富临床及教学经验，致力于为病人创造健康亮丽的牙齿。纽约齿科采用美国式的诊所管理和先进的医疗设备，提供个人化的牙科服务。同时诊所还引进电脑化和高解像度的Ｘ光设备，让诊断更加精确无误。
\

\
 可靠
\

\
 纽约齿科的周鸿国院长和苏雯琦医生均拥有非凡的毅力和敏智 － 他们都经历过中外文化的薰陶和培养，而都能脱颖而出，得到美国的专业资格，同袍的认可肯定，和病人的赞许信任。他们在牙科追求完美的执着以及对知识开放的态度，都能为病人提供新科技的多元化选择，制定适合的治疗计划去打造自信健康的笑容。
\

\
 舒适
\

\
 为了认病人得到顶级的服务，纽约齿科提供宽敞优雅的侯诊室和多个独立治疗室，确保病人得到充分的空间和隐私。另外，我们的医疗团队细心温柔，没有推销压力，没有预约重叠，没有时间紧迫，让你安心接受治疗。",,,"021 6278 1181  (zh,STAND),021 6278 1182 (zh,STAND)","PAR (zh),HDON (zh),DENT (zh),PRO (zh)",
181,Hygeia Dental Care,恒基齿科,"No.3040, Yan’An West Road",上海市延安西路3040号,Shanghai,上海,,yorkdent@gmail.com,www.hygeia-dental.com,,,,"Welcome to Hygeia Dental Care. 
\

\
We provide professional dental solutions designed according to your needs. Located in the international community of Shanghai, all of our senior dentists have extensive training and work experience abroad. Over the years, we have had the privilege of serving thousands of patients, including senior government officials, diplomats and their families, business people, teachers, physicians, and even other dentists. 
\
","欢迎来到恒基齿科！
\
在恒基齿科，我們追求五“心“级的医疗服务
\
 恒基齿科隶属于上海恒基口腔门诊部有限公司。自2006年开业以来，我们有幸接待了包括美国前第一夫人在内的数以千计的国内外客人，向他们提供了系列化的口腔医疗服务，从简单的补牙、拔牙到口腔种植、牙齿矫正及美容，覆盖了从幼儿到老年的整体口腔保健，尤其擅长于牙体修复、美容、牙周预防及牙齿矫正。
\
 我们的主治医师，均具有近20年的牙科专业经验，包括数年的海外学习或工作经历。作为医生，他们都有一个共同的特点：精益求精，视患者如亲人。
\
",,,"021-64061866 (zh,STAND)",DENT (zh),
182,Huashan Pudong Hospital International Division – Managed by UFH,华山医院东院国际部-由和睦家医院管理,"Ground Floor, Area A, No.525 Hongfeng Roa, Pudong District",上海市浦东新区红枫路525号一楼A、B区 ,Shanghai,,201206,shuptservice@ufh.com.cn,http://shanghai.ufh.com.cn,31.245242,121.601746,,"United Family Healthcare manages the International Division of Huashan Pudong Hospital. This state-of-the-art facility opened on August 9, 2010 and is located in Pudong’s Jinqiao neighborhood. The UFH-managed facility offers comprehensive healthcare to our Chinese and expatriate communities in Pudong.
\
 
\
The International Division of Huashan Pudong Hospital brings together highly-trained medical practitioners from China and around the world with the latest in medical technology in comfortable settings for all our patients. Currently, this facility offers Family Medicine, Pediatric Care, Gynecology &amp; Women’s Health, Childhood Development, Dermatology, Mental Health and Pharmacy and Laboratory Services.
\
 
\
As with all facilities in the UFH network, the International Division of Huashan Pudong Hospital adheres strictly to Joint Commission International (JCI) accreditation standards and offers direct billing to numerous global insurance providers.
\
","“华山医院东院国际部——由和睦家医疗管理”坐落在浦东金桥地区，环境优雅、设施先进，于2010年8月9日开张营业。该国际部致力于为居住在浦东的中外居民提供全面且悉心周到的、符合国际标准的医疗服务。
\
 
\
“华山医院东院国际部——由和睦家医疗管理”拥有来自国内及世界各地的高素质医务人员、先进的医疗设备和配套设施，使病人能在舒适的环境中就诊。目前，诊所提供家庭全科、儿科、妇科、儿童生长发育咨询、皮肤科、心理科等门诊服务，以及药房和检验服务。
\
 
\
与每一家和睦家医疗的分支机构一样，华山医院东院国际部严格遵守JCI标准，并提供多种国际保险直接赔付业务。
\
",,,"021 2216 3999 (zh,URG),021 5030 9907 (zh,STAND)","RAD (zh),INT (zh),GEN (zh),GYN (zh),ANA (zh),PSYCHO (zh),PED (zh),PHA (zh)",
183,United Family Quankou Clinic,和睦家泉口诊所,"No.8 QuanKou Road, Changning District",上海市长宁区泉口路8号,Shanghai,上海,200336,shuptservice@ufh.com.cn,http://shanghai.ufh.com.cn,31.216095,121.383199,,,,,,"021 2216 3999 (zh,URG),400 639 3900 (zh,STAND),021 2216 3909 (zh,STAND)","PHA (zh),DENT (zh),REHAB (zh),PSY (zh),ORL (zh),OPH (zh),INT (zh),DER (zh),PSYCHO (zh)",
184,Shanghai Tokushinkai Dental Clinic-Jinqiao,德真会齿科-金桥诊所,"No.160 LanAn Road, Golden Bridge, Pudong District, Shanghai, China",上海浦东蓝桉路160号（德威学校北侧）,Shanghai,上海,201206,reception_jq@tokushinkai.com.cn,www.tokushinkai.com.cn,31.243972,121.586905,,"Shanghai Pudong New Area Tokushinkai Dental Clinic was opened in the Pudong District on Nov. 28. 2004. This is the third clinic of the Tokushinkai Group in China. It is located in Pentaphyllum Road, Golden Bridge, and the biggest developing area in Shanghai nowadays.
\

\
We have an area of 561 square meters and a total floor space of 202 square meters, with six examination chairs. 
\

\
The interior is filled with natural wooden works or rattan-works and designed with an image based on an Asian-style atmosphere.
\

\
We provide general dentistry, child dentistry, orthodontic dentistry, implant dentistry, and aesthetic dentistry like whitening.
\
 Some local staff, who can speak foreign languages, like English or Japanese, are there. So, if you seek a reliable dental clinic, please come to see us.
\
 ",,,,"021-50307868 (en,STAND),021-50307858 (zh,STAND)",DENT (zh),
185,KOWA HONI Clinic (Puxi),科瓦恒利店---浦西,"HONI Plaza, No.199, Chengdu North Road, Jingan District,Shanghai",上海市静安区成都北路199号恒利国际大厦11楼,Shanghai,上海,,service@kowa.cn,www.kowa-dental.com,31.233114,121.473168,,"Our team of international and overseas trained dentists will look after all your family’s dental health needs.
\

\
Our bright and comfortable clinics, and attentive staff are designed to make the family’s visit comfortable and satisfying, whilst ensuring your teeth &amp; gums stay in perfect health. ","⊙ 科瓦齿科隶属于上海科瓦口腔门诊有限公司，把握世界前沿口腔诊疗技术脉动，专注于为客户提供专业、安全、卫生、美观、舒适的口腔诊疗服务。
\
 ⊙ 科瓦齿科享用德国百年齿科经验，汇聚中国、美国、法国、日本、中国台湾、韩国、德国等多国国际知名口腔专业医师，特聘多位口腔医学博士后、博士常年坐诊，满足不同国籍会员的诊疗需求。
\
 ⊙ 科瓦齿科拥有全球先进口腔诊疗设备，引进德国多款高端的齿科诊疗设备，包括：数字内窥镜、龋齿激光探测、全景扫描机、牙根尖扫描、德国卡瓦牙椅、三维CT等，为您提供精准的口腔诊疗支持。
\
 ⊙ 科瓦齿科严格执行德国米拉格消毒灭菌管理，超越您对卫生条件的高要求。
\
 
\
⊙ 科瓦齿科拥有心理学级别的就医环境，采用一医一诊室的诊疗方式，国际标准的口腔四手操作，使您在舒适、平静、安全的感觉中完成整个诊疗护理过程，避免自发的恐惧和疼痛的心理暗示。科瓦提供超值的服务价格，会员可享受到相当于国家公立医院特需门诊的价格及每年会员专属免费项目。
\
 ⊙ 科瓦齿科严格执行美国ADA专业管理，超越您对口腔诊疗服务的高要求。
\
 ⊙ 科瓦齿科提供20余家国际保险直接结算服务。科瓦齿科拥有众多名人、企业CEO、外企高管会员，与世界精英同侪，会员身份自然尊贵。
\
 ⊙ 科瓦成为30余家世界500强企业、中国100强企业员工口腔医疗定点机构。 
\
 ⊙ 科瓦齿科国际种植中心通过欧盟CE认证，拥有美国、德国、瑞士、瑞典、韩国等全球知名种植系统，并成为口腔种植专业的演示中心及培训基地；国际口腔种植中心落户科瓦，科瓦并成为教学医院。
\
 ⊙ 科瓦齿科特邀国际齿科权威专家喻剑明（美国哈佛正畸学博士后）、张永刚、冯雨欣、金辰（日本齿科博士）刘博(法兰克福种植硕士)等30余位专家坐诊；与美国、日本、德国、中国台湾等国际知名口腔产品生产企业合作；运用先进材料，保护你的口腔健康。
\
 ⊙ 科瓦齿科以&quot;客户满意，我们永远的追求&quot;为宗旨，始终用超越现在的眼光审度，以未来为导向，以优质个性化的服务理念，为您的口腔健康竭尽全力。 ",,,"021-51082222 (zh,STAND),400-6060-222  (zh,STAND)",DENT (zh),
186,Shanghai Senmao Clinic,上海森茂诊所,"No.1000, LuJiaZui Road",上海市浦东新区陆家嘴环路1000号恒生银行大厦3楼,Shanghai,,,,www.senmaoclinic.jp,31.246211,121.513944,,,,"1. 日本人の医師・看護師・薬剤師が常駐しています。
\
  予約から診療、検査、投薬まで全て日本語でOK。
\

\
2. 中国衛生部の認可を受けた上海初の日系医療機関として
\
    1998年に開業以来16年の実績。
\

\
3. 内科、外科、胃腸科、小児科、婦人科、耳鼻咽喉科
\
  それぞれの専門医による適切な診察。 
\

\
4. 明快な料金体系で安心。
\
 各種海外旅行保険の適用によりキャッシュレスで受診可能。
\
 さらに片道50元までタクシー代をサービス。
\

\
5. 森茂国際健診センターを併設し、日本と同等の健康診断を実施
\

\
6. 日本と同水準の医療機器（ヘリカルCTスキャンなど）を完備。
\

\
7. 管理栄養士が常駐し、プライマリーケアとして食生活を指導
\

\
8. 診療所の場所は浦東新区の中心に立つHSBCタワー内。
\
  アクセス至便で通いやすい。
\

\
9. 日本の医療機関との充実したネットワーク
\

\

\

\
",,"021 6841 0513  (zh,STAND),021 6841 0385 (zh,STAND)","INT (zh),PED (ja),PED (zh),GYN (zh),ORL (zh),INT (ja),GYN (ja),ORL (ja),GAS (ja)",
187,Shanghai Pudong Hospital,上海市浦东医院,"No.2800, GongWei Road, Huinan Town, Pudong",上海市浦东新区惠南镇拱为路2800号,Shanghai,上海,,pudongyiyuan@pudonghospital.org,www.shpdh.org,31.062861,121.743932,,,"上海市浦东医院暨复旦大学附属浦东医院﹙筹﹚始建于1932年，是原南汇地区第一家公立医院，2008年成为复旦大学附属华山医院南汇分院，2011年成为复旦大学第十一所附属医院。浦东医院是国际紧急救援中心网络医院、全国爱婴医院，红十字冠名医院以及上海市文明单位，是集医疗、教学、科研及预防为一体的浦东南部地区最大的医疗中心，已被正式确立为浦东新区“十二五”卫生规划中重点发展的医院。
\

\
    医院毗邻浦东国际航空港和洋山深水港，紧临上海国际旅游度假区和轨道交通16号线。医院占地150亩，建筑面积9万余平方米，绿化率超过40%，是一座交通便捷、环境优美、学科齐全的现代化花园式医院。
\

\
    医院核定床位1000张，实际开放1000张，设临床医技科室32个，现有职工1312人，其中高级职称113人，硕、博士以上学历129人，博士研究生导师3名 ，硕士研究生导师10名。2013年门急诊量超140万人次，住院病人数近3.5万人次，手术1.6万多例，曾在多次重大事故急救中取得佳绩。医院拥有1.5T双梯度核磁共振、64排螺旋CT、数字C臂心血管造影机（DSA）、彩色多普勒超声系统、氩气刀、海扶刀等高精尖医疗设备和设施。
\

\
    医院拥有血管外科、骨科、消化内科、重症医学科、心内科、神经内科、呼吸内科、普外科、泌尿外科、神经外科、妇产科、急救创伤部、皮肤科、病理科、内分泌科、儿科、放射科等一批特色学科。其中血管外科为上海市医学重点专科，骨科、消化内科、肾内科、胸外科、神经内科为复旦大学“985”工程医院优势学科；急救创伤骨科学科群、糖尿病与肥胖外科学科群为浦东新区重点学科群；泌尿外科、肾内科、产科、消化内科为浦东新区重点学科；创伤骨科、心血管内科、神经外科为浦东新区重点专科。急救创伤、脑卒中筛查诊治、康复治疗、腔道微创诊治、微创泌尿外科及糖尿病外科治疗、皮肤美容、脊柱微创治疗为“十二五”期间重点建设学科，医学科研与创新中心为医院加快建设学科。
\

\
    浦东医院有上海市领军人才、上海市科技启明星、浦东新区卫生系统领先人才、学科带头人及优秀青年医学人才等数人。医院承担多项国家自然科学基金及上海市重点科研课题，同时是上海市临床医学专业学位研究生实践基地、上海市住院医师规范化培训基地、复旦大学上海医学院社会实践与教学基地以及南京医科大学、河北医科大学的教学医院。
\

\
    医院拥有海内外一流人才多名，并培养了一批中青年学科带头人，同时积极拓展与国际合作单位美国杜克大学、斯坦福大学、旧金山加利福尼亚大学、克利夫兰医学中心以及台湾嘉义长庚医院等交流合作，并以“全员代言浦东医院”为契机，全面开展人文服务。
\

\
     与时逐，铸精医。医院将始终坚持“一切为了病人”的宗旨，恪守“诚信仁爱、求实创新、团结奉献、和谐进取”的核心价值观，为了实现“立足浦东、辐射上海及周边地区。成为浦东南片地区的医教研中心及高地，形成专科特色突出的现代化综合性三级医院。塑造最可信赖的医院品牌和营造和谐进取的医院文化。员工有实力，具有时代品味和自豪感，快乐工作”的愿景而努力奋斗！",,,"021 68036269 (zh,STAND)","NEUR (zh),END (zh),CHIRV (zh),GYN (zh),CHIRT (zh),ORTHOPEDIE (zh),CHIN (zh),STO (zh),PNEU (zh),DER (zh),ONC (zh),CHI (zh),OPH (zh),ORL (zh),CHIRVI (zh),ACC (zh),GAS (zh),CAR (zh),CHIRU (zh),NEP (zh)",